{
"type": "FeatureCollection",
"name": "AH-Hirsch-Ring_AGG_wgs84",
"crs": { "type": "name", "properties": { "name": "urn:ogc:def:crs:OGC:1.3:CRS84" } },
"features": [
{ "type": "Feature", "properties": { "gisid": "0898610,0898620,0898630,0898640,0898650,0898660", "strnr": "08986", "strname": "Alice-und-Hella-Hirsch-Ring", "strabnr": "10,20,30,40,50,60", "strabtypname": "Strasse", "bez": "11", "bezname": "Lichtenberg", "ort": "1112", "ortname": "Rummelsburg" }, "geometry": { "type": "MultiLineString", "coordinates": [ [ [ 13.483289079210776, 52.497613416380702 ], [ 13.482701672094967, 52.497131918762477 ] ], [ [ 13.482701672094967, 52.497131918762477 ], [ 13.481626763258005, 52.496247221822337 ] ], [ [ 13.481626763258005, 52.496247221822337 ], [ 13.481662445439278, 52.496142121684976 ], [ 13.482081270780087, 52.495939536708264 ] ], [ [ 13.482081270780087, 52.495939536708264 ], [ 13.482650442440219, 52.495685908997203 ] ], [ [ 13.483788546988105, 52.496609316298816 ], [ 13.482650442440219, 52.495685908997203 ] ], [ [ 13.484397968118552, 52.497115098341219 ], [ 13.483788546988105, 52.496609316298816 ] ] ] } }
]
}
