{
"type": "FeatureCollection",
"name": "AH-Hirsch-Ring_AGG",
"crs": { "type": "name", "properties": { "name": "urn:ogc:def:crs:EPSG::3857" } },
"features": [
{ "type": "Feature", "properties": { "gisid": "0898610,0898620,0898630,0898640,0898650,0898660", "strnr": "08986", "strname": "Alice-und-Hella-Hirsch-Ring", "strabnr": "10,20,30,40,50,60", "strabtypname": "Strasse", "bez": "11", "bezname": "Lichtenberg", "ort": "1112", "ortname": "Rummelsburg" }, "geometry": { "type": "MultiLineString", "coordinates": [ [ [ 1500952.874516250099987, 6890605.319661649875343 ], [ 1500887.484655230073258, 6890517.277180270291865 ] ], [ [ 1500887.484655230073258, 6890517.277180270291865 ], [ 1500767.826350850053132, 6890355.511678540147841 ] ], [ [ 1500767.826350850053132, 6890355.511678540147841 ], [ 1500771.798473099945113, 6890336.294493170455098 ], [ 1500818.421896769898012, 6890299.252682119607925 ] ], [ [ 1500818.421896769898012, 6890299.252682119607925 ], [ 1500881.781796149909496, 6890252.878162319771945 ] ], [ [ 1501008.475014890078455, 6890421.719714210368693 ], [ 1500881.781796149909496, 6890252.878162319771945 ] ], [ [ 1501076.315464810002595, 6890514.201561249792576 ], [ 1501008.475014890078455, 6890421.719714210368693 ] ] ] } }
]
}
