{
"type": "FeatureCollection",
"name": "Coppistr_AGG_wgs84",
"crs": { "type": "name", "properties": { "name": "urn:ogc:def:crs:OGC:1.3:CRS84" } },
"features": [
{ "type": "Feature", "properties": { "gisid": "4375310,4375320,4375330", "strnr": "43753", "strname": "Coppistraße", "strabnr": "10,20,30", "strabtypname": "Strasse", "bez": "11", "bezname": "Lichtenberg", "ort": "1103", "ortname": "Lichtenberg" }, "geometry": { "type": "MultiLineString", "coordinates": [ [ [ 13.48403105989647, 52.508589565900024 ], [ 13.483263074911441, 52.508789037580932 ], [ 13.48315558254488, 52.508781718351159 ], [ 13.48309239508364, 52.508737607659896 ], [ 13.481279112488096, 52.506575934459534 ] ], [ [ 13.48403105989647, 52.508589565900024 ], [ 13.486299636782693, 52.507987484814443 ], [ 13.486578178304841, 52.5079294021252 ] ], [ [ 13.486578178304841, 52.5079294021252 ], [ 13.486968657510326, 52.507869653760949 ], [ 13.487684767501234, 52.507763557066745 ], [ 13.488075300736163, 52.507685831866752 ] ] ] } }
]
}
