{
"type": "FeatureCollection",
"name": "Coppistr_AGG",
"crs": { "type": "name", "properties": { "name": "urn:ogc:def:crs:EPSG::3857" } },
"features": [
{ "type": "Feature", "properties": { "gisid": "4375310,4375320,4375330", "strnr": "43753", "strname": "Coppistraße", "strabnr": "10,20,30", "strabtypname": "Strasse", "bez": "11", "bezname": "Lichtenberg", "ort": "1103", "ortname": "Lichtenberg" }, "geometry": { "type": "MultiLineString", "coordinates": [ [ [ 1501035.471428360091522, 6892612.584789710119367 ], [ 1500949.979730889899656, 6892649.067843159660697 ], [ 1500938.013735380023718, 6892647.729164740070701 ], [ 1500930.979739370057359, 6892639.66137649025768 ], [ 1500729.126044169999659, 6892244.304071259684861 ] ], [ [ 1501035.471428360091522, 6892612.584789710119367 ], [ 1501288.008252159925178, 6892502.466120090335608 ], [ 1501319.015352569986135, 6892491.843065179884434 ] ], [ [ 1501319.015352569986135, 6892491.843065179884434 ], [ 1501362.483298890059814, 6892480.915380669757724 ], [ 1501442.200298429932445, 6892461.510849200189114 ], [ 1501485.674259280087426, 6892447.295345629565418 ] ] ] } }
]
}
