{
"type": "FeatureCollection",
"name": "DekolonialWedding_AGG",
"crs": { "type": "name", "properties": { "name": "urn:ogc:def:crs:EPSG::3857" } },
"features": [
{ "type": "Feature", "properties": { "gisid": "1119810,1119820,1119830,1119840,1119850", "strnr": "11198", "strname": "Manga-Bell-Platz", "strabnr": "10,20,30,40,50", "strabtypname": "Strasse", "bez": "01", "bezname": "Mitte", "ort": "0105", "ortname": "Wedding" }, "geometry": { "type": "MultiLineString", "coordinates": [ [ [ 1484368.324804299976677, 6901535.78855227958411 ], [ 1484394.128358710091561, 6901567.979250920005143 ], [ 1484415.081646119942889, 6901581.8859968399629 ], [ 1484430.847232809988782, 6901579.81083523016423 ], [ 1484481.42664275993593, 6901532.791461920365691 ] ], [ [ 1484481.42664275993593, 6901532.791461920365691 ], [ 1484522.45267328992486, 6901493.960429480299354 ], [ 1484526.263502130052075, 6901485.090545490384102 ], [ 1484521.873648229986429, 6901474.706596990115941 ], [ 1484424.490486799972132, 6901365.386136620305479 ] ], [ [ 1484424.490486799972132, 6901365.386136620305479 ], [ 1484382.636089369887486, 6901324.904166479595006 ], [ 1484374.272066609933972, 6901323.224857930094004 ], [ 1484360.954409680096433, 6901328.929657589644194 ], [ 1484325.366054439917207, 6901362.515730530023575 ] ], [ [ 1484325.366054439917207, 6901362.515730530023575 ], [ 1484273.626502990024164, 6901412.325636680237949 ], [ 1484269.808044960023835, 6901423.005370520055294 ], [ 1484272.714347959961742, 6901434.864164659753442 ], [ 1484317.154269240098074, 6901485.394868509843946 ] ], [ [ 1484317.154269240098074, 6901485.394868509843946 ], [ 1484368.324804299976677, 6901535.78855227958411 ] ] ] } },
{ "type": "Feature", "properties": { "gisid": "1119910,1119920,1119930,1119940,1119950", "strnr": "11199", "strname": "Cornelius-Fredericks-Straße", "strabnr": "10,20,30,40,50", "strabtypname": "Strasse", "bez": "01", "bezname": "Mitte", "ort": "0105", "ortname": "Wedding" }, "geometry": { "type": "MultiLineString", "coordinates": [ [ [ 1485253.159995019901544, 6900957.031997200101614 ], [ 1485091.219903490040451, 6901110.39423154015094 ] ], [ [ 1485417.707651990000159, 6900806.805751049891114 ], [ 1485253.159995019901544, 6900957.031997200101614 ] ], [ [ 1485417.707651990000159, 6900806.805751049891114 ], [ 1485644.203900849912316, 6900593.149545639753342 ] ], [ [ 1485644.203900849912316, 6900593.149545639753342 ], [ 1485862.935516870114952, 6900389.662781660445035 ] ], [ [ 1485862.935516870114952, 6900389.662781660445035 ], [ 1486153.316162740113214, 6900114.721519299782813 ] ] ] } },
{ "type": "Feature", "properties": { "gisid": "1120010", "strnr": "11200", "strname": "Maji-Maji-Allee", "strabnr": "10", "strabtypname": "Strasse", "bez": "01", "bezname": "Mitte", "ort": "0105", "ortname": "Wedding" }, "geometry": { "type": "MultiLineString", "coordinates": [ [ [ 1484142.66854829993099, 6901165.312408139929175 ], [ 1484325.366054439917207, 6901362.515730530023575 ] ] ] } },
{ "type": "Feature", "properties": { "gisid": "1120110,1120120,1120130", "strnr": "11201", "strname": "Anna-Mungunda-Allee", "strabnr": "10,20,30", "strabtypname": "Strasse", "bez": "01", "bezname": "Mitte", "ort": "0105", "ortname": "Wedding" }, "geometry": { "type": "MultiLineString", "coordinates": [ [ [ 1484481.42664275993593, 6901532.791461920365691 ], [ 1484397.41298232995905, 6901445.572481440380216 ] ], [ [ 1484560.674985829973593, 6901621.801115869544446 ], [ 1484481.42664275993593, 6901532.791461920365691 ] ], [ [ 1484714.149024530081078, 6901784.662391319870949 ], [ 1484560.674985829973593, 6901621.801115869544446 ] ] ] } }
]
}
