{
"type": "FeatureCollection",
"name": "DekolonialWedding_AGG_wgs84",
"crs": { "type": "name", "properties": { "name": "urn:ogc:def:crs:OGC:1.3:CRS84" } },
"features": [
{ "type": "Feature", "properties": { "gisid": "1119810,1119820,1119830,1119840,1119850", "strnr": "11198", "strname": "Manga-Bell-Platz", "strabnr": "10,20,30,40,50", "strabtypname": "Strasse", "bez": "01", "bezname": "Mitte", "ort": "0105", "ortname": "Wedding" }, "geometry": { "type": "MultiLineString", "coordinates": [ [ [ 13.334307534345928, 52.557350362129881 ], [ 13.334539331619039, 52.557526170010554 ], [ 13.334727558202367, 52.557602120785646 ], [ 13.334869182877236, 52.557590787435799 ], [ 13.335323545447434, 52.557333993635865 ] ], [ [ 13.335323545447434, 52.557333993635865 ], [ 13.335692088550152, 52.557121918889735 ], [ 13.335726321808075, 52.557073476088654 ], [ 13.33568688707954, 52.557016764168296 ], [ 13.334812079256254, 52.556419706176975 ] ], [ [ 13.334812079256254, 52.556419706176975 ], [ 13.334436094807065, 52.556198610244415 ], [ 13.334360959512244, 52.556189438525188 ], [ 13.334241324964557, 52.556220595877214 ], [ 13.333921629330067, 52.556404029231821 ] ], [ [ 13.333921629330067, 52.556404029231821 ], [ 13.333456845031458, 52.556676069096937 ], [ 13.333422543239358, 52.556734396900374 ], [ 13.333448651003408, 52.55679916409904 ], [ 13.333847861608518, 52.557075138147297 ] ], [ [ 13.333847861608518, 52.557075138147297 ], [ 13.334307534345928, 52.557350362129881 ] ] ] } },
{ "type": "Feature", "properties": { "gisid": "1119910,1119920,1119930,1119940,1119950", "strnr": "11199", "strname": "Cornelius-Fredericks-Straße", "strabnr": "10,20,30,40,50", "strabtypname": "Strasse", "bez": "01", "bezname": "Mitte", "ort": "0105", "ortname": "Wedding" }, "geometry": { "type": "MultiLineString", "coordinates": [ [ [ 13.342256144103434, 52.554189392133956 ], [ 13.340801411510103, 52.55502702628614 ] ], [ [ 13.343734300855655, 52.553368870624773 ], [ 13.342256144103434, 52.554189392133956 ] ], [ [ 13.343734300855655, 52.553368870624773 ], [ 13.345768951277121, 52.552201874264853 ] ], [ [ 13.345768951277121, 52.552201874264853 ], [ 13.347733850815032, 52.551090394832137 ] ], [ [ 13.347733850815032, 52.551090394832137 ], [ 13.350342384539008, 52.549588574018074 ] ] ] } },
{ "type": "Feature", "properties": { "gisid": "1120010", "strnr": "11200", "strname": "Maji-Maji-Allee", "strabnr": "10", "strabtypname": "Strasse", "bez": "01", "bezname": "Mitte", "ort": "0105", "ortname": "Wedding" }, "geometry": { "type": "MultiLineString", "coordinates": [ [ [ 13.332280429708707, 52.555326974602458 ], [ 13.333921629330067, 52.556404029231821 ] ] ] } },
{ "type": "Feature", "properties": { "gisid": "1120110,1120120,1120130", "strnr": "11201", "strname": "Anna-Mungunda-Allee", "strabnr": "10,20,30", "strabtypname": "Strasse", "bez": "01", "bezname": "Mitte", "ort": "0105", "ortname": "Wedding" }, "geometry": { "type": "MultiLineString", "coordinates": [ [ [ 13.335323545447434, 52.557333993635865 ], [ 13.334568837895043, 52.556857647845192 ] ], [ [ 13.336035445425644, 52.55782011384381 ], [ 13.335323545447434, 52.557333993635865 ] ], [ [ 13.33741412617244, 52.558709555746482 ], [ 13.336035445425644, 52.55782011384381 ] ] ] } }
]
}
