{"type": "FeatureCollection", "name": "Dokolonial_Berlin_AGG", "crs": {"type": "name", "properties": {"name": "urn:ogc:def:crs:EPSG::3857"}}, "features": [{"type": "Feature", "properties": {"gisid": "1135950,1135910,1135920,1135930,1135940", "strnr": "11359", "strname": "Audre-Lorde-Straße", "strabnr": "50,10,20,30,40", "strabtypname": "Strasse", "bez": "02", "bezname": "Friedrichshain-Kreuzberg", "ort": "0202", "ortname": "Kreuzberg"}, "geometry": {"type": "MultiLineString", "coordinates": [[[1495240.96146267, 6892093.13213958], [1495021.41488359, 6891680.5176079]], [[1494710.5885781, 6891087.72141052], [1494606.70861079, 6890893.03192571]], [[1494710.5885781, 6891087.72141052], [1494801.90344968, 6891263.31662096]], [[1494801.90344968, 6891263.31662096], [1494916.22818961, 6891478.58342243]], [[1494916.22818961, 6891478.58342243], [1495021.41488359, 6891680.5176079]]]}}, {"type": "Feature", "properties": {"gisid": "1127110", "strnr": "11271", "strname": "Lucy-Lameck-Straße", "strabnr": "10", "strabtypname": "Strasse", "bez": "08", "bezname": "Neukölln", "ort": "0801", "ortname": "Neukölln"}, "geometry": {"type": "MultiLineString", "coordinates": [[[1494268.27922251, 6887777.18121829], [1494264.10852349, 6887803.61615319], [1494256.21852729, 6888104.20588688], [1494263.10441309, 6888569.78516692], [1494265.78043843, 6888608.89161836]]]}}, {"type": "Feature", "properties": {"gisid": "1129210,1129220,1129230,1129240,1129250,1129260,1129270,1129280", "strnr": "11292", "strname": "Anton-Wilhelm-Amo-Straße", "strabnr": "10,20,30,40,50,60,70,80", "strabtypname": "Strasse", "bez": "01", "bezname": "Mitte", "ort": "0101", "ortname": "Mitte"}, "geometry": {"type": "MultiLineString", "coordinates": [[[1489959.67399013, 6893181.6380915], [1489834.55337421, 6893137.3288777]], [[1489959.67399013, 6893181.6380915], [1489908.86231747, 6893323.15850341]], [[1489959.67399013, 6893181.6380915], [1490062.19879236, 6893216.82928983], [1490121.69982201, 6893222.45254798]], [[1490121.69982201, 6893222.45254798], [1490193.34882408, 6893223.67793419]], [[1490524.77474014, 6893258.30775321], [1490193.34882408, 6893223.67793419]], [[1490524.77474014, 6893258.30775321], [1490739.3478025, 6893276.5991591]], [[1490956.1933593, 6893302.28901635], [1490739.3478025, 6893276.5991591]], [[1490956.1933593, 6893302.28901635], [1490968.34058554, 6893298.05448438], [1491288.46552695, 6893330.64410308]]]}}, {"type": "Feature", "properties": {"gisid": "1131110,1131120,1131130", "strnr": "11311", "strname": "Baraschstraße", "strabnr": "10,20,30", "strabtypname": "Strasse", "bez": "04", "bezname": "Charlottenburg-Wilmersdorf", "ort": "0404", "ortname": "Grunewald"}, "geometry": {"type": "MultiLineString", "coordinates": [[[1477339.44194434, 6889162.09547364], [1477196.8782876, 6889258.65296522]], [[1477364.10455081, 6889145.78789128], [1477339.44194434, 6889162.09547364]], [[1477364.10455081, 6889145.78789128], [1477429.20561594, 6889104.3783797], [1477532.25712344, 6889110.79983796], [1477818.85538587, 6889354.70235761]]]}}, {"type": "Feature", "properties": {"gisid": "1119810,1119820,1119830,1119840,1119850", "strnr": "11198", "strname": "Manga-Bell-Platz", "strabnr": "10,20,30,40,50", "strabtypname": "Strasse", "bez": "01", "bezname": "Mitte", "ort": "0105", "ortname": "Wedding"}, "geometry": {"type": "MultiLineString", "coordinates": [[[1484368.3248043, 6901535.78855228], [1484394.12835871, 6901567.97925092], [1484415.08164612, 6901581.88599684], [1484430.84723281, 6901579.81083523], [1484481.42664276, 6901532.79146192]], [[1484481.42664276, 6901532.79146192], [1484522.45267329, 6901493.96042948], [1484526.26350213, 6901485.09054549], [1484521.87364823, 6901474.70659699], [1484424.4904868, 6901365.38613662]], [[1484424.4904868, 6901365.38613662], [1484382.63608937, 6901324.90416648], [1484374.27206661, 6901323.22485793], [1484360.95440968, 6901328.92965759], [1484325.36605444, 6901362.51573053]], [[1484325.36605444, 6901362.51573053], [1484273.62650299, 6901412.32563668], [1484269.80804496, 6901423.00537052], [1484272.71434796, 6901434.86416466], [1484317.15426924, 6901485.39486851]], [[1484317.15426924, 6901485.39486851], [1484368.3248043, 6901535.78855228]]]}}, {"type": "Feature", "properties": {"gisid": "1119910,1119920,1119930,1119940,1119950", "strnr": "11199", "strname": "Cornelius-Fredericks-Straße", "strabnr": "10,20,30,40,50", "strabtypname": "Strasse", "bez": "01", "bezname": "Mitte", "ort": "0105", "ortname": "Wedding"}, "geometry": {"type": "MultiLineString", "coordinates": [[[1485253.15999502, 6900957.0319972], [1485091.21990349, 6901110.39423154]], [[1485417.70765199, 6900806.80575105], [1485253.15999502, 6900957.0319972]], [[1485417.70765199, 6900806.80575105], [1485644.20390085, 6900593.14954564]], [[1485644.20390085, 6900593.14954564], [1485862.93551687, 6900389.66278166]], [[1485862.93551687, 6900389.66278166], [1486153.31616274, 6900114.7215193]]]}}, {"type": "Feature", "properties": {"gisid": "1120010", "strnr": "11200", "strname": "Maji-Maji-Allee", "strabnr": "10", "strabtypname": "Strasse", "bez": "01", "bezname": "Mitte", "ort": "0105", "ortname": "Wedding"}, "geometry": {"type": "MultiLineString", "coordinates": [[[1484142.6685483, 6901165.31240814], [1484325.36605444, 6901362.51573053]]]}}, {"type": "Feature", "properties": {"gisid": "1120110,1120120,1120130", "strnr": "11201", "strname": "Anna-Mungunda-Allee", "strabnr": "10,20,30", "strabtypname": "Strasse", "bez": "01", "bezname": "Mitte", "ort": "0105", "ortname": "Wedding"}, "geometry": {"type": "MultiLineString", "coordinates": [[[1484481.42664276, 6901532.79146192], [1484397.41298233, 6901445.57248144]], [[1484560.67498583, 6901621.80111587], [1484481.42664276, 6901532.79146192]], [[1484714.14902453, 6901784.66239132], [1484560.67498583, 6901621.80111587]]]}}, {"type": "Feature", "properties": {"gisid": "1140610", "strnr": "11406", "strname": "Martha-Ndumbe-Platz", "strabnr": "10", "strabtypname": "Strasse", "bez": "01", "bezname": "Mitte", "ort": "0105", "ortname": "Wedding"}, "geometry": {"type": "MultiLineString", "coordinates": [[[1488309.46978794, 6899111.16514127], [1488280.73108297, 6899117.80694372], [1488225.24999724, 6899169.4244018]]]}}, {"type": "Feature", "properties": {"gisid": "1136310", "strnr": "11363", "strname": "Freia-Eisner-Straße", "strabnr": "10", "strabtypname": "Strasse", "bez": "02", "bezname": "Friedrichshain-Kreuzberg", "ort": "0201", "ortname": "Friedrichshain"}, "geometry": {"type": "MultiLineString", "coordinates": [[[1496117.52684931, 6891979.91467287], [1496241.72462227, 6892198.65849517]]]}}, {"type": "Feature", "properties": {"gisid": "1140310,1140320", "strnr": "11403", "strname": "Regina-Jonas-Straße", "strabnr": "10,20", "strabtypname": "Strasse", "bez": "02", "bezname": "Friedrichshain-Kreuzberg", "ort": "0202", "ortname": "Kreuzberg"}, "geometry": {"type": "MultiLineString", "coordinates": [[[1493213.89682441, 6890669.33411957], [1493230.32237669, 6890657.71564439], [1493508.0197579, 6890535.12459198]], [[1493508.0197579, 6890535.12459198], [1493791.9377112, 6890412.37963506], [1493814.12584462, 6890391.24643822], [1493887.41475398, 6890383.56989188]]]}}, {"type": "Feature", "properties": {"gisid": "0204210", "strnr": "02042", "strname": "Hofjägerallee", "strabnr": "10", "strabtypname": "Strasse", "bez": "01", "bezname": "Mitte", "ort": "0104", "ortname": "Tiergarten"}, "geometry": {"type": "MultiLineString", "coordinates": [[[1486266.33806774, 6892798.21318579], [1486149.45575737, 6893566.04950555]]]}}]}