{"type": "FeatureCollection", "name": "Dokolonial_Berlin_AGG_wgs84", "crs": {"type": "name", "properties": {"name": "urn:ogc:def:crs:OGC:1.3:CRS84"}}, "features": [{"type": "Feature", "properties": {"gisid": "1135950,1135910,1135920,1135930,1135940", "strnr": "11359", "strname": "Audre-Lorde-Straße", "strabnr": "50,10,20,30,40", "strabtypname": "Strasse", "bez": "02", "bezname": "Friedrichshain-Kreuzberg", "ort": "0202", "ortname": "Kreuzberg"}, "geometry": {"type": "MultiLineString", "coordinates": [[[13.431978091234848, 52.505749351978906], [13.430005870759212, 52.503493166592826]], [[13.42721367054993, 52.50025154117265], [13.426280500926445, 52.49918685604775]], [[13.42721367054993, 52.50025154117265], [13.428033965998006, 52.5012117846259]], [[13.428033965998006, 52.5012117846259], [13.429060962610327, 52.50238894379446]], [[13.429060962610327, 52.50238894379446], [13.430005870759212, 52.503493166592826]]]}}, {"type": "Feature", "properties": {"gisid": "1127110", "strnr": "11271", "strname": "Lucy-Lameck-Straße", "strabnr": "10", "strabtypname": "Strasse", "bez": "08", "bezname": "Neukölln", "ort": "0801", "ortname": "Neukölln"}, "geometry": {"type": "MultiLineString", "coordinates": [[[13.423240338005575, 52.48214390702947], [13.423202871978821, 52.48228852750282], [13.423131994937043, 52.48393296301205], [13.423193851901631, 52.48647988508341], [13.423217891046265, 52.48669380774477]]]}}, {"type": "Feature", "properties": {"gisid": "1129210,1129220,1129230,1129240,1129250,1129260,1129270,1129280", "strnr": "11292", "strname": "Anton-Wilhelm-Amo-Straße", "strabnr": "10,20,30,40,50,60,70,80", "strabtypname": "Strasse", "bez": "01", "bezname": "Mitte", "ort": "0101", "ortname": "Mitte"}, "geometry": {"type": "MultiLineString", "coordinates": [[[13.384535478670731, 52.511700770905996], [13.383411501054336, 52.511458525499826]], [[13.384535478670731, 52.511700770905996], [13.38407902964911, 52.5124744762022]], [[13.384535478670731, 52.511700770905996], [13.385456474639177, 52.51189316574322], [13.385990981482731, 52.511923908745466]], [[13.385990981482731, 52.511923908745466], [13.386634615419245, 52.51193060807066]], [[13.389611865078745, 52.51211993279094], [13.386634615419245, 52.51193060807066]], [[13.389611865078745, 52.51211993279094], [13.391539407693529, 52.512219933426294]], [[13.393487364473197, 52.51236038162553], [13.391539407693529, 52.512219933426294]], [[13.393487364473197, 52.51236038162553], [13.393596484863108, 52.51233723118174], [13.396472216140072, 52.51251540029471]]]}}, {"type": "Feature", "properties": {"gisid": "1131110,1131120,1131130", "strnr": "11311", "strname": "Baraschstraße", "strabnr": "10,20,30", "strabtypname": "Strasse", "bez": "04", "bezname": "Charlottenburg-Wilmersdorf", "ort": "0404", "ortname": "Grunewald"}, "geometry": {"type": "MultiLineString", "coordinates": [[[13.27116600531205, 52.48971986810026], [13.269885334193955, 52.49024802239435]], [[13.271387553275432, 52.48963066756327], [13.27116600531205, 52.48971986810026]], [[13.271387553275432, 52.48963066756327], [13.27197236609362, 52.48940416164441], [13.272898093536007, 52.48943928646025], [13.275472649531437, 52.49077339117325]]]}}, {"type": "Feature", "properties": {"gisid": "1119810,1119820,1119830,1119840,1119850", "strnr": "11198", "strname": "Manga-Bell-Platz", "strabnr": "10,20,30,40,50", "strabtypname": "Strasse", "bez": "01", "bezname": "Mitte", "ort": "0105", "ortname": "Wedding"}, "geometry": {"type": "MultiLineString", "coordinates": [[[13.334307534345928, 52.55735036212988], [13.33453933161904, 52.557526170010554], [13.334727558202367, 52.557602120785646], [13.334869182877236, 52.5575907874358], [13.335323545447434, 52.557333993635865]], [[13.335323545447434, 52.557333993635865], [13.335692088550152, 52.557121918889735], [13.335726321808075, 52.557073476088654], [13.33568688707954, 52.557016764168296], [13.334812079256254, 52.556419706176975]], [[13.334812079256254, 52.556419706176975], [13.334436094807065, 52.556198610244415], [13.334360959512244, 52.55618943852519], [13.334241324964557, 52.556220595877214], [13.333921629330067, 52.55640402923182]], [[13.333921629330067, 52.55640402923182], [13.333456845031458, 52.55667606909694], [13.333422543239358, 52.556734396900374], [13.333448651003408, 52.55679916409904], [13.333847861608518, 52.5570751381473]], [[13.333847861608518, 52.5570751381473], [13.334307534345928, 52.55735036212988]]]}}, {"type": "Feature", "properties": {"gisid": "1119910,1119920,1119930,1119940,1119950", "strnr": "11199", "strname": "Cornelius-Fredericks-Straße", "strabnr": "10,20,30,40,50", "strabtypname": "Strasse", "bez": "01", "bezname": "Mitte", "ort": "0105", "ortname": "Wedding"}, "geometry": {"type": "MultiLineString", "coordinates": [[[13.342256144103434, 52.55418939213396], [13.340801411510103, 52.55502702628614]], [[13.343734300855655, 52.55336887062477], [13.342256144103434, 52.55418939213396]], [[13.343734300855655, 52.55336887062477], [13.34576895127712, 52.55220187426485]], [[13.34576895127712, 52.55220187426485], [13.347733850815032, 52.55109039483214]], [[13.347733850815032, 52.55109039483214], [13.350342384539008, 52.549588574018074]]]}}, {"type": "Feature", "properties": {"gisid": "1120010", "strnr": "11200", "strname": "Maji-Maji-Allee", "strabnr": "10", "strabtypname": "Strasse", "bez": "01", "bezname": "Mitte", "ort": "0105", "ortname": "Wedding"}, "geometry": {"type": "MultiLineString", "coordinates": [[[13.332280429708707, 52.55532697460246], [13.333921629330067, 52.55640402923182]]]}}, {"type": "Feature", "properties": {"gisid": "1120110,1120120,1120130", "strnr": "11201", "strname": "Anna-Mungunda-Allee", "strabnr": "10,20,30", "strabtypname": "Strasse", "bez": "01", "bezname": "Mitte", "ort": "0105", "ortname": "Wedding"}, "geometry": {"type": "MultiLineString", "coordinates": [[[13.335323545447434, 52.557333993635865], [13.334568837895043, 52.55685764784519]], [[13.336035445425644, 52.55782011384381], [13.335323545447434, 52.557333993635865]], [[13.33741412617244, 52.55870955574648], [13.336035445425644, 52.55782011384381]]]}}, {"type": "Feature", "properties": {"gisid": "1140610", "strnr": "11406", "strname": "Martha-Ndumbe-Platz", "strabnr": "10", "strabtypname": "Strasse", "bez": "01", "bezname": "Mitte", "ort": "0105", "ortname": "Wedding"}, "geometry": {"type": "MultiLineString", "coordinates": [[[13.369711442103275, 52.544106378413865], [13.369453277924071, 52.54414266329033], [13.368954882851165, 52.54442465395681]]]}}, {"type": "Feature", "properties": {"gisid": "1136310", "strnr": "11363", "strname": "Freia-Eisner-Straße", "strabnr": "10", "strabtypname": "Strasse", "bez": "02", "bezname": "Friedrichshain-Kreuzberg", "ort": "0201", "ortname": "Friedrichshain"}, "geometry": {"type": "MultiLineString", "coordinates": [[[13.439852412078336, 52.50513028789478], [13.440968099655372, 52.506326353830026]]]}}, {"type": "Feature", "properties": {"gisid": "1140310,1140320", "strnr": "11403", "strname": "Regina-Jonas-Straße", "strabnr": "10,20", "strabtypname": "Strasse", "bez": "02", "bezname": "Friedrichshain-Kreuzberg", "ort": "0202", "ortname": "Kreuzberg"}, "geometry": {"type": "MultiLineString", "coordinates": [[[13.413768659770374, 52.49796350325992], [13.413916213017009, 52.49789996351288], [13.416410811036016, 52.49722952532251]], [[13.416410811036016, 52.49722952532251], [13.418961289404871, 52.496558235201555], [13.419160608798643, 52.49644265706655], [13.419818974272987, 52.49640067371185]]]}}, {"type": "Feature", "properties": {"gisid": "0204210", "strnr": "02042", "strname": "Hofjägerallee", "strabnr": "10", "strabtypname": "Strasse", "bez": "01", "bezname": "Mitte", "ort": "0104", "ortname": "Tiergarten"}, "geometry": {"type": "MultiLineString", "coordinates": [[[13.351357677586025, 52.50960448272273], [13.35030770592754, 52.51380235222109]]]}}]}