{
"type": "FeatureCollection",
"name": "Edith-Kiss-Str_wgs84",
"crs": { "type": "name", "properties": { "name": "urn:ogc:def:crs:OGC:1.3:CRS84" } },
"features": [
{ "type": "Feature", "properties": { "gisid": "1084310", "strnr": "10843", "strname": "Edith-Kiss-Straße", "strabnr": "10", "strabtypname": "Strasse", "bez": "02", "bezname": "Friedrichshain-Kreuzberg", "ort": "0201", "ortname": "Friedrichshain" }, "geometry": { "type": "LineString", "coordinates": [ [ 13.439026167913863, 52.505490238999236 ], [ 13.440077258050787, 52.506634988057684 ] ] } }
]
}
