{
"type": "FeatureCollection",
"name": "exBurenviertel_AGG_wgs84",
"crs": { "type": "name", "properties": { "name": "urn:ogc:def:crs:OGC:1.3:CRS84" } },
"features": [
{ "type": "Feature", "properties": { "gisid": "4086410,4086420,4086430", "strnr": "40864", "strname": "Rudolf-Grosse-Straße", "strabnr": "10,20,30", "strabtypname": "Strasse", "bez": "11", "bezname": "Lichtenberg", "ort": "1102", "ortname": "Karlshorst" }, "geometry": { "type": "MultiLineString", "coordinates": [ [ [ 13.531681214192364, 52.490046747473173 ], [ 13.531426228833219, 52.488138683492458 ], [ 13.531391066111288, 52.488060471472089 ] ], [ [ 13.531889754873736, 52.491654621604368 ], [ 13.531681214192364, 52.490046747473173 ] ], [ [ 13.532028974722207, 52.492640565007306 ], [ 13.531889754873736, 52.491654621604368 ] ] ] } },
{ "type": "Feature", "properties": { "gisid": "4213310,4213320", "strnr": "42133", "strname": "Johannes-Zoschke-Straße", "strabnr": "10,20", "strabtypname": "Strasse", "bez": "11", "bezname": "Lichtenberg", "ort": "1102", "ortname": "Karlshorst" }, "geometry": { "type": "MultiLineString", "coordinates": [ [ [ 13.53005023245991, 52.488605776529873 ], [ 13.530266279928766, 52.490116603669648 ] ], [ [ 13.530266279928766, 52.490116603669648 ], [ 13.530377728780008, 52.490991991357738 ] ] ] } },
{ "type": "Feature", "properties": { "gisid": "4347610,43476100,43476110,4347620,4347630,4347640,4347650,4347660,4347670,4347680,4347690", "strnr": "43476", "strname": "Robert-Siewert-Straße", "strabnr": "10,100,110,20,30,40,50,60,70,80,90", "strabtypname": "Strasse", "bez": "11", "bezname": "Lichtenberg", "ort": "1102", "ortname": "Karlshorst" }, "geometry": { "type": "MultiLineString", "coordinates": [ [ [ 13.527640136391037, 52.493934659329227 ], [ 13.528204364288436, 52.493129027851516 ] ], [ [ 13.539778097413777, 52.493135348534125 ], [ 13.54226602860872, 52.493268343100802 ] ], [ [ 13.54226602860872, 52.493268343100802 ], [ 13.544801101182076, 52.493395027501656 ] ], [ [ 13.528204364288436, 52.493129027851516 ], [ 13.528313567353088, 52.493015887290497 ], [ 13.528606888632922, 52.49286515368258 ], [ 13.528941302248226, 52.492773765420189 ], [ 13.52946999423658, 52.492709495754852 ], [ 13.529936811644742, 52.492663145309095 ] ], [ [ 13.529936811644742, 52.492663145309095 ], [ 13.530612671958906, 52.492625050325103 ], [ 13.530911554250073, 52.492620797995905 ], [ 13.531345865417107, 52.492626539280884 ] ], [ [ 13.531345865417107, 52.492626539280884 ], [ 13.532028974722207, 52.492640565007306 ] ], [ [ 13.532028974722207, 52.492640565007306 ], [ 13.533465924448711, 52.492639902072334 ] ], [ [ 13.533465924448711, 52.492639902072334 ], [ 13.533942925912889, 52.492648362201301 ], [ 13.535732914828039, 52.492798023386975 ] ], [ [ 13.535732914828039, 52.492798023386975 ], [ 13.536589643209659, 52.492867871830228 ] ], [ [ 13.536589643209659, 52.492867871830228 ], [ 13.537793774774265, 52.492968528979667 ] ], [ [ 13.537793774774265, 52.492968528979667 ], [ 13.539778097413777, 52.493135348534125 ] ] ] } },
{ "type": "Feature", "properties": { "gisid": "4348810", "strnr": "43488", "strname": "Ursula-Goetze-Straße", "strabnr": "10", "strabtypname": "Strasse", "bez": "11", "bezname": "Lichtenberg", "ort": "1102", "ortname": "Karlshorst" }, "geometry": { "type": "MultiLineString", "coordinates": [ [ [ 13.531817312885073, 52.495901639843197 ], [ 13.531345865417107, 52.492626539280884 ] ] ] } }
]
}
