{
"type": "FeatureCollection",
"name": "exBurenviertel_AGG",
"crs": { "type": "name", "properties": { "name": "urn:ogc:def:crs:EPSG::3857" } },
"features": [
{ "type": "Feature", "properties": { "gisid": "4086410,4086420,4086430", "strnr": "40864", "strname": "Rudolf-Grosse-Straße", "strabnr": "10,20,30", "strabtypname": "Strasse", "bez": "11", "bezname": "Lichtenberg", "ort": "1102", "ortname": "Karlshorst" }, "geometry": { "type": "MultiLineString", "coordinates": [ [ [ 1506339.862340799998492, 6889221.855624089948833 ], [ 1506311.477500460110605, 6888873.029266879893839 ], [ 1506307.563204159960151, 6888858.731110010296106 ] ], [ [ 1506363.076983259990811, 6889515.813950910232961 ], [ 1506339.862340799998492, 6889221.855624089948833 ] ], [ [ 1506378.574865899980068, 6889696.073595919646323 ], [ 1506363.076983259990811, 6889515.813950910232961 ] ] ] } },
{ "type": "Feature", "properties": { "gisid": "4213310,4213320", "strnr": "42133", "strname": "Johannes-Zoschke-Straße", "strabnr": "10,20", "strabtypname": "Strasse", "bez": "11", "bezname": "Lichtenberg", "ort": "1102", "ortname": "Karlshorst" }, "geometry": { "type": "MultiLineString", "coordinates": [ [ [ 1506158.302284850040451, 6888958.420372890308499 ], [ 1506182.35257907002233, 6889234.626805099658668 ] ], [ [ 1506182.35257907002233, 6889234.626805099658668 ], [ 1506194.759008439956233, 6889394.66779395006597 ] ] ] } },
{ "type": "Feature", "properties": { "gisid": "4347610,43476100,43476110,4347620,4347630,4347640,4347650,4347660,4347670,4347680,4347690", "strnr": "43476", "strname": "Robert-Siewert-Straße", "strabnr": "10,100,110,20,30,40,50,60,70,80,90", "strabtypname": "Strasse", "bez": "11", "bezname": "Lichtenberg", "ort": "1102", "ortname": "Karlshorst" }, "geometry": { "type": "MultiLineString", "coordinates": [ [ [ 1505890.01161770010367, 6889932.67848595045507 ], [ 1505952.821179929887876, 6889785.38056290987879 ] ], [ [ 1507241.20325802010484, 6889786.536196700297296 ], [ 1507518.158491770038381, 6889810.852124 ] ], [ [ 1507518.158491770038381, 6889810.852124 ], [ 1507800.361479759914801, 6889834.014406889677048 ] ], [ [ 1505952.821179929887876, 6889785.38056290987879 ], [ 1505964.977609480032697, 6889764.694683549925685 ], [ 1505997.629984989995137, 6889737.13562033046037 ], [ 1506034.856738359900191, 6889720.426884950138628 ], [ 1506093.710461290087551, 6889708.676328560337424 ], [ 1506145.676337460055947, 6889700.201990960165858 ] ], [ [ 1506145.676337460055947, 6889700.201990960165858 ], [ 1506220.912763480097055, 6889693.237021369859576 ], [ 1506254.184187940089032, 6889692.459561290219426 ], [ 1506302.531485900050029, 6889693.509249529801309 ] ], [ [ 1506302.531485900050029, 6889693.509249529801309 ], [ 1506378.574865899980068, 6889696.073595919646323 ] ], [ [ 1506378.574865899980068, 6889696.073595919646323 ], [ 1506538.53537774994038, 6889695.952390420250595 ] ], [ [ 1506538.53537774994038, 6889695.952390420250595 ], [ 1506591.634937850059941, 6889697.499169940128922 ], [ 1506790.895592409884557, 6889724.862023860216141 ] ], [ [ 1506790.895592409884557, 6889724.862023860216141 ], [ 1506886.266159600112587, 6889737.632586319930851 ] ], [ [ 1506886.266159600112587, 6889737.632586319930851 ], [ 1507020.309472220018506, 6889756.03601588960737 ] ], [ [ 1507020.309472220018506, 6889756.03601588960737 ], [ 1507241.20325802010484, 6889786.536196700297296 ] ] ] } },
{ "type": "Feature", "properties": { "gisid": "4348810", "strnr": "43488", "strname": "Ursula-Goetze-Straße", "strabnr": "10", "strabtypname": "Strasse", "bez": "11", "bezname": "Lichtenberg", "ort": "1102", "ortname": "Karlshorst" }, "geometry": { "type": "MultiLineString", "coordinates": [ [ [ 1506355.012777969939634, 6890292.323418660089374 ], [ 1506302.531485900050029, 6889693.509249529801309 ] ] ] } }
]
}
