{
"type": "FeatureCollection",
"name": "Kolonial_Wedding_AGG",
"crs": { "type": "name", "properties": { "name": "urn:ogc:def:crs:EPSG::3857" } },
"features": [
{ "type": "Feature", "properties": { "gisid": "0002210,00022100,00022110,00022120,0002220,0002230,0002240,0002250,0002260,0002270,0002280,0002290", "strnr": "00022", "strname": "Afrikanische Straße", "strabnr": "10,100,110,120,20,30,40,50,60,70,80,90", "strabtypname": "Strasse", "bez": "01", "bezname": "Mitte", "ort": "0105", "ortname": "Wedding" }, "geometry": { "type": "MultiLineString", "coordinates": [ [ [ 1484251.810314310016111, 6902096.75746272969991 ], [ 1484246.85796993994154, 6902144.129190210253 ], [ 1484253.305532820057124, 6902173.281961490400136 ], [ 1484269.622718770056963, 6902197.373809760436416 ] ], [ [ 1485160.318617499899119, 6899861.614367520436645 ], [ 1485073.856380569981411, 6899981.20002125017345 ] ], [ [ 1485250.739906230010092, 6899736.123055939562619 ], [ 1485160.318617499899119, 6899861.614367520436645 ] ], [ [ 1485250.739906230010092, 6899736.123055939562619 ], [ 1485444.463821130106226, 6899503.947071270085871 ] ], [ [ 1484368.324804299976677, 6901535.78855227958411 ], [ 1484251.810314310016111, 6902096.75746272969991 ] ], [ [ 1484397.41298232995905, 6901445.572481440380216 ], [ 1484368.324804299976677, 6901535.78855227958411 ] ], [ [ 1484424.490486799972132, 6901365.386136620305479 ], [ 1484397.41298232995905, 6901445.572481440380216 ] ], [ [ 1484424.490486799972132, 6901365.386136620305479 ], [ 1484454.645705570001155, 6901254.444481709972024 ], [ 1484633.318415590096265, 6900697.565651340410113 ], [ 1484658.116450400091708, 6900652.58526565041393 ] ], [ [ 1484783.473882460035384, 6900454.179386639967561 ], [ 1484658.116450400091708, 6900652.58526565041393 ] ], [ [ 1484903.735584570094943, 6900256.24963434971869 ], [ 1484783.473882460035384, 6900454.179386639967561 ] ], [ [ 1484994.253267700085416, 6900108.545915399678051 ], [ 1484903.735584570094943, 6900256.24963434971869 ] ], [ [ 1485073.856380569981411, 6899981.20002125017345 ], [ 1484994.253267700085416, 6900108.545915399678051 ] ] ] } },
{ "type": "Feature", "properties": { "gisid": "0091210", "strnr": "00912", "strname": "Damarastraße", "strabnr": "10", "strabtypname": "Strasse", "bez": "01", "bezname": "Mitte", "ort": "0105", "ortname": "Wedding" }, "geometry": { "type": "MultiLineString", "coordinates": [ [ [ 1483845.887345320079476, 6901653.767849139869213 ], [ 1483982.017959230113775, 6901558.892385760322213 ], [ 1484094.881077090045437, 6901453.554078410379589 ], [ 1484104.011489159893245, 6901428.252125119790435 ] ] ] } },
{ "type": "Feature", "properties": { "gisid": "0174810,0174820,0174830", "strnr": "01748", "strname": "Guineastraße", "strabnr": "10,20,30", "strabtypname": "Strasse", "bez": "01", "bezname": "Mitte", "ort": "0105", "ortname": "Wedding" }, "geometry": { "type": "MultiLineString", "coordinates": [ [ [ 1485038.237090159906074, 6900397.942934320308268 ], [ 1485271.46217052009888, 6900183.841221709735692 ] ], [ [ 1485271.46217052009888, 6900183.841221709735692 ], [ 1485486.738249710062519, 6899982.335464119911194 ] ], [ [ 1485729.032775799976662, 6899750.664715019986033 ], [ 1485486.738249710062519, 6899982.335464119911194 ] ] ] } },
{ "type": "Feature", "properties": { "gisid": "0231010,0231020,0231030,0231040", "strnr": "02310", "strname": "Kameruner Straße", "strabnr": "10,20,30,40", "strabtypname": "Strasse", "bez": "01", "bezname": "Mitte", "ort": "0105", "ortname": "Wedding" }, "geometry": { "type": "MultiLineString", "coordinates": [ [ [ 1485486.738249710062519, 6899982.335464119911194 ], [ 1485266.9556408401113, 6899743.754514100030065 ], [ 1485250.739906230010092, 6899736.123055939562619 ] ], [ [ 1485486.738249710062519, 6899982.335464119911194 ], [ 1485690.202315170085058, 6900200.453798109665513 ] ], [ [ 1485690.202315170085058, 6900200.453798109665513 ], [ 1485862.935516870114952, 6900389.662781660445035 ] ], [ [ 1485862.935516870114952, 6900389.662781660445035 ], [ 1486020.141764560015872, 6900564.334439029917121 ] ] ] } },
{ "type": "Feature", "properties": { "gisid": "0238610,0238620", "strnr": "02386", "strname": "Kiautschoustraße", "strabnr": "10,20", "strabtypname": "Strasse", "bez": "01", "bezname": "Mitte", "ort": "0105", "ortname": "Wedding" }, "geometry": { "type": "MultiLineString", "coordinates": [ [ [ 1486406.225288399960846, 6898333.366539220325649 ], [ 1486671.461336380103603, 6898438.322542520239949 ] ], [ [ 1486964.872794789960608, 6898557.357273070141673 ], [ 1486671.461336380103603, 6898438.322542520239949 ] ] ] } },
{ "type": "Feature", "properties": { "gisid": "0254510,0254520,0254530", "strnr": "02545", "strname": "Kongostraße", "strabnr": "10,20,30", "strabtypname": "Strasse", "bez": "01", "bezname": "Mitte", "ort": "0105", "ortname": "Wedding" }, "geometry": { "type": "MultiLineString", "coordinates": [ [ [ 1485271.46217052009888, 6900183.841221709735692 ], [ 1485470.966939860023558, 6900407.055044460110366 ] ], [ [ 1485644.203900849912316, 6900593.149545639753342 ], [ 1485470.966939860023558, 6900407.055044460110366 ] ], [ [ 1485644.203900849912316, 6900593.149545639753342 ], [ 1485789.966754579916596, 6900755.939388879574835 ], [ 1485795.79236241010949, 6900777.350774900056422 ] ] ] } },
{ "type": "Feature", "properties": { "gisid": "0310510", "strnr": "03105", "strname": "Mohasistraße", "strabnr": "10", "strabtypname": "Strasse", "bez": "01", "bezname": "Mitte", "ort": "0105", "ortname": "Wedding" }, "geometry": { "type": "MultiLineString", "coordinates": [ [ [ 1484082.030058309901506, 6901948.459229130297899 ], [ 1484200.812236829893664, 6901841.657541410066187 ], [ 1484208.075057540088892, 6901831.64959731977433 ] ] ] } },
{ "type": "Feature", "properties": { "gisid": "0335610,0335620,0335630", "strnr": "03356", "strname": "Otawistraße", "strabnr": "10,20,30", "strabtypname": "Strasse", "bez": "01", "bezname": "Mitte", "ort": "0105", "ortname": "Wedding" }, "geometry": { "type": "MultiLineString", "coordinates": [ [ [ 1484658.116450400091708, 6900652.58526565041393 ], [ 1484914.041033050045371, 6900925.411931030452251 ] ], [ [ 1485091.219903490040451, 6901110.39423154015094 ], [ 1484914.041033050045371, 6900925.411931030452251 ] ], [ [ 1485091.219903490040451, 6901110.39423154015094 ], [ 1485250.061303219990805, 6901285.925800049677491 ] ] ] } },
{ "type": "Feature", "properties": { "gisid": "0388010,0388020,0388030", "strnr": "03880", "strname": "Samoastraße", "strabnr": "10,20,30", "strabtypname": "Strasse", "bez": "01", "bezname": "Mitte", "ort": "0105", "ortname": "Wedding" }, "geometry": { "type": "MultiLineString", "coordinates": [ [ [ 1486488.77505403989926, 6898848.678884790278971 ], [ 1486575.145281360018998, 6898657.543256419710815 ] ], [ [ 1486575.145281360018998, 6898657.543256419710815 ], [ 1486671.461336380103603, 6898438.322542520239949 ] ], [ [ 1486654.077717989915982, 6898305.193208429962397 ], [ 1486671.461336380103603, 6898438.322542520239949 ] ] ] } },
{ "type": "Feature", "properties": { "gisid": "0389310,0389320,0389330", "strnr": "03893", "strname": "Sansibarstraße", "strabnr": "10,20,30", "strabtypname": "Strasse", "bez": "01", "bezname": "Mitte", "ort": "0105", "ortname": "Wedding" }, "geometry": { "type": "MultiLineString", "coordinates": [ [ [ 1484783.473882460035384, 6900454.179386639967561 ], [ 1485080.086365479975939, 6900771.41496486030519 ] ], [ [ 1485253.159995019901544, 6900957.031997200101614 ], [ 1485080.086365479975939, 6900771.41496486030519 ] ], [ [ 1485253.159995019901544, 6900957.031997200101614 ], [ 1485409.358673539943993, 6901136.98916198965162 ] ] ] } },
{ "type": "Feature", "properties": { "gisid": "0438910,0438920,0438930,0438940,0438950", "strnr": "04389", "strname": "Swakopmunder Straße", "strabnr": "10,20,30,40,50", "strabtypname": "Strasse", "bez": "01", "bezname": "Mitte", "ort": "0105", "ortname": "Wedding" }, "geometry": { "type": "MultiLineString", "coordinates": [ [ [ 1483845.887345320079476, 6901653.767849139869213 ], [ 1483819.596693610073999, 6901620.750115780159831 ], [ 1483824.885387, 6901492.098484439775348 ] ], [ [ 1483968.352881500031799, 6901809.770036719739437 ], [ 1483845.887345320079476, 6901653.767849139869213 ] ], [ [ 1483968.352881500031799, 6901809.770036719739437 ], [ 1484082.030058309901506, 6901948.459229130297899 ] ], [ [ 1484082.030058309901506, 6901948.459229130297899 ], [ 1484158.779005219927058, 6902046.517738870345056 ] ], [ [ 1484158.779005219927058, 6902046.517738870345056 ], [ 1484192.765692109940574, 6902084.833177589811385 ], [ 1484251.810314310016111, 6902096.75746272969991 ] ] ] } },
{ "type": "Feature", "properties": { "gisid": "0451210,0451220,0451230,0451240,0451250,0451260,0451270", "strnr": "04512", "strname": "Togostraße", "strabnr": "10,20,30,40,50,60,70", "strabtypname": "Strasse", "bez": "01", "bezname": "Mitte", "ort": "0105", "ortname": "Wedding" }, "geometry": { "type": "MultiLineString", "coordinates": [ [ [ 1484317.154269240098074, 6901485.394868509843946 ], [ 1483968.352881500031799, 6901809.770036719739437 ] ], [ [ 1484424.490486799972132, 6901365.386136620305479 ], [ 1484446.814683960052207, 6901364.818440600298345 ], [ 1484914.041033050045371, 6900925.411931030452251 ] ], [ [ 1484914.041033050045371, 6900925.411931030452251 ], [ 1485080.086365479975939, 6900771.41496486030519 ] ], [ [ 1485080.086365479975939, 6900771.41496486030519 ], [ 1485244.957828450016677, 6900622.184092280454934 ] ], [ [ 1485244.957828450016677, 6900622.184092280454934 ], [ 1485470.966939860023558, 6900407.055044460110366 ] ], [ [ 1485470.966939860023558, 6900407.055044460110366 ], [ 1485690.202315170085058, 6900200.453798109665513 ] ], [ [ 1485690.202315170085058, 6900200.453798109665513 ], [ 1485967.682233460014686, 6899951.468199419789016 ] ] ] } },
{ "type": "Feature", "properties": { "gisid": "0452910,0452920,0452930,0452940,0452950,0452960", "strnr": "04529", "strname": "Transvaalstraße", "strabnr": "10,20,30,40,50,60", "strabtypname": "Strasse", "bez": "01", "bezname": "Mitte", "ort": "0105", "ortname": "Wedding" }, "geometry": { "type": "MultiLineString", "coordinates": [ [ [ 1484601.93536130990833, 6899929.629496639594436 ], [ 1484133.818393769906834, 6899428.782533880323172 ] ], [ [ 1484903.735584570094943, 6900256.24963434971869 ], [ 1484601.93536130990833, 6899929.629496639594436 ] ], [ [ 1484903.735584570094943, 6900256.24963434971869 ], [ 1485038.237090159906074, 6900397.942934320308268 ] ], [ [ 1485244.957828450016677, 6900622.184092280454934 ], [ 1485038.237090159906074, 6900397.942934320308268 ] ], [ [ 1485417.707651990000159, 6900806.805751049891114 ], [ 1485244.957828450016677, 6900622.184092280454934 ] ], [ [ 1485577.370990690076724, 6900982.327506659552455 ], [ 1485417.707651990000159, 6900806.805751049891114 ] ] ] } },
{ "type": "Feature", "properties": { "gisid": "0461110", "strnr": "04611", "strname": "Usambarastraße", "strabnr": "10", "strabtypname": "Strasse", "bez": "01", "bezname": "Mitte", "ort": "0105", "ortname": "Wedding" }, "geometry": { "type": "MultiLineString", "coordinates": [ [ [ 1484560.674985829973593, 6901621.801115869544446 ], [ 1484369.220217919908464, 6901801.534583499655128 ] ] ] } },
{ "type": "Feature", "properties": { "gisid": "0489410", "strnr": "04894", "strname": "Windhuker Straße", "strabnr": "10", "strabtypname": "Strasse", "bez": "01", "bezname": "Mitte", "ort": "0105", "ortname": "Wedding" }, "geometry": { "type": "MultiLineString", "coordinates": [ [ [ 1483824.885387, 6901492.098484439775348 ], [ 1484142.66854829993099, 6901165.312408139929175 ] ] ] } },
{ "type": "Feature", "properties": { "gisid": "0709910", "strnr": "07099", "strname": "Pekinger Platz", "strabnr": "10", "strabtypname": "fiktive Strasse Kreuzung1=Kreuzung2", "bez": "01", "bezname": "Mitte", "ort": "0105", "ortname": "Wedding" }, "geometry": { "type": "MultiLineString", "coordinates": [ [ [ 1486671.461336380103603, 6898438.322542520239949 ], [ 1486668.192416340112686, 6898435.020562410354614 ], [ 1486671.449076740071177, 6898441.612072410061955 ], [ 1486674.75510754995048, 6898435.045307209715247 ], [ 1486671.461336380103603, 6898438.322542520239949 ] ] ] } },
{ "type": "Feature", "properties": { "gisid": "1119810,1119820,1119830,1119840,1119850", "strnr": "11198", "strname": "Manga-Bell-Platz", "strabnr": "10,20,30,40,50", "strabtypname": "Strasse", "bez": "01", "bezname": "Mitte", "ort": "0105", "ortname": "Wedding" }, "geometry": { "type": "MultiLineString", "coordinates": [ [ [ 1484368.324804299976677, 6901535.78855227958411 ], [ 1484394.128358710091561, 6901567.979250920005143 ], [ 1484415.081646119942889, 6901581.8859968399629 ], [ 1484430.847232809988782, 6901579.81083523016423 ], [ 1484481.42664275993593, 6901532.791461920365691 ] ], [ [ 1484481.42664275993593, 6901532.791461920365691 ], [ 1484522.45267328992486, 6901493.960429480299354 ], [ 1484526.263502130052075, 6901485.090545490384102 ], [ 1484521.873648229986429, 6901474.706596990115941 ], [ 1484424.490486799972132, 6901365.386136620305479 ] ], [ [ 1484424.490486799972132, 6901365.386136620305479 ], [ 1484382.636089369887486, 6901324.904166479595006 ], [ 1484374.272066609933972, 6901323.224857930094004 ], [ 1484360.954409680096433, 6901328.929657589644194 ], [ 1484325.366054439917207, 6901362.515730530023575 ] ], [ [ 1484325.366054439917207, 6901362.515730530023575 ], [ 1484273.626502990024164, 6901412.325636680237949 ], [ 1484269.808044960023835, 6901423.005370520055294 ], [ 1484272.714347959961742, 6901434.864164659753442 ], [ 1484317.154269240098074, 6901485.394868509843946 ] ], [ [ 1484317.154269240098074, 6901485.394868509843946 ], [ 1484368.324804299976677, 6901535.78855227958411 ] ] ] } },
{ "type": "Feature", "properties": { "gisid": "1119910,1119920,1119930,1119940,1119950", "strnr": "11199", "strname": "Cornelius-Fredericks-Straße", "strabnr": "10,20,30,40,50", "strabtypname": "Strasse", "bez": "01", "bezname": "Mitte", "ort": "0105", "ortname": "Wedding" }, "geometry": { "type": "MultiLineString", "coordinates": [ [ [ 1485253.159995019901544, 6900957.031997200101614 ], [ 1485091.219903490040451, 6901110.39423154015094 ] ], [ [ 1485417.707651990000159, 6900806.805751049891114 ], [ 1485253.159995019901544, 6900957.031997200101614 ] ], [ [ 1485417.707651990000159, 6900806.805751049891114 ], [ 1485644.203900849912316, 6900593.149545639753342 ] ], [ [ 1485644.203900849912316, 6900593.149545639753342 ], [ 1485862.935516870114952, 6900389.662781660445035 ] ], [ [ 1485862.935516870114952, 6900389.662781660445035 ], [ 1486153.316162740113214, 6900114.721519299782813 ] ] ] } },
{ "type": "Feature", "properties": { "gisid": "1120010", "strnr": "11200", "strname": "Maji-Maji-Allee", "strabnr": "10", "strabtypname": "Strasse", "bez": "01", "bezname": "Mitte", "ort": "0105", "ortname": "Wedding" }, "geometry": { "type": "MultiLineString", "coordinates": [ [ [ 1484142.66854829993099, 6901165.312408139929175 ], [ 1484325.366054439917207, 6901362.515730530023575 ] ] ] } },
{ "type": "Feature", "properties": { "gisid": "1120110,1120120,1120130", "strnr": "11201", "strname": "Anna-Mungunda-Allee", "strabnr": "10,20,30", "strabtypname": "Strasse", "bez": "01", "bezname": "Mitte", "ort": "0105", "ortname": "Wedding" }, "geometry": { "type": "MultiLineString", "coordinates": [ [ [ 1484481.42664275993593, 6901532.791461920365691 ], [ 1484397.41298232995905, 6901445.572481440380216 ] ], [ [ 1484560.674985829973593, 6901621.801115869544446 ], [ 1484481.42664275993593, 6901532.791461920365691 ] ], [ [ 1484714.149024530081078, 6901784.662391319870949 ], [ 1484560.674985829973593, 6901621.801115869544446 ] ] ] } }
]
}
