{
"type": "FeatureCollection",
"name": "Kolonial_Wedding_AGG_wgs84",
"crs": { "type": "name", "properties": { "name": "urn:ogc:def:crs:OGC:1.3:CRS84" } },
"features": [
{ "type": "Feature", "properties": { "gisid": "0002210,00022100,00022110,00022120,0002220,0002230,0002240,0002250,0002260,0002270,0002280,0002290", "strnr": "00022", "strname": "Afrikanische Straße", "strabnr": "10,100,110,120,20,30,40,50,60,70,80,90", "strabtypname": "Strasse", "bez": "01", "bezname": "Mitte", "ort": "0105", "ortname": "Wedding" }, "geometry": { "type": "MultiLineString", "coordinates": [ [ [ 13.333260866874133, 52.560413964773517 ], [ 13.333216379207736, 52.560672664768596 ], [ 13.33327429865054, 52.560831869135107 ], [ 13.333420878425867, 52.560963435177094 ] ], [ [ 13.341422135819183, 52.548205972957987 ], [ 13.34064543232985, 52.548859216552067 ] ], [ [ 13.342234404075944, 52.547520458908814 ], [ 13.341422135819183, 52.548205972957987 ] ], [ [ 13.342234404075944, 52.547520458908814 ], [ 13.343974655612486, 52.546252136503995 ] ], [ [ 13.334307534345928, 52.557350362129881 ], [ 13.333260866874133, 52.560413964773517 ] ], [ [ 13.334568837895043, 52.556857647845192 ], [ 13.334307534345928, 52.557350362129881 ] ], [ [ 13.334812079256254, 52.556419706176975 ], [ 13.334568837895043, 52.556857647845192 ] ], [ [ 13.334812079256254, 52.556419706176975 ], [ 13.335082968195426, 52.555813785661357 ], [ 13.336688012458087, 52.552772201925073 ], [ 13.336910776994948, 52.552526516998789 ] ], [ [ 13.338036881966921, 52.551442798587104 ], [ 13.336910776994948, 52.552526516998789 ] ], [ [ 13.339117211217918, 52.550361654173187 ], [ 13.338036881966921, 52.551442798587104 ] ], [ [ 13.339930345400305, 52.549554840221042 ], [ 13.339117211217918, 52.550361654173187 ] ], [ [ 13.34064543232985, 52.548859216552067 ], [ 13.339930345400305, 52.549554840221042 ] ] ] } },
{ "type": "Feature", "properties": { "gisid": "0091210", "strnr": "00912", "strname": "Damarastraße", "strabnr": "10", "strabtypname": "Strasse", "bez": "01", "bezname": "Mitte", "ort": "0105", "ortname": "Wedding" }, "geometry": { "type": "MultiLineString", "coordinates": [ [ [ 13.329614398801946, 52.557994696682044 ], [ 13.330837280913064, 52.557476542625132 ], [ 13.331851147550934, 52.5569012394906 ], [ 13.331933167438061, 52.556763052236946 ] ] ] } },
{ "type": "Feature", "properties": { "gisid": "0174810,0174820,0174830", "strnr": "01748", "strname": "Guineastraße", "strabnr": "10,20,30", "strabtypname": "Strasse", "bez": "01", "bezname": "Mitte", "ort": "0105", "ortname": "Wedding" }, "geometry": { "type": "MultiLineString", "coordinates": [ [ [ 13.340325458800002, 52.551135622988554 ], [ 13.342420555343278, 52.549966133706747 ] ], [ [ 13.342420555343278, 52.549966133706747 ], [ 13.344354413265693, 52.54886541892823 ] ], [ [ 13.346530982026144, 52.54759989532797 ], [ 13.344354413265693, 52.54886541892823 ] ] ] } },
{ "type": "Feature", "properties": { "gisid": "0231010,0231020,0231030,0231040", "strnr": "02310", "strname": "Kameruner Straße", "strabnr": "10,20,30,40", "strabtypname": "Strasse", "bez": "01", "bezname": "Mitte", "ort": "0105", "ortname": "Wedding" }, "geometry": { "type": "MultiLineString", "coordinates": [ [ [ 13.344354413265693, 52.54886541892823 ], [ 13.342380072498379, 52.547562147134791 ], [ 13.342234404075944, 52.547520458908814 ] ], [ [ 13.344354413265693, 52.54886541892823 ], [ 13.346182162063412, 52.550056877814278 ] ], [ [ 13.346182162063412, 52.550056877814278 ], [ 13.347733850815032, 52.551090394832137 ] ], [ [ 13.347733850815032, 52.551090394832137 ], [ 13.349146058565621, 52.552044482945846 ] ] ] } },
{ "type": "Feature", "properties": { "gisid": "0238610,0238620", "strnr": "02386", "strname": "Kiautschoustraße", "strabnr": "10,20", "strabtypname": "Strasse", "bez": "01", "bezname": "Mitte", "ort": "0105", "ortname": "Wedding" }, "geometry": { "type": "MultiLineString", "coordinates": [ [ [ 13.352614305869745, 52.539856974112709 ], [ 13.354996961827743, 52.540430411972714 ] ], [ [ 13.357632721803997, 52.541080761334371 ], [ 13.354996961827743, 52.540430411972714 ] ] ] } },
{ "type": "Feature", "properties": { "gisid": "0254510,0254520,0254530", "strnr": "02545", "strname": "Kongostraße", "strabnr": "10,20,30", "strabtypname": "Strasse", "bez": "01", "bezname": "Mitte", "ort": "0105", "ortname": "Wedding" }, "geometry": { "type": "MultiLineString", "coordinates": [ [ [ 13.342420555343278, 52.549966133706747 ], [ 13.344212737178806, 52.551185395440051 ] ], [ [ 13.345768951277121, 52.552201874264853 ], [ 13.344212737178806, 52.551185395440051 ] ], [ [ 13.345768951277121, 52.552201874264853 ], [ 13.347078361270746, 52.553091039901503 ], [ 13.347130693596279, 52.553207988539377 ] ] ] } },
{ "type": "Feature", "properties": { "gisid": "0310510", "strnr": "03105", "strname": "Mohasistraße", "strabnr": "10", "strabtypname": "Strasse", "bez": "01", "bezname": "Mitte", "ort": "0105", "ortname": "Wedding" }, "geometry": { "type": "MultiLineString", "coordinates": [ [ [ 13.331735704885068, 52.559604088891916 ], [ 13.332802743349523, 52.559020821766559 ], [ 13.332867986378021, 52.558966165821083 ] ] ] } },
{ "type": "Feature", "properties": { "gisid": "0335610,0335620,0335630", "strnr": "03356", "strname": "Otawistraße", "strabnr": "10,20,30", "strabtypname": "Strasse", "bez": "01", "bezname": "Mitte", "ort": "0105", "ortname": "Wedding" }, "geometry": { "type": "MultiLineString", "coordinates": [ [ [ 13.336910776994948, 52.552526516998789 ], [ 13.33920978663671, 52.554016687606229 ] ], [ [ 13.340801411510103, 52.55502702628614 ], [ 13.33920978663671, 52.554016687606229 ] ], [ [ 13.340801411510103, 52.55502702628614 ], [ 13.342228308081387, 52.555985725326352 ] ] ] } },
{ "type": "Feature", "properties": { "gisid": "0388010,0388020,0388030", "strnr": "03880", "strname": "Samoastraße", "strabnr": "10,20,30", "strabtypname": "Strasse", "bez": "01", "bezname": "Mitte", "ort": "0105", "ortname": "Wedding" }, "geometry": { "type": "MultiLineString", "coordinates": [ [ [ 13.35335586303149, 52.542672363931665 ], [ 13.354131739984437, 52.541628122606141 ] ], [ [ 13.354131739984437, 52.541628122606141 ], [ 13.354996961827743, 52.540430411972714 ] ], [ [ 13.354840802126812, 52.539703044962906 ], [ 13.354996961827743, 52.540430411972714 ] ] ] } },
{ "type": "Feature", "properties": { "gisid": "0389310,0389320,0389330", "strnr": "03893", "strname": "Sansibarstraße", "strabnr": "10,20,30", "strabtypname": "Strasse", "bez": "01", "bezname": "Mitte", "ort": "0105", "ortname": "Wedding" }, "geometry": { "type": "MultiLineString", "coordinates": [ [ [ 13.338036881966921, 52.551442798587104 ], [ 13.340701397236495, 52.553175567273918 ] ], [ [ 13.342256144103434, 52.554189392133956 ], [ 13.340701397236495, 52.553175567273918 ] ], [ [ 13.342256144103434, 52.554189392133956 ], [ 13.343659300706172, 52.555172280902497 ] ] ] } },
{ "type": "Feature", "properties": { "gisid": "0438910,0438920,0438930,0438940,0438950", "strnr": "04389", "strname": "Swakopmunder Straße", "strabnr": "10,20,30,40,50", "strabtypname": "Strasse", "bez": "01", "bezname": "Mitte", "ort": "0105", "ortname": "Wedding" }, "geometry": { "type": "MultiLineString", "coordinates": [ [ [ 13.329614398801946, 52.557994696682044 ], [ 13.32937822585934, 52.557814373909295 ], [ 13.329425735000392, 52.557111749896094 ] ], [ [ 13.33071452543123, 52.558846675700657 ], [ 13.329614398801946, 52.557994696682044 ] ], [ [ 13.33071452543123, 52.558846675700657 ], [ 13.331735704885068, 52.559604088891916 ] ], [ [ 13.331735704885068, 52.559604088891916 ], [ 13.332425152405561, 52.560139600802174 ] ], [ [ 13.332425152405561, 52.560139600802174 ], [ 13.33273046000846, 52.560348845259064 ], [ 13.333260866874133, 52.560413964773517 ] ] ] } },
{ "type": "Feature", "properties": { "gisid": "0451210,0451220,0451230,0451240,0451250,0451260,0451270", "strnr": "04512", "strname": "Togostraße", "strabnr": "10,20,30,40,50,60,70", "strabtypname": "Strasse", "bez": "01", "bezname": "Mitte", "ort": "0105", "ortname": "Wedding" }, "geometry": { "type": "MultiLineString", "coordinates": [ [ [ 13.333847861608518, 52.557075138147297 ], [ 13.33071452543123, 52.558846675700657 ] ], [ [ 13.334812079256254, 52.556419706176975 ], [ 13.335012620931401, 52.556416605661646 ], [ 13.33920978663671, 52.554016687606229 ] ], [ [ 13.33920978663671, 52.554016687606229 ], [ 13.340701397236495, 52.553175567273918 ] ], [ [ 13.340701397236495, 52.553175567273918 ], [ 13.342182462787507, 52.552360463618747 ] ], [ [ 13.342182462787507, 52.552360463618747 ], [ 13.344212737178806, 52.551185395440051 ] ], [ [ 13.344212737178806, 52.551185395440051 ], [ 13.346182162063412, 52.550056877814278 ] ], [ [ 13.346182162063412, 52.550056877814278 ], [ 13.348674806579773, 52.548696805652945 ] ] ] } },
{ "type": "Feature", "properties": { "gisid": "0452910,0452920,0452930,0452940,0452950,0452960", "strnr": "04529", "strname": "Transvaalstraße", "strabnr": "10,20,30,40,50,60", "strabtypname": "Strasse", "bez": "01", "bezname": "Mitte", "ort": "0105", "ortname": "Wedding" }, "geometry": { "type": "MultiLineString", "coordinates": [ [ [ 13.336406093684865, 52.548577510752089 ], [ 13.332200927417896, 52.545841522588248 ] ], [ [ 13.339117211217918, 52.550361654173187 ], [ 13.336406093684865, 52.548577510752089 ] ], [ [ 13.339117211217918, 52.550361654173187 ], [ 13.340325458800002, 52.551135622988554 ] ], [ [ 13.342182462787507, 52.552360463618747 ], [ 13.340325458800002, 52.551135622988554 ] ], [ [ 13.343734300855655, 52.553368870624773 ], [ 13.342182462787507, 52.552360463618747 ] ], [ [ 13.345168581030334, 52.554327552298339 ], [ 13.343734300855655, 52.553368870624773 ] ] ] } },
{ "type": "Feature", "properties": { "gisid": "0461110", "strnr": "04611", "strname": "Usambarastraße", "strabnr": "10", "strabtypname": "Strasse", "bez": "01", "bezname": "Mitte", "ort": "0105", "ortname": "Wedding" }, "geometry": { "type": "MultiLineString", "coordinates": [ [ [ 13.336035445425644, 52.55782011384381 ], [ 13.334315577983331, 52.558801699608146 ] ] ] } },
{ "type": "Feature", "properties": { "gisid": "0489410", "strnr": "04894", "strname": "Windhuker Straße", "strabnr": "10", "strabtypname": "Strasse", "bez": "01", "bezname": "Mitte", "ort": "0105", "ortname": "Wedding" }, "geometry": { "type": "MultiLineString", "coordinates": [ [ [ 13.329425735000392, 52.557111749896094 ], [ 13.332280429708707, 52.555326974602458 ] ] ] } },
{ "type": "Feature", "properties": { "gisid": "0709910", "strnr": "07099", "strname": "Pekinger Platz", "strabnr": "10", "strabtypname": "fiktive Strasse Kreuzung1=Kreuzung2", "bez": "01", "bezname": "Mitte", "ort": "0105", "ortname": "Wedding" }, "geometry": { "type": "MultiLineString", "coordinates": [ [ [ 13.354996961827743, 52.540430411972714 ], [ 13.354967596619399, 52.540412371380739 ], [ 13.354996851697523, 52.540448384534692 ], [ 13.355026550277586, 52.540412506575649 ], [ 13.354996961827743, 52.540430411972714 ] ] ] } },
{ "type": "Feature", "properties": { "gisid": "1119810,1119820,1119830,1119840,1119850", "strnr": "11198", "strname": "Manga-Bell-Platz", "strabnr": "10,20,30,40,50", "strabtypname": "Strasse", "bez": "01", "bezname": "Mitte", "ort": "0105", "ortname": "Wedding" }, "geometry": { "type": "MultiLineString", "coordinates": [ [ [ 13.334307534345928, 52.557350362129881 ], [ 13.334539331619039, 52.557526170010554 ], [ 13.334727558202367, 52.557602120785646 ], [ 13.334869182877236, 52.557590787435799 ], [ 13.335323545447434, 52.557333993635865 ] ], [ [ 13.335323545447434, 52.557333993635865 ], [ 13.335692088550152, 52.557121918889735 ], [ 13.335726321808075, 52.557073476088654 ], [ 13.33568688707954, 52.557016764168296 ], [ 13.334812079256254, 52.556419706176975 ] ], [ [ 13.334812079256254, 52.556419706176975 ], [ 13.334436094807065, 52.556198610244415 ], [ 13.334360959512244, 52.556189438525188 ], [ 13.334241324964557, 52.556220595877214 ], [ 13.333921629330067, 52.556404029231821 ] ], [ [ 13.333921629330067, 52.556404029231821 ], [ 13.333456845031458, 52.556676069096937 ], [ 13.333422543239358, 52.556734396900374 ], [ 13.333448651003408, 52.55679916409904 ], [ 13.333847861608518, 52.557075138147297 ] ], [ [ 13.333847861608518, 52.557075138147297 ], [ 13.334307534345928, 52.557350362129881 ] ] ] } },
{ "type": "Feature", "properties": { "gisid": "1119910,1119920,1119930,1119940,1119950", "strnr": "11199", "strname": "Cornelius-Fredericks-Straße", "strabnr": "10,20,30,40,50", "strabtypname": "Strasse", "bez": "01", "bezname": "Mitte", "ort": "0105", "ortname": "Wedding" }, "geometry": { "type": "MultiLineString", "coordinates": [ [ [ 13.342256144103434, 52.554189392133956 ], [ 13.340801411510103, 52.55502702628614 ] ], [ [ 13.343734300855655, 52.553368870624773 ], [ 13.342256144103434, 52.554189392133956 ] ], [ [ 13.343734300855655, 52.553368870624773 ], [ 13.345768951277121, 52.552201874264853 ] ], [ [ 13.345768951277121, 52.552201874264853 ], [ 13.347733850815032, 52.551090394832137 ] ], [ [ 13.347733850815032, 52.551090394832137 ], [ 13.350342384539008, 52.549588574018074 ] ] ] } },
{ "type": "Feature", "properties": { "gisid": "1120010", "strnr": "11200", "strname": "Maji-Maji-Allee", "strabnr": "10", "strabtypname": "Strasse", "bez": "01", "bezname": "Mitte", "ort": "0105", "ortname": "Wedding" }, "geometry": { "type": "MultiLineString", "coordinates": [ [ [ 13.332280429708707, 52.555326974602458 ], [ 13.333921629330067, 52.556404029231821 ] ] ] } },
{ "type": "Feature", "properties": { "gisid": "1120110,1120120,1120130", "strnr": "11201", "strname": "Anna-Mungunda-Allee", "strabnr": "10,20,30", "strabtypname": "Strasse", "bez": "01", "bezname": "Mitte", "ort": "0105", "ortname": "Wedding" }, "geometry": { "type": "MultiLineString", "coordinates": [ [ [ 13.335323545447434, 52.557333993635865 ], [ 13.334568837895043, 52.556857647845192 ] ], [ [ 13.336035445425644, 52.55782011384381 ], [ 13.335323545447434, 52.557333993635865 ] ], [ [ 13.33741412617244, 52.558709555746482 ], [ 13.336035445425644, 52.55782011384381 ] ] ] } }
]
}
