{
"type": "FeatureCollection",
"name": "OdF_Lichtbrg_AGG",
"crs": { "type": "name", "properties": { "name": "urn:ogc:def:crs:EPSG::3857" } },
"features": [
{ "type": "Feature", "properties": { "gisid": "0898310,0898320,0898330", "strnr": "08983", "strname": "Clara-Grunwald-Straße", "strabnr": "10,20,30", "strabtypname": "Strasse", "bez": "11", "bezname": "Lichtenberg", "ort": "1112", "ortname": "Rummelsburg" }, "geometry": { "type": "MultiLineString", "coordinates": [ [ [ 1500738.646445869933814, 6890766.256824320182204 ], [ 1500675.721321319928393, 6890675.751057200133801 ] ], [ [ 1500675.721321319928393, 6890675.751057200133801 ], [ 1500554.426650580018759, 6890513.482869570143521 ] ], [ [ 1500554.426650580018759, 6890513.482869570143521 ], [ 1500536.770546549931169, 6890490.770586330443621 ] ] ] } },
{ "type": "Feature", "properties": { "gisid": "0898510", "strnr": "08985", "strname": "Paula-Fürst-Straße", "strabnr": "10", "strabtypname": "Strasse", "bez": "11", "bezname": "Lichtenberg", "ort": "1112", "ortname": "Rummelsburg" }, "geometry": { "type": "MultiLineString", "coordinates": [ [ [ 1500881.781796149909496, 6890252.878162319771945 ], [ 1501032.637007500045002, 6890137.829667749814689 ] ] ] } },
{ "type": "Feature", "properties": { "gisid": "0898610,0898620,0898630,0898640,0898650,0898660", "strnr": "08986", "strname": "Alice-und-Hella-Hirsch-Ring", "strabnr": "10,20,30,40,50,60", "strabtypname": "Strasse", "bez": "11", "bezname": "Lichtenberg", "ort": "1112", "ortname": "Rummelsburg" }, "geometry": { "type": "MultiLineString", "coordinates": [ [ [ 1500952.874516250099987, 6890605.319661649875343 ], [ 1500887.484655230073258, 6890517.277180270291865 ] ], [ [ 1500887.484655230073258, 6890517.277180270291865 ], [ 1500767.826350850053132, 6890355.511678540147841 ] ], [ [ 1500767.826350850053132, 6890355.511678540147841 ], [ 1500771.798473099945113, 6890336.294493170455098 ], [ 1500818.421896769898012, 6890299.252682119607925 ] ], [ [ 1500818.421896769898012, 6890299.252682119607925 ], [ 1500881.781796149909496, 6890252.878162319771945 ] ], [ [ 1501008.475014890078455, 6890421.719714210368693 ], [ 1500881.781796149909496, 6890252.878162319771945 ] ], [ [ 1501076.315464810002595, 6890514.201561249792576 ], [ 1501008.475014890078455, 6890421.719714210368693 ] ] ] } },
{ "type": "Feature", "properties": { "gisid": "0928810", "strnr": "09288", "strname": "Charlotte-Salomon-Hain", "strabnr": "10", "strabtypname": "Strasse", "bez": "11", "bezname": "Lichtenberg", "ort": "1112", "ortname": "Rummelsburg" }, "geometry": { "type": "MultiLineString", "coordinates": [ [ [ 1500818.421896769898012, 6890299.252682119607925 ], [ 1500755.490673630032688, 6890213.189294169656932 ] ] ] } },
{ "type": "Feature", "properties": { "gisid": "0936410,0936420", "strnr": "09364", "strname": "Georg-Löwenstein-Straße", "strabnr": "10,20", "strabtypname": "Strasse", "bez": "11", "bezname": "Lichtenberg", "ort": "1112", "ortname": "Rummelsburg" }, "geometry": { "type": "MultiLineString", "coordinates": [ [ [ 1501285.15844434988685, 6889826.629938149824739 ], [ 1501405.833198040025309, 6889972.605534030124545 ], [ 1501493.817412229953334, 6890073.82602266035974 ] ], [ [ 1501493.817412229953334, 6890073.82602266035974 ], [ 1501542.203535380074754, 6890141.286963510327041 ] ] ] } },
{ "type": "Feature", "properties": { "gisid": "0942410", "strnr": "09424", "strname": "Gisèle-Freund-Hain", "strabnr": "10", "strabtypname": "Strasse", "bez": "11", "bezname": "Lichtenberg", "ort": "1112", "ortname": "Rummelsburg" }, "geometry": { "type": "MultiLineString", "coordinates": [ [ [ 1501050.272498039994389, 6890004.772191469557583 ], [ 1500982.593521770089865, 6889915.911086079664528 ] ] ] } },
{ "type": "Feature", "properties": { "gisid": "0994710,0994720,0994730,0994740,0994750,0994760,0994770,0994780,0994790", "strnr": "09947", "strname": "Friedrich-Jacobs-Promenade", "strabnr": "10,20,30,40,50,60,70,80,90", "strabtypname": "Strasse", "bez": "11", "bezname": "Lichtenberg", "ort": "1112", "ortname": "Rummelsburg" }, "geometry": { "type": "MultiLineString", "coordinates": [ [ [ 1501406.824068950023502, 6890309.613317269831896 ], [ 1501372.830467960098758, 6890258.280968699604273 ] ], [ [ 1501372.830467960098758, 6890258.280968699604273 ], [ 1501351.493180030025542, 6890273.685264159925282 ], [ 1501306.533474520081654, 6890214.608814120292664 ] ], [ [ 1501372.830467960098758, 6890258.280968699604273 ], [ 1501394.00544760003686, 6890242.054878019727767 ], [ 1501349.048956769984215, 6890181.33568312972784 ] ], [ [ 1501306.533474520081654, 6890214.608814120292664 ], [ 1501193.405085159931332, 6890064.205940789543092 ], [ 1501214.908018, 6890047.816806769929826 ] ], [ [ 1501214.908018, 6890047.816806769929826 ], [ 1501193.491892270045355, 6890019.677802300080657 ] ], [ [ 1501193.491892270045355, 6890019.677802300080657 ], [ 1501182.495219550095499, 6890027.543144079856575 ], [ 1501127.569124570116401, 6889953.82431012019515 ], [ 1501133.985850109951571, 6889941.185249269939959 ] ], [ [ 1501193.491892270045355, 6890019.677802300080657 ], [ 1501204.325212930096313, 6890011.48352525010705 ], [ 1501149.724868450080976, 6889938.751433970406651 ], [ 1501133.985850109951571, 6889941.185249269939959 ] ], [ [ 1501133.985850109951571, 6889941.185249269939959 ], [ 1501093.611686950083822, 6889885.733727809973061 ] ], [ [ 1501349.048956769984215, 6890181.33568312972784 ], [ 1501235.917657159967348, 6890032.248439989984035 ], [ 1501214.908018, 6890047.816806769929826 ] ] ] } },
{ "type": "Feature", "properties": { "gisid": "0932110,0932120,0932130,0932140", "strnr": "09321", "strname": "Fritz-Kortner-Straße", "strabnr": "10,20,30,40", "strabtypname": "Strasse", "bez": "11", "bezname": "Lichtenberg", "ort": "1102", "ortname": "Karlshorst" }, "geometry": { "type": "MultiLineString", "coordinates": [ [ [ 1506628.290639280108735, 6886787.424953109584749 ], [ 1506574.644743100041524, 6886715.745933170430362 ] ], [ [ 1506574.644743100041524, 6886715.745933170430362 ], [ 1506541.935201979940757, 6886671.358302789740264 ] ], [ [ 1506502.847460930002853, 6886618.586263540200889 ], [ 1506464.738258339930326, 6886569.593115840107203 ] ], [ [ 1506541.935201979940757, 6886671.358302789740264 ], [ 1506502.847460930002853, 6886618.586263540200889 ] ] ] } },
{ "type": "Feature", "properties": { "gisid": "1051310", "strnr": "10513", "strname": "Johanna-und-Willy-Brauer-Platz", "strabnr": "10", "strabtypname": "Verwaltungsweg", "bez": "11", "bezname": "Lichtenberg", "ort": "1102", "ortname": "Karlshorst" }, "geometry": { "type": "MultiLineString", "coordinates": [ [ [ 1506090.091040519997478, 6888376.109965929761529 ], [ 1506097.816661430057138, 6888358.378466109745204 ] ] ] } },
{ "type": "Feature", "properties": { "gisid": "1051910,1051920,1051930,1051940,1051950", "strnr": "10519", "strname": "Frieda-Rosenthal-Straße", "strabnr": "10,20,30,40,50", "strabtypname": "Strasse", "bez": "11", "bezname": "Lichtenberg", "ort": "1102", "ortname": "Karlshorst" }, "geometry": { "type": "MultiLineString", "coordinates": [ [ [ 1506585.932215149980038, 6886473.176432659849524 ], [ 1506557.149728619959205, 6886433.229591090232134 ], [ 1506524.132891529938206, 6886374.061712860129774 ] ], [ [ 1506524.132891529938206, 6886374.061712860129774 ], [ 1506473.790480739902705, 6886284.32410467043519 ], [ 1506400.525285339914262, 6886186.017167350277305 ] ], [ [ 1506400.525285339914262, 6886186.017167350277305 ], [ 1506390.549526409944519, 6886172.701353210024536 ], [ 1506474.630426760064438, 6886015.149007949978113 ] ], [ [ 1506474.630426760064438, 6886015.149007949978113 ], [ 1506520.283913129940629, 6885928.495417360216379 ], [ 1506540.28579834010452, 6885915.875668490305543 ], [ 1506637.756886620074511, 6886044.427146540023386 ], [ 1506804.867045929888263, 6886163.870095529593527 ] ], [ [ 1506804.867045929888263, 6886163.870095529593527 ], [ 1506864.609112150035799, 6886206.31668336968869 ], [ 1506895.689467689953744, 6886243.307936640456319 ] ] ] } },
{ "type": "Feature", "properties": { "gisid": "1052110", "strnr": "10521", "strname": "Franz-Stimming-Weg", "strabnr": "10", "strabtypname": "Strasse", "bez": "11", "bezname": "Lichtenberg", "ort": "1102", "ortname": "Karlshorst" }, "geometry": { "type": "MultiLineString", "coordinates": [ [ [ 1506524.132891529938206, 6886374.061712860129774 ], [ 1506421.476859719958156, 6886451.448815669864416 ], [ 1506389.260337620042264, 6886407.391140289604664 ], [ 1506329.603237139992416, 6886300.888059509918094 ], [ 1506357.888952200068161, 6886218.479572460055351 ], [ 1506400.525285339914262, 6886186.017167350277305 ] ] ] } }
]
}
