{
"type": "FeatureCollection",
"name": "OdF_Lichtbrg_AGG_wgs84",
"crs": { "type": "name", "properties": { "name": "urn:ogc:def:crs:OGC:1.3:CRS84" } },
"features": [
{ "type": "Feature", "properties": { "gisid": "0898310,0898320,0898330", "strnr": "08983", "strname": "Clara-Grunwald-Straße", "strabnr": "10,20,30", "strabtypname": "Strasse", "bez": "11", "bezname": "Lichtenberg", "ort": "1112", "ortname": "Rummelsburg" }, "geometry": { "type": "MultiLineString", "coordinates": [ [ [ 13.481364635711676, 52.498493555824865 ], [ 13.480799369700293, 52.497998596516986 ] ], [ [ 13.480799369700293, 52.497998596516986 ], [ 13.479709761134213, 52.497111167848018 ] ], [ [ 13.479709761134213, 52.497111167848018 ], [ 13.479551153653132, 52.496986955188397 ] ] ] } },
{ "type": "Feature", "properties": { "gisid": "0898510", "strnr": "08985", "strname": "Paula-Fürst-Straße", "strabnr": "10", "strabtypname": "Strasse", "bez": "11", "bezname": "Lichtenberg", "ort": "1112", "ortname": "Rummelsburg" }, "geometry": { "type": "MultiLineString", "coordinates": [ [ [ 13.482650442440219, 52.495685908997203 ], [ 13.484005597860669, 52.495056688912676 ] ] ] } },
{ "type": "Feature", "properties": { "gisid": "0898610,0898620,0898630,0898640,0898650,0898660", "strnr": "08986", "strname": "Alice-und-Hella-Hirsch-Ring", "strabnr": "10,20,30,40,50,60", "strabtypname": "Strasse", "bez": "11", "bezname": "Lichtenberg", "ort": "1112", "ortname": "Rummelsburg" }, "geometry": { "type": "MultiLineString", "coordinates": [ [ [ 13.483289079210776, 52.497613416380702 ], [ 13.482701672094967, 52.497131918762477 ] ], [ [ 13.482701672094967, 52.497131918762477 ], [ 13.481626763258005, 52.496247221822337 ] ], [ [ 13.481626763258005, 52.496247221822337 ], [ 13.481662445439278, 52.496142121684976 ], [ 13.482081270780087, 52.495939536708264 ] ], [ [ 13.482081270780087, 52.495939536708264 ], [ 13.482650442440219, 52.495685908997203 ] ], [ [ 13.483788546988105, 52.496609316298816 ], [ 13.482650442440219, 52.495685908997203 ] ], [ [ 13.484397968118552, 52.497115098341219 ], [ 13.483788546988105, 52.496609316298816 ] ] ] } },
{ "type": "Feature", "properties": { "gisid": "0928810", "strnr": "09288", "strname": "Charlotte-Salomon-Hain", "strabnr": "10", "strabtypname": "Strasse", "bez": "11", "bezname": "Lichtenberg", "ort": "1112", "ortname": "Rummelsburg" }, "geometry": { "type": "MultiLineString", "coordinates": [ [ [ 13.482081270780087, 52.495939536708264 ], [ 13.481515949984136, 52.495468844740707 ] ] ] } },
{ "type": "Feature", "properties": { "gisid": "0936410,0936420", "strnr": "09364", "strname": "Georg-Löwenstein-Straße", "strabnr": "10,20", "strabtypname": "Strasse", "bez": "11", "bezname": "Lichtenberg", "ort": "1112", "ortname": "Rummelsburg" }, "geometry": { "type": "MultiLineString", "coordinates": [ [ [ 13.48627403652357, 52.493354638733216 ], [ 13.48735807628004, 52.494153033842345 ], [ 13.48814845192372, 52.494706638027068 ] ], [ [ 13.48814845192372, 52.494706638027068 ], [ 13.488583111863372, 52.495075597591452 ] ] ] } },
{ "type": "Feature", "properties": { "gisid": "0942410", "strnr": "09424", "strname": "Gisèle-Freund-Hain", "strabnr": "10", "strabtypname": "Strasse", "bez": "11", "bezname": "Lichtenberg", "ort": "1112", "ortname": "Rummelsburg" }, "geometry": { "type": "MultiLineString", "coordinates": [ [ [ 13.484164020167619, 52.494328963368865 ], [ 13.483556049579649, 52.493842952432054 ] ] ] } },
{ "type": "Feature", "properties": { "gisid": "0994710,0994720,0994730,0994740,0994750,0994760,0994770,0994780,0994790", "strnr": "09947", "strname": "Friedrich-Jacobs-Promenade", "strabnr": "10,20,30,40,50,60,70,80,90", "strabtypname": "Strasse", "bez": "11", "bezname": "Lichtenberg", "ort": "1112", "ortname": "Rummelsburg" }, "geometry": { "type": "MultiLineString", "coordinates": [ [ [ 13.487366977424871, 52.495996200042313 ], [ 13.487061607711556, 52.495715457656956 ] ], [ [ 13.487061607711556, 52.495715457656956 ], [ 13.486869931592864, 52.495799705668894 ], [ 13.486466051686573, 52.495476608322548 ] ], [ [ 13.487061607711556, 52.495715457656956 ], [ 13.487251825790072, 52.495626714969973 ], [ 13.486847974761741, 52.495294631882487 ] ], [ [ 13.486466051686573, 52.495476608322548 ], [ 13.485449802074273, 52.494654023311256 ], [ 13.485642966206509, 52.494564386753574 ] ], [ [ 13.485642966206509, 52.494564386753574 ], [ 13.48545058187581, 52.494410486585394 ] ], [ [ 13.48545058187581, 52.494410486585394 ], [ 13.485351797084022, 52.494453504416747 ], [ 13.484858387577848, 52.494050313119651 ], [ 13.484916030004111, 52.493981185782275 ] ], [ [ 13.48545058187581, 52.494410486585394 ], [ 13.485547899251078, 52.494365669667054 ], [ 13.485057416011431, 52.493967874403282 ], [ 13.484916030004111, 52.493981185782275 ] ], [ [ 13.484916030004111, 52.493981185782275 ], [ 13.484553342725611, 52.493677901202126 ] ], [ [ 13.486847974761741, 52.495294631882487 ], [ 13.485831699006221, 52.49447923902224 ], [ 13.485642966206509, 52.494564386753574 ] ] ] } },
{ "type": "Feature", "properties": { "gisid": "0932110,0932120,0932130,0932140", "strnr": "09321", "strname": "Fritz-Kortner-Straße", "strabnr": "10,20,30,40", "strabtypname": "Strasse", "bez": "11", "bezname": "Lichtenberg", "ort": "1102", "ortname": "Karlshorst" }, "geometry": { "type": "MultiLineString", "coordinates": [ [ [ 13.534272209681339, 52.476728797647688 ], [ 13.533790300396648, 52.476336604778062 ] ], [ [ 13.533790300396648, 52.476336604778062 ], [ 13.533496465589401, 52.476093735417194 ] ], [ [ 13.533145334437334, 52.475804988557833 ], [ 13.532802993645809, 52.475536916540243 ] ], [ [ 13.533496465589401, 52.476093735417194 ], [ 13.533145334437334, 52.475804988557833 ] ] ] } },
{ "type": "Feature", "properties": { "gisid": "1051310", "strnr": "10513", "strname": "Johanna-und-Willy-Brauer-Platz", "strabnr": "10", "strabtypname": "Verwaltungsweg", "bez": "11", "bezname": "Lichtenberg", "ort": "1102", "ortname": "Karlshorst" }, "geometry": { "type": "MultiLineString", "coordinates": [ [ [ 13.529437480426607, 52.485420415031143 ], [ 13.529506880860035, 52.48532341634521 ] ] ] } },
{ "type": "Feature", "properties": { "gisid": "1051910,1051920,1051930,1051940,1051950", "strnr": "10519", "strname": "Frieda-Rosenthal-Straße", "strabnr": "10,20,30,40,50", "strabtypname": "Strasse", "bez": "11", "bezname": "Lichtenberg", "ort": "1102", "ortname": "Karlshorst" }, "geometry": { "type": "MultiLineString", "coordinates": [ [ [ 13.533891697483265, 52.475009356061413 ], [ 13.533633140007616, 52.474790778188371 ], [ 13.533336544713704, 52.474467026217944 ] ], [ [ 13.533336544713704, 52.474467026217944 ], [ 13.532884311143182, 52.473975999713254 ], [ 13.532226158694964, 52.473438077239763 ] ], [ [ 13.532226158694964, 52.473438077239763 ], [ 13.532136544927788, 52.473365214371867 ], [ 13.53289185650666, 52.472503093772367 ] ], [ [ 13.53289185650666, 52.472503093772367 ], [ 13.533301968752454, 52.472028921334214 ], [ 13.533481648744409, 52.471959865061059 ], [ 13.534357246428025, 52.472663303940287 ], [ 13.535858422530422, 52.473316890503654 ] ], [ [ 13.535858422530422, 52.473316890503654 ], [ 13.536395094642327, 52.473549154027666 ], [ 13.536674294226499, 52.473751565501651 ] ] ] } },
{ "type": "Feature", "properties": { "gisid": "1052110", "strnr": "10521", "strname": "Franz-Stimming-Weg", "strabnr": "10", "strabtypname": "Strasse", "bez": "11", "bezname": "Lichtenberg", "ort": "1102", "ortname": "Karlshorst" }, "geometry": { "type": "MultiLineString", "coordinates": [ [ [ 13.533336544713704, 52.474467026217944 ], [ 13.532414369889883, 52.474890468791692 ], [ 13.532124963947849, 52.47464939688021 ], [ 13.531589055096173, 52.474066634821703 ], [ 13.53184314999778, 52.473615707925987 ], [ 13.532226158694964, 52.473438077239763 ] ] ] } }
]
}
