{
"type": "FeatureCollection",
"name": "RK_Lichtbrg_AGG_wgs84",
"crs": { "type": "name", "properties": { "name": "urn:ogc:def:crs:OGC:1.3:CRS84" } },
"features": [
{ "type": "Feature", "properties": { "gisid": "4375010", "strnr": "43750", "strname": "Harnackstraße", "strabnr": "10", "strabtypname": "Strasse", "bez": "11", "bezname": "Lichtenberg", "ort": "1103", "ortname": "Lichtenberg" }, "geometry": { "type": "MultiLineString", "coordinates": [ [ [ 13.488317441063593, 52.510781970071783 ], [ 13.48623469907791, 52.511269282896158 ], [ 13.486087440081457, 52.511259222449205 ], [ 13.48516056592182, 52.5109301109309 ], [ 13.485066494292267, 52.510869788988117 ], [ 13.48448288757859, 52.510062100264015 ], [ 13.484465462311045, 52.509984795516573 ], [ 13.484639353392582, 52.509497935291904 ], [ 13.484627822070699, 52.509419738615762 ], [ 13.48403105989647, 52.508589565900024 ] ] ] } },
{ "type": "Feature", "properties": { "gisid": "4375210", "strnr": "43752", "strname": "Albert-Hößler-Straße", "strabnr": "10", "strabtypname": "Strasse", "bez": "11", "bezname": "Lichtenberg", "ort": "1103", "ortname": "Lichtenberg" }, "geometry": { "type": "MultiLineString", "coordinates": [ [ [ 13.486578178304841, 52.5079294021252 ], [ 13.486720483011924, 52.508104807710751 ], [ 13.488206321491344, 52.510520332374199 ], [ 13.488317441063593, 52.510781970071783 ] ] ] } },
{ "type": "Feature", "properties": { "gisid": "4375310,4375320,4375330", "strnr": "43753", "strname": "Coppistraße", "strabnr": "10,20,30", "strabtypname": "Strasse", "bez": "11", "bezname": "Lichtenberg", "ort": "1103", "ortname": "Lichtenberg" }, "geometry": { "type": "MultiLineString", "coordinates": [ [ [ 13.48403105989647, 52.508589565900024 ], [ 13.483263074911441, 52.508789037580932 ], [ 13.48315558254488, 52.508781718351159 ], [ 13.48309239508364, 52.508737607659896 ], [ 13.481279112488096, 52.506575934459534 ] ], [ [ 13.48403105989647, 52.508589565900024 ], [ 13.486299636782693, 52.507987484814443 ], [ 13.486578178304841, 52.5079294021252 ] ], [ [ 13.486578178304841, 52.5079294021252 ], [ 13.486968657510326, 52.507869653760949 ], [ 13.487684767501234, 52.507763557066745 ], [ 13.488075300736163, 52.507685831866752 ] ] ] } },
{ "type": "Feature", "properties": { "gisid": "4375410,4375420,4375430", "strnr": "43754", "strname": "John-Sieg-Straße", "strabnr": "10,20,30", "strabtypname": "Strasse", "bez": "11", "bezname": "Lichtenberg", "ort": "1103", "ortname": "Lichtenberg" }, "geometry": { "type": "MultiLineString", "coordinates": [ [ [ 13.478524740317104, 52.511939268359562 ], [ 13.47911020191458, 52.51260769690245 ] ], [ [ 13.478524740317104, 52.511939268359562 ], [ 13.478109349537103, 52.511509191719078 ] ], [ [ 13.478109349537103, 52.511509191719078 ], [ 13.479075200930636, 52.511182392169715 ], [ 13.47949371869395, 52.510676972003893 ], [ 13.479574912887665, 52.510621356814795 ], [ 13.480527412079356, 52.510314298888638 ], [ 13.481297036260885, 52.510076205479258 ] ] ] } },
{ "type": "Feature", "properties": { "gisid": "4375510,4375520,4375530,4375540", "strnr": "43755", "strname": "Wilhelm-Guddorf-Straße", "strabnr": "10,20,30,40", "strabtypname": "Strasse", "bez": "11", "bezname": "Lichtenberg", "ort": "1103", "ortname": "Lichtenberg" }, "geometry": { "type": "MultiLineString", "coordinates": [ [ [ 13.476099516268862, 52.512601210416371 ], [ 13.476614147868608, 52.5124329174268 ] ], [ [ 13.477912959317887, 52.509908446763056 ], [ 13.477177650219483, 52.510881659225255 ], [ 13.477167187712405, 52.510926578455681 ], [ 13.477308405427452, 52.511414725142416 ], [ 13.477280103181929, 52.511508148693771 ], [ 13.476861348868487, 52.512073769889085 ] ], [ [ 13.480033528053225, 52.508683534326636 ], [ 13.478542907360319, 52.509160660316745 ], [ 13.478414465975902, 52.509251263480422 ], [ 13.477912959317887, 52.509908446763056 ] ], [ [ 13.476614147868608, 52.5124329174268 ], [ 13.476861348868487, 52.512073769889085 ] ] ] } },
{ "type": "Feature", "properties": { "gisid": "4875110,4875120,4875130,4875140,4875150", "strnr": "48751", "strname": "Schulze-Boysen-Straße", "strabnr": "10,20,30,40,50", "strabtypname": "Strasse", "bez": "11", "bezname": "Lichtenberg", "ort": "1103", "ortname": "Lichtenberg" }, "geometry": { "type": "MultiLineString", "coordinates": [ [ [ 13.4843475714262, 52.512743513454012 ], [ 13.484026538865548, 52.511354711413397 ], [ 13.482616400793038, 52.511528241337167 ] ], [ [ 13.481297036260885, 52.510076205479258 ], [ 13.480033528053225, 52.508683534326636 ] ], [ [ 13.478812726112867, 52.50731606482745 ], [ 13.480033528053225, 52.508683534326636 ] ], [ [ 13.478520710940156, 52.506998475645943 ], [ 13.478812726112867, 52.50731606482745 ] ], [ [ 13.482616400793038, 52.511528241337167 ], [ 13.481297036260885, 52.510076205479258 ] ] ] } },
{ "type": "Feature", "properties": { "gisid": "4348810", "strnr": "43488", "strname": "Ursula-Goetze-Straße", "strabnr": "10", "strabtypname": "Strasse", "bez": "11", "bezname": "Lichtenberg", "ort": "1102", "ortname": "Karlshorst" }, "geometry": { "type": "MultiLineString", "coordinates": [ [ [ 13.531817312885073, 52.495901639843197 ], [ 13.531345865417107, 52.492626539280884 ] ] ] } }
]
}
