{
"type": "FeatureCollection",
"name": "RK_Lichtbrg_AGG",
"crs": { "type": "name", "properties": { "name": "urn:ogc:def:crs:EPSG::3857" } },
"features": [
{ "type": "Feature", "properties": { "gisid": "4375010", "strnr": "43750", "strname": "Harnackstraße", "strabnr": "10", "strabtypname": "Strasse", "bez": "11", "bezname": "Lichtenberg", "ort": "1103", "ortname": "Lichtenberg" }, "geometry": { "type": "MultiLineString", "coordinates": [ [ [ 1501512.629197230096906, 6893013.581120369955897 ], [ 1501280.779419929953292, 6893102.714599750004709 ], [ 1501264.386623430065811, 6893100.874452180229127 ], [ 1501161.207463949918747, 6893040.677183919586241 ], [ 1501150.735458049923182, 6893029.64384147990495 ], [ 1501085.768655860098079, 6892881.912885500118136 ], [ 1501083.828883949900046, 6892867.773540830239654 ], [ 1501103.186350600095466, 6892778.725447840057313 ], [ 1501101.902689720038325, 6892764.423149620182812 ], [ 1501035.471428360091522, 6892612.584789710119367 ] ] ] } },
{ "type": "Feature", "properties": { "gisid": "4375210", "strnr": "43752", "strname": "Albert-Hößler-Straße", "strabnr": "10", "strabtypname": "Strasse", "bez": "11", "bezname": "Lichtenberg", "ort": "1103", "ortname": "Lichtenberg" }, "geometry": { "type": "MultiLineString", "coordinates": [ [ [ 1501319.015352569986135, 6892491.843065179884434 ], [ 1501334.856640100013465, 6892523.92397737968713 ], [ 1501500.259423030074686, 6892965.725865099579096 ], [ 1501512.629197230096906, 6893013.581120369955897 ] ] ] } },
{ "type": "Feature", "properties": { "gisid": "4375310,4375320,4375330", "strnr": "43753", "strname": "Coppistraße", "strabnr": "10,20,30", "strabtypname": "Strasse", "bez": "11", "bezname": "Lichtenberg", "ort": "1103", "ortname": "Lichtenberg" }, "geometry": { "type": "MultiLineString", "coordinates": [ [ [ 1501035.471428360091522, 6892612.584789710119367 ], [ 1500949.979730889899656, 6892649.067843159660697 ], [ 1500938.013735380023718, 6892647.729164740070701 ], [ 1500930.979739370057359, 6892639.66137649025768 ], [ 1500729.126044169999659, 6892244.304071259684861 ] ], [ [ 1501035.471428360091522, 6892612.584789710119367 ], [ 1501288.008252159925178, 6892502.466120090335608 ], [ 1501319.015352569986135, 6892491.843065179884434 ] ], [ [ 1501319.015352569986135, 6892491.843065179884434 ], [ 1501362.483298890059814, 6892480.915380669757724 ], [ 1501442.200298429932445, 6892461.510849200189114 ], [ 1501485.674259280087426, 6892447.295345629565418 ] ] ] } },
{ "type": "Feature", "properties": { "gisid": "4375410,4375420,4375430", "strnr": "43754", "strname": "John-Sieg-Straße", "strabnr": "10,20,30", "strabtypname": "Strasse", "bez": "11", "bezname": "Lichtenberg", "ort": "1103", "ortname": "Lichtenberg" }, "geometry": { "type": "MultiLineString", "coordinates": [ [ [ 1500422.510736640077084, 6893225.262004249729216 ], [ 1500487.68402355001308, 6893347.526493409648538 ] ], [ [ 1500422.510736640077084, 6893225.262004249729216 ], [ 1500376.269646530039608, 6893146.596237950026989 ] ], [ [ 1500376.269646530039608, 6893146.596237950026989 ], [ 1500483.787731840042397, 6893086.82150670979172 ], [ 1500530.376916140085086, 6892994.376249119639397 ], [ 1500539.415412439964712, 6892984.203865800052881 ], [ 1500645.447137440089136, 6892928.041186340153217 ], [ 1500731.121309430105612, 6892884.492787949740887 ] ] ] } },
{ "type": "Feature", "properties": { "gisid": "4375510,4375520,4375530,4375540", "strnr": "43755", "strname": "Wilhelm-Guddorf-Straße", "strabnr": "10,20,30,40", "strabtypname": "Strasse", "bez": "11", "bezname": "Lichtenberg", "ort": "1103", "ortname": "Lichtenberg" }, "geometry": { "type": "MultiLineString", "coordinates": [ [ [ 1500152.536030529998243, 6893346.340019719675183 ], [ 1500209.82455816003494, 6893315.55681832972914 ] ], [ [ 1500354.407587330089882, 6892853.809075649827719 ], [ 1500272.553352920105681, 6893031.814996999688447 ], [ 1500271.388671959983185, 6893040.031066900119185 ], [ 1500287.108956089941785, 6893129.31736113037914 ], [ 1500283.958364530000836, 6893146.405458039604127 ], [ 1500237.342847590101883, 6893249.863977150060236 ] ], [ [ 1500590.468219140078872, 6892629.771444980055094 ], [ 1500424.533082640031353, 6892717.037492579780519 ], [ 1500410.235053129959852, 6892733.608862039633095 ], [ 1500354.407587330089882, 6892853.809075649827719 ] ], [ [ 1500209.82455816003494, 6893315.55681832972914 ], [ 1500237.342847590101883, 6893249.863977150060236 ] ] ] } },
{ "type": "Feature", "properties": { "gisid": "4875110,4875120,4875130,4875140,4875150", "strnr": "48751", "strname": "Schulze-Boysen-Straße", "strabnr": "10,20,30,40,50", "strabtypname": "Strasse", "bez": "11", "bezname": "Lichtenberg", "ort": "1103", "ortname": "Lichtenberg" }, "geometry": { "type": "MultiLineString", "coordinates": [ [ [ 1501070.705330679891631, 6893372.369378150440753 ], [ 1501034.968149499967694, 6893118.340272249653935 ], [ 1500877.992297319928184, 6893150.080607140436769 ] ], [ [ 1500731.121309430105612, 6892884.492787949740887 ], [ 1500590.468219140078872, 6892629.771444980055094 ] ], [ [ 1500454.569168779999018, 6892379.667370280250907 ], [ 1500590.468219140078872, 6892629.771444980055094 ] ], [ [ 1500422.062188450014219, 6892321.582838360220194 ], [ 1500454.569168779999018, 6892379.667370280250907 ] ], [ [ 1500877.992297319928184, 6893150.080607140436769 ], [ 1500731.121309430105612, 6892884.492787949740887 ] ] ] } }
]
}
