{
"type": "FeatureCollection",
"name": "Saefkow_Lichtbrg_AGG",
"crs": { "type": "name", "properties": { "name": "urn:ogc:def:crs:EPSG::3857" } },
"features": [
{ "type": "Feature", "properties": { "gisid": "4022410", "strnr": "40224", "strname": "Arthur-Weisbrodt-Straße", "strabnr": "10", "strabtypname": "Strasse", "bez": "11", "bezname": "Lichtenberg", "ort": "1111", "ortname": "Fennpfuhl" }, "geometry": { "type": "MultiLineString", "coordinates": [ [ [ 1498353.204026669962332, 6895888.807008420117199 ], [ 1498368.878295850008726, 6895919.920276870019734 ], [ 1498444.596595040056854, 6896160.657962080091238 ] ] ] } },
{ "type": "Feature", "properties": { "gisid": "4376610,4376620,4376630,4376640,4376650,4376660", "strnr": "43766", "strname": "Elli-Voigt-Straße", "strabnr": "10,20,30,40,50,60", "strabtypname": "Strasse", "bez": "11", "bezname": "Lichtenberg", "ort": "1111", "ortname": "Fennpfuhl" }, "geometry": { "type": "MultiLineString", "coordinates": [ [ [ 1501182.648564839968458, 6896004.529027529992163 ], [ 1501086.524479189887643, 6896008.121859430335462 ], [ 1501095.49493065988645, 6896285.045253969728947 ] ], [ [ 1501192.932535680010915, 6896282.441402900032699 ], [ 1501095.49493065988645, 6896285.045253969728947 ] ], [ [ 1501025.119503380032256, 6896288.852710420265794 ], [ 1501095.49493065988645, 6896285.045253969728947 ] ], [ [ 1500800.877742569893599, 6896296.627319379709661 ], [ 1501025.119503380032256, 6896288.852710420265794 ] ], [ [ 1501025.119503380032256, 6896288.852710420265794 ], [ 1501031.171770459972322, 6896463.991206830367446 ], [ 1501034.857849119929597, 6896591.440406830050051 ], [ 1501034.124022189993411, 6896630.905127760022879 ] ], [ [ 1500983.209227459970862, 6896829.453946029767394 ], [ 1500979.613296069903299, 6896739.823664849624038 ], [ 1500982.935251380084082, 6896718.945715139620006 ], [ 1500989.527579519897699, 6896703.336563309654593 ], [ 1501022.760230310028419, 6896653.904707560315728 ], [ 1501034.124022189993411, 6896630.905127760022879 ] ] ] } },
{ "type": "Feature", "properties": { "gisid": "4376910,4376920", "strnr": "43769", "strname": "Judith-Auer-Straße", "strabnr": "10,20", "strabtypname": "Strasse", "bez": "11", "bezname": "Lichtenberg", "ort": "1111", "ortname": "Fennpfuhl" }, "geometry": { "type": "MultiLineString", "coordinates": [ [ [ 1499358.640539200045168, 6896795.640617350116372 ], [ 1499276.13551196991466, 6897017.794543799944222 ] ], [ [ 1499276.13551196991466, 6897017.794543799944222 ], [ 1499218.203536140033975, 6897178.666288469918072 ], [ 1499206.165043100016192, 6897207.419210419990122 ], [ 1499183.115367139922455, 6897245.193059910088778 ] ] ] } },
{ "type": "Feature", "properties": { "gisid": "4378610,4378620,4378630,4378640,4378650,4378660,4378670,4378680,4378690", "strnr": "43786", "strname": "Paul-Junius-Straße", "strabnr": "10,20,30,40,50,60,70,80,90", "strabtypname": "Strasse", "bez": "11", "bezname": "Lichtenberg", "ort": "1103", "ortname": "Lichtenberg" }, "geometry": { "type": "MultiLineString", "coordinates": [ [ [ 1499851.573383929906413, 6895245.792516049928963 ], [ 1499857.099181779893115, 6894804.197313419543207 ] ], [ [ 1499850.870055430103093, 6895500.802898489870131 ], [ 1499851.573383929906413, 6895245.792516049928963 ] ], [ [ 1499850.870055430103093, 6895500.802898489870131 ], [ 1499851.203350669937208, 6895653.38700660970062 ], [ 1499854.131221370073035, 6895664.902951439842582 ], [ 1499867.570271030068398, 6895669.699786320328712 ], [ 1500076.527698149904609, 6895668.825696029700339 ] ], [ [ 1500077.078882720088586, 6895483.358955780044198 ], [ 1500076.527698149904609, 6895668.825696029700339 ] ], [ [ 1500084.569061340065673, 6895902.492025709711015 ], [ 1500077.140191320097074, 6895846.89981475006789 ], [ 1500076.209195449948311, 6895821.411626 ], [ 1500076.527698149904609, 6895668.825696029700339 ] ], [ [ 1500084.569061340065673, 6895902.492025709711015 ], [ 1500059.627873610006645, 6895907.372481339611113 ], [ 1499947.862464070087299, 6895939.529359409585595 ], [ 1499934.418372960062698, 6895936.870055019855499 ], [ 1499928.201841779984534, 6895929.128677110187709 ], [ 1499907.202043100027367, 6895853.776125550270081 ], [ 1499904.494185860035941, 6895815.623184099793434 ] ], [ [ 1500108.51647695992142, 6895980.974941889755428 ], [ 1500084.569061340065673, 6895902.492025709711015 ] ], [ [ 1500108.51647695992142, 6895980.974941889755428 ], [ 1500319.899730740115047, 6895921.069382010027766 ] ], [ [ 1500319.899730740115047, 6895921.069382010027766 ], [ 1500336.995419400045648, 6895982.601307829841971 ], [ 1500344.189306220039725, 6895993.79743727017194 ], [ 1500409.641801990102977, 6896230.551006579771638 ], [ 1500457.292566109914333, 6896270.277788089588284 ] ] ] } },
{ "type": "Feature", "properties": { "gisid": "4379510,4379520,4379530", "strnr": "43795", "strname": "Anton-Saefkow-Platz", "strabnr": "10,20,30", "strabtypname": "Strasse", "bez": "11", "bezname": "Lichtenberg", "ort": "1111", "ortname": "Fennpfuhl" }, "geometry": { "type": "MultiLineString", "coordinates": [ [ [ 1499458.105148260015994, 6896162.763059499673545 ], [ 1499703.629808790050447, 6896095.876045330427587 ] ], [ [ 1499703.629808790050447, 6896095.876045330427587 ], [ 1500108.51647695992142, 6895980.974941889755428 ] ], [ [ 1499694.748897510115057, 6896491.162054769694805 ], [ 1499717.903672559885308, 6896401.921073149889708 ], [ 1499579.233929029898718, 6896355.415489270351827 ] ] ] } },
{ "type": "Feature", "properties": { "gisid": "4379610,4379620,4379630,4379640", "strnr": "43796", "strname": "Franz-Jacob-Straße", "strabnr": "10,20,30,40", "strabtypname": "Strasse", "bez": "11", "bezname": "Lichtenberg", "ort": "1111", "ortname": "Fennpfuhl" }, "geometry": { "type": "MultiLineString", "coordinates": [ [ [ 1498887.281365140108392, 6895509.053789420053363 ], [ 1498936.554348299978301, 6895698.743399820290506 ] ], [ [ 1498936.554348299978301, 6895698.743399820290506 ], [ 1498961.358339739963412, 6895755.525494479574263 ], [ 1498997.283876199973747, 6895826.802417240105569 ], [ 1499019.954613680019975, 6895884.402617859654129 ], [ 1499049.274410570040345, 6895976.383836169727147 ] ], [ [ 1499132.481127660023049, 6896252.322532660327852 ], [ 1499049.274410570040345, 6895976.383836169727147 ] ], [ [ 1499132.481127660023049, 6896252.322532660327852 ], [ 1499140.950354679953307, 6896279.637653470039368 ], [ 1499162.203037640079856, 6896311.914313499815762 ], [ 1499184.285601689945906, 6896339.753027070313692 ], [ 1499208.520356710068882, 6896358.716815220192075 ], [ 1499234.896519540110603, 6896373.574312860146165 ], [ 1499312.420388930011541, 6896402.028250570409 ], [ 1499329.286536219995469, 6896415.384813950397074 ], [ 1499358.190862250048667, 6896474.646245829761028 ], [ 1499418.648764099925756, 6896582.487398159690201 ], [ 1499420.911031909985468, 6896598.278847740031779 ], [ 1499418.918389610014856, 6896609.456588409841061 ], [ 1499408.6669172400143, 6896646.927292680367827 ], [ 1499358.640539200045168, 6896795.640617350116372 ] ] ] } },
{ "type": "Feature", "properties": { "gisid": "4379710,43797100,4379720,4379730,4379740,4379750,4379760,4379770,4379780,4379790", "strnr": "43797", "strname": "Rudolf-Seiffert-Straße", "strabnr": "10,100,20,30,40,50,60,70,80,90", "strabtypname": "Strasse", "bez": "11", "bezname": "Lichtenberg", "ort": "1111", "ortname": "Fennpfuhl" }, "geometry": { "type": "MultiLineString", "coordinates": [ [ [ 1499145.715778139885515, 6895531.169521099887788 ], [ 1499120.160673009930179, 6895442.819374020211399 ] ], [ [ 1499529.417776959948242, 6895419.54702369030565 ], [ 1499493.803261060034856, 6895278.893080710433424 ] ], [ [ 1499145.715778139885515, 6895531.169521099887788 ], [ 1499279.652618590043858, 6896009.450878149829805 ], [ 1499293.590374069986865, 6896011.290195420384407 ], [ 1499337.738017230061814, 6895999.548112800344825 ] ], [ [ 1499337.738017230061814, 6895999.548112800344825 ], [ 1499533.702073160093278, 6895943.082230559550226 ], [ 1499549.430383220082149, 6895951.337894310243428 ] ], [ [ 1499673.940677710110322, 6896019.515983619727194 ], [ 1499557.411985209910199, 6896053.302070450037718 ], [ 1499488.121621390106156, 6896086.860293390229344 ], [ 1499369.95810415991582, 6896117.351649690419436 ], [ 1499337.738017230061814, 6895999.548112800344825 ] ], [ [ 1499703.629808790050447, 6896095.876045330427587 ], [ 1499695.303973230067641, 6896077.441715800203383 ], [ 1499673.940677710110322, 6896019.515983619727194 ] ], [ [ 1499605.223401959985495, 6895709.915147310122848 ], [ 1499602.542771530104801, 6895736.217333500273526 ], [ 1499602.992457709973678, 6895755.949343400076032 ], [ 1499673.940677710110322, 6896019.515983619727194 ] ], [ [ 1499391.214519779896364, 6895770.616685969755054 ], [ 1499484.108686029911041, 6895742.702260250225663 ], [ 1499605.223401959985495, 6895709.915147310122848 ] ], [ [ 1499529.417776959948242, 6895419.54702369030565 ], [ 1499543.450698930071667, 6895452.954579070210457 ], [ 1499604.80204092990607, 6895677.029449 ], [ 1499606.555410349974409, 6895700.710171840153635 ], [ 1499605.223401959985495, 6895709.915147310122848 ] ], [ [ 1499145.715778139885515, 6895531.169521099887788 ], [ 1499529.417776959948242, 6895419.54702369030565 ] ] ] } }
]
}
