{
"type": "FeatureCollection",
"name": "Saefkow_Lichtbrg_AGG_wgs84",
"crs": { "type": "name", "properties": { "name": "urn:ogc:def:crs:OGC:1.3:CRS84" } },
"features": [
{ "type": "Feature", "properties": { "gisid": "4022410", "strnr": "40224", "strname": "Arthur-Weisbrodt-Straße", "strabnr": "10", "strabtypname": "Strasse", "bez": "11", "bezname": "Lichtenberg", "ort": "1111", "ortname": "Fennpfuhl" }, "geometry": { "type": "MultiLineString", "coordinates": [ [ [ 13.459935841866132, 52.526498754056298 ], [ 13.46007664622185, 52.526668797082294 ], [ 13.460756835276349, 52.527984476023967 ] ] ] } },
{ "type": "Feature", "properties": { "gisid": "4376610,4376620,4376630,4376640,4376650,4376660", "strnr": "43766", "strname": "Elli-Voigt-Straße", "strabnr": "10,20,30,40,50,60", "strabtypname": "Strasse", "bez": "11", "bezname": "Lichtenberg", "ort": "1111", "ortname": "Fennpfuhl" }, "geometry": { "type": "MultiLineString", "coordinates": [ [ [ 13.485353174608198, 52.527131205087656 ], [ 13.484489677255084, 52.527150840705765 ], [ 13.484570260191694, 52.528664261670194 ] ], [ [ 13.485445557090069, 52.52865003154151 ], [ 13.484570260191694, 52.528664261670194 ] ], [ [ 13.483938066972174, 52.528685069532152 ], [ 13.484570260191694, 52.528664261670194 ] ], [ [ 13.481923668961439, 52.528727557969148 ], [ 13.483938066972174, 52.528685069532152 ] ], [ [ 13.483938066972174, 52.528685069532152 ], [ 13.483992435412389, 52.529642195932063 ], [ 13.484025548020377, 52.530338688707545 ], [ 13.484018955940906, 52.530554355871871 ] ], [ [ 13.483561580557966, 52.531639371184028 ], [ 13.483529277756684, 52.531149569384581 ], [ 13.483559119388968, 52.531035477054253 ], [ 13.483618339280227, 52.530950177081088 ], [ 13.483916873261592, 52.530680043695384 ], [ 13.484018955940906, 52.530554355871871 ] ] ] } },
{ "type": "Feature", "properties": { "gisid": "4376910,4376920", "strnr": "43769", "strname": "Judith-Auer-Straße", "strabnr": "10,20", "strabtypname": "Strasse", "bez": "11", "bezname": "Lichtenberg", "ort": "1111", "ortname": "Fennpfuhl" }, "geometry": { "type": "MultiLineString", "coordinates": [ [ [ 13.468967831730309, 52.531454592429604 ], [ 13.468226676460533, 52.532668576571069 ] ], [ [ 13.468226676460533, 52.532668576571069 ], [ 13.467706264667262, 52.533547656656339 ], [ 13.467598121044304, 52.533704774507648 ], [ 13.467391062282216, 52.533911185581651 ] ] ] } },
{ "type": "Feature", "properties": { "gisid": "4378610,4378620,4378630,4378640,4378650,4378660,4378670,4378680,4378690", "strnr": "43786", "strname": "Paul-Junius-Straße", "strabnr": "10,20,30,40,50,60,70,80,90", "strabtypname": "Strasse", "bez": "11", "bezname": "Lichtenberg", "ort": "1103", "ortname": "Lichtenberg" }, "geometry": { "type": "MultiLineString", "coordinates": [ [ [ 13.473395922814962, 52.522984346172549 ], [ 13.473445561901618, 52.520570636368156 ] ], [ [ 13.473389604707551, 52.524378143890885 ], [ 13.473395922814962, 52.522984346172549 ] ], [ [ 13.473389604707551, 52.524378143890885 ], [ 13.473392598749632, 52.525212094206552 ], [ 13.473418900259629, 52.525275034101774 ], [ 13.473539625296766, 52.525301250967424 ], [ 13.475416721801887, 52.525296473670998 ] ], [ [ 13.475421673177125, 52.524282802799391 ], [ 13.475416721801887, 52.525296473670998 ] ], [ [ 13.475488958596475, 52.526573546721615 ], [ 13.475422223921649, 52.526269718061343 ], [ 13.475413860643453, 52.526130416508643 ], [ 13.475416721801887, 52.525296473670998 ] ], [ [ 13.475488958596475, 52.526573546721615 ], [ 13.475264908095056, 52.526600219823671 ], [ 13.4742609023388, 52.526775966061166 ], [ 13.474140132013547, 52.526761432253437 ], [ 13.474084287963814, 52.526719123531137 ], [ 13.473895643562638, 52.526307299344658 ], [ 13.473871318467179, 52.526098780658742 ] ], [ [ 13.47570408189114, 52.52700247660151 ], [ 13.475488958596475, 52.526573546721615 ] ], [ [ 13.47570408189114, 52.52700247660151 ], [ 13.477602969967917, 52.526675077262183 ] ], [ [ 13.477602969967917, 52.526675077262183 ], [ 13.477756543152076, 52.52701136507693 ], [ 13.4778211669369, 52.52707255452966 ], [ 13.478409136710241, 52.528366447918266 ], [ 13.478837190807329, 52.52858355693968 ] ] ] } },
{ "type": "Feature", "properties": { "gisid": "4379510,4379520,4379530", "strnr": "43795", "strname": "Anton-Saefkow-Platz", "strabnr": "10,20,30", "strabtypname": "Strasse", "bez": "11", "bezname": "Lichtenberg", "ort": "1111", "ortname": "Fennpfuhl" }, "geometry": { "type": "MultiLineString", "coordinates": [ [ [ 13.469861337515784, 52.527995980622833 ], [ 13.472066923067608, 52.527630433944772 ] ], [ [ 13.472066923067608, 52.527630433944772 ], [ 13.47570408189114, 52.52700247660151 ] ], [ [ 13.471987144484212, 52.529790681896387 ], [ 13.472195147367486, 52.529302986980994 ], [ 13.470949455866908, 52.529048835492063 ] ] ] } },
{ "type": "Feature", "properties": { "gisid": "4379610,4379620,4379630,4379640", "strnr": "43796", "strname": "Franz-Jacob-Straße", "strabnr": "10,20,30,40", "strabtypname": "Strasse", "bez": "11", "bezname": "Lichtenberg", "ort": "1111", "ortname": "Fennpfuhl" }, "geometry": { "type": "MultiLineString", "coordinates": [ [ [ 13.464733540226629, 52.524423239641465 ], [ 13.465176166965295, 52.525459987077575 ] ], [ [ 13.465176166965295, 52.525459987077575 ], [ 13.465398985011474, 52.525770324519058 ], [ 13.465721709596394, 52.526159879038772 ], [ 13.465925364296199, 52.526474682732697 ], [ 13.466188748512936, 52.526977385110683 ] ], [ [ 13.466936207169969, 52.52848543062521 ], [ 13.466188748512936, 52.526977385110683 ] ], [ [ 13.466936207169969, 52.52848543062521 ], [ 13.467012287530737, 52.52863470895678 ], [ 13.467203203630053, 52.528811101663493 ], [ 13.467401574678037, 52.528963240319328 ], [ 13.467619279186453, 52.529066877178472 ], [ 13.467856220288519, 52.529148073041767 ], [ 13.46855262905609, 52.529303572700378 ], [ 13.468704140235038, 52.529376565607862 ], [ 13.468963792213538, 52.529700424713525 ], [ 13.469506894786313, 52.530289762077288 ], [ 13.469527217083819, 52.530376059557213 ], [ 13.469509316873481, 52.530437143831186 ], [ 13.469417226330332, 52.53064191364156 ], [ 13.468967831730309, 52.531454592429604 ] ] ] } },
{ "type": "Feature", "properties": { "gisid": "4379710,43797100,4379720,4379730,4379740,4379750,4379760,4379770,4379780,4379790", "strnr": "43797", "strname": "Rudolf-Seiffert-Straße", "strabnr": "10,100,20,30,40,50,60,70,80,90", "strabtypname": "Strasse", "bez": "11", "bezname": "Lichtenberg", "ort": "1111", "ortname": "Fennpfuhl" }, "geometry": { "type": "MultiLineString", "coordinates": [ [ [ 13.467055096058031, 52.524544114301435 ], [ 13.466825530642774, 52.524061230074643 ] ], [ [ 13.470501949758903, 52.523934032448992 ], [ 13.470182019119209, 52.52316526480022 ] ], [ [ 13.467055096058031, 52.524544114301435 ], [ 13.46825827116686, 52.527158104083718 ], [ 13.468383476154601, 52.527168156352879 ], [ 13.468780061180684, 52.527103983276483 ] ], [ [ 13.468780061180684, 52.527103983276483 ], [ 13.470540436246486, 52.526795383442057 ], [ 13.470681726059688, 52.526840502795672 ] ], [ [ 13.471800221065394, 52.527213112047363 ], [ 13.47075342601028, 52.527397759766245 ], [ 13.470130980081665, 52.527581161394991 ], [ 13.469069499146133, 52.527747801390618 ], [ 13.468780061180684, 52.527103983276483 ] ], [ [ 13.472066923067608, 52.527630433944772 ], [ 13.471992130814241, 52.527529687278523 ], [ 13.471800221065394, 52.527213112047363 ] ], [ [ 13.471182923274501, 52.525521045433941 ], [ 13.471158842761637, 52.52566479774439 ], [ 13.471162882361323, 52.525772641019039 ], [ 13.471800221065394, 52.527213112047363 ] ], [ [ 13.469260448776502, 52.525852803702712 ], [ 13.470094931269982, 52.525700240475082 ], [ 13.471182923274501, 52.525521045433941 ] ], [ [ 13.470501949758903, 52.523934032448992 ], [ 13.47062800964177, 52.524116625052812 ], [ 13.471179138123965, 52.525341310848901 ], [ 13.471194888909453, 52.525470736330163 ], [ 13.471182923274501, 52.525521045433941 ] ], [ [ 13.467055096058031, 52.524544114301435 ], [ 13.470501949758903, 52.523934032448992 ] ] ] } }
]
}
