{
"type": "FeatureCollection",
"name": "Uhrig_Lichtbrg_AGG",
"crs": { "type": "name", "properties": { "name": "urn:ogc:def:crs:EPSG::3857" } },
"features": [
{ "type": "Feature", "properties": { "gisid": "4335710", "strnr": "43357", "strname": "Tuchollaplatz", "strabnr": "10", "strabtypname": "Strasse", "bez": "11", "bezname": "Lichtenberg", "ort": "1112", "ortname": "Rummelsburg" }, "geometry": { "type": "MultiLineString", "coordinates": [ [ [ 1500543.90535053005442, 6891659.998984930105507 ], [ 1500643.333817420061678, 6891617.965376069769263 ], [ 1500654.665218550013378, 6891607.963504889979959 ] ] ] } },
{ "type": "Feature", "properties": { "gisid": "4380420,4380430,4380440,4380410", "strnr": "43804", "strname": "Franz-Mett-Straße", "strabnr": "20,30,40,10", "strabtypname": "Strasse", "bez": "11", "bezname": "Lichtenberg", "ort": "1101", "ortname": "Friedrichsfelde" }, "geometry": { "type": "MultiLineString", "coordinates": [ [ [ 1505137.387714539887384, 6891281.189092059619725 ], [ 1505148.464260339969769, 6891216.950739460065961 ] ], [ [ 1504722.233484969940037, 6891668.90346422046423 ], [ 1504745.851705570006743, 6891552.256797960028052 ], [ 1504755.049137729918584, 6891540.766969470307231 ], [ 1504839.586228400003165, 6891465.626761229708791 ], [ 1504897.699375439900905, 6891410.496210330165923 ], [ 1504928.400281819980592, 6891379.317947080358863 ], [ 1504968.635749839944765, 6891329.912628100253642 ], [ 1505019.399190109921619, 6891255.215387940406799 ], [ 1505037.4294330899138, 6891256.227959429845214 ], [ 1505137.387714539887384, 6891281.189092059619725 ] ], [ [ 1505148.464260339969769, 6891216.950739460065961 ], [ 1505179.573093950049952, 6891016.676298379898071 ] ], [ [ 1504654.4122042900417, 6892069.641545750200748 ], [ 1504655.743935639970005, 6892056.331267720088363 ], [ 1504659.297035269904882, 6891983.694148330017924 ], [ 1504667.10515451990068, 6891915.830219659954309 ], [ 1504692.028496149927378, 6891804.441370150074363 ], [ 1504722.233484969940037, 6891668.90346422046423 ] ] ] } },
{ "type": "Feature", "properties": { "gisid": "4380610,4380620,4380630,4380640", "strnr": "43806", "strname": "Erich-Kurz-Straße", "strabnr": "10,20,30,40", "strabtypname": "Strasse", "bez": "11", "bezname": "Lichtenberg", "ort": "1101", "ortname": "Friedrichsfelde" }, "geometry": { "type": "MultiLineString", "coordinates": [ [ [ 1504995.780828240094706, 6890930.791507530026138 ], [ 1505099.48091183998622, 6890972.190569479949772 ], [ 1505104.712624659994617, 6890981.564976080320776 ], [ 1505107.2998325699009, 6891005.889288749545813 ], [ 1505179.573093950049952, 6891016.676298379898071 ] ], [ [ 1504995.780828240094706, 6890930.791507530026138 ], [ 1505073.606873929966241, 6890731.414740329608321 ], [ 1505080.36590836988762, 6890705.13267770037055 ], [ 1505078.481981199933216, 6890648.602490180172026 ], [ 1505066.381697179982439, 6890628.701700610108674 ], [ 1504972.187866529915482, 6890590.768476249650121 ] ], [ [ 1504722.862053950084373, 6890926.603679300285876 ], [ 1504896.157633770024404, 6890904.186869679950178 ], [ 1504915.827091800048947, 6890904.709092839621007 ], [ 1504935.490152680082247, 6890909.503939299844205 ], [ 1504995.780828240094706, 6890930.791507530026138 ] ], [ [ 1505179.573093950049952, 6891016.676298379898071 ], [ 1505264.795460700057447, 6891027.974361689761281 ] ] ] } },
{ "type": "Feature", "properties": { "gisid": "4380710", "strnr": "43807", "strname": "Otto-Schmirgal-Straße", "strabnr": "10", "strabtypname": "Strasse", "bez": "11", "bezname": "Lichtenberg", "ort": "1101", "ortname": "Friedrichsfelde" }, "geometry": { "type": "MultiLineString", "coordinates": [ [ [ 1505041.420605269959196, 6890437.559703010134399 ], [ 1505071.060787280090153, 6890456.171335600316525 ], [ 1505114.794331219978631, 6890476.775382470339537 ], [ 1505431.460286560002714, 6890597.187144789844751 ] ] ] } },
{ "type": "Feature", "properties": { "gisid": "4338310,4338320,4338330,4338340,4338350", "strnr": "43383", "strname": "Robert-Uhrig-Straße", "strabnr": "10,20,30,40,50", "strabtypname": "Strasse", "bez": "11", "bezname": "Lichtenberg", "ort": "1101", "ortname": "Friedrichsfelde" }, "geometry": { "type": "MultiLineString", "coordinates": [ [ [ 1504153.049117459915578, 6892917.449002729728818 ], [ 1504146.948933420004323, 6892731.37723405007273 ] ], [ [ 1504139.978062370093539, 6892681.235228990204632 ], [ 1504132.074205979937688, 6892495.659129819832742 ], [ 1504130.361771760042757, 6892438.130767789669335 ], [ 1504133.663582149893045, 6892423.672600439749658 ], [ 1504130.017431519925594, 6892344.939852260053158 ] ], [ [ 1504090.96303441002965, 6892057.095285370014608 ], [ 1504115.691384430043399, 6892280.982744060456753 ], [ 1504130.017431519925594, 6892344.939852260053158 ] ], [ [ 1504090.96303441002965, 6892057.095285370014608 ], [ 1504071.101664280053228, 6891866.255104970186949 ], [ 1504067.415621160063893, 6891813.165600859560072 ] ], [ [ 1504146.948933420004323, 6892731.37723405007273 ], [ 1504139.978062370093539, 6892681.235228990204632 ] ] ] } },
{ "type": "Feature", "properties": { "gisid": "4380210,4380220,4380230,4380240", "strnr": "43802", "strname": "Paul-Gesche-Straße", "strabnr": "10,20,30,40", "strabtypname": "Strasse", "bez": "11", "bezname": "Lichtenberg", "ort": "1101", "ortname": "Friedrichsfelde" }, "geometry": { "type": "MultiLineString", "coordinates": [ [ [ 1504056.020489810034633, 6892689.319729969836771 ], [ 1504058.28795503010042, 6892706.910221460275352 ], [ 1504064.057447029976174, 6892790.416615880094469 ], [ 1504053.543975830078125, 6892803.055867340415716 ], [ 1503858.073148570023477, 6892824.108817639760673 ], [ 1503810.117944689933211, 6892873.176417860202491 ], [ 1503766.32799443998374, 6892881.159049680456519 ], [ 1503738.78437286010012, 6892880.292062129825354 ] ], [ [ 1504139.978062370093539, 6892681.235228990204632 ], [ 1504056.020489810034633, 6892689.319729969836771 ] ], [ [ 1503738.78437286010012, 6892880.292062129825354 ], [ 1503730.85347837000154, 6892817.162534330040216 ], [ 1503735.45562754990533, 6892810.266727199777961 ], [ 1503797.115780259948224, 6892802.642216299660504 ], [ 1503799.756240309914574, 6892792.127077279612422 ], [ 1503794.941126039950177, 6892728.345836940221488 ], [ 1503800.530095709953457, 6892719.479236179962754 ], [ 1503865.637210350017995, 6892709.065799660049379 ], [ 1504056.020489810034633, 6892689.319729969836771 ] ], [ [ 1503749.476178090088069, 6892959.699278510175645 ], [ 1503738.78437286010012, 6892880.292062129825354 ] ] ] } },
{ "type": "Feature", "properties": { "gisid": "4380510", "strnr": "43805", "strname": "Elfriede-Tygör-Straße", "strabnr": "10", "strabtypname": "Strasse", "bez": "11", "bezname": "Lichtenberg", "ort": "1101", "ortname": "Friedrichsfelde" }, "geometry": { "type": "MultiLineString", "coordinates": [ [ [ 1504722.233484969940037, 6891668.90346422046423 ], [ 1504756.815227949991822, 6891674.378922579810023 ], [ 1504843.671337180072442, 6891693.737714130431414 ], [ 1505042.301716150017455, 6891733.310974130406976 ], [ 1505025.286083830054849, 6891821.867635410279036 ] ] ] } },
{ "type": "Feature", "properties": { "gisid": "4086410,4086420,4086430", "strnr": "40864", "strname": "Rudolf-Grosse-Straße", "strabnr": "10,20,30", "strabtypname": "Strasse", "bez": "11", "bezname": "Lichtenberg", "ort": "1102", "ortname": "Karlshorst" }, "geometry": { "type": "MultiLineString", "coordinates": [ [ [ 1506339.862340799998492, 6889221.855624089948833 ], [ 1506311.477500460110605, 6888873.029266879893839 ], [ 1506307.563204159960151, 6888858.731110010296106 ] ], [ [ 1506363.076983259990811, 6889515.813950910232961 ], [ 1506339.862340799998492, 6889221.855624089948833 ] ], [ [ 1506378.574865899980068, 6889696.073595919646323 ], [ 1506363.076983259990811, 6889515.813950910232961 ] ] ] } },
{ "type": "Feature", "properties": { "gisid": "4213310,4213320", "strnr": "42133", "strname": "Johannes-Zoschke-Straße", "strabnr": "10,20", "strabtypname": "Strasse", "bez": "11", "bezname": "Lichtenberg", "ort": "1102", "ortname": "Karlshorst" }, "geometry": { "type": "MultiLineString", "coordinates": [ [ [ 1506158.302284850040451, 6888958.420372890308499 ], [ 1506182.35257907002233, 6889234.626805099658668 ] ], [ [ 1506182.35257907002233, 6889234.626805099658668 ], [ 1506194.759008439956233, 6889394.66779395006597 ] ] ] } }
]
}
