{
"type": "FeatureCollection",
"name": "Uhrig_Lichtbrg_AGG_wgs84",
"crs": { "type": "name", "properties": { "name": "urn:ogc:def:crs:OGC:1.3:CRS84" } },
"features": [
{ "type": "Feature", "properties": { "gisid": "4335710", "strnr": "43357", "strname": "Tuchollaplatz", "strabnr": "10", "strabtypname": "Strasse", "bez": "11", "bezname": "Lichtenberg", "ort": "1112", "ortname": "Rummelsburg" }, "geometry": { "type": "MultiLineString", "coordinates": [ [ [ 13.479615246687777, 52.50338096728602 ], [ 13.480508427802615, 52.503151119496941 ], [ 13.48061021951087, 52.503096427180971 ] ] ] } },
{ "type": "Feature", "properties": { "gisid": "4380420,4380430,4380440,4380410", "strnr": "43804", "strname": "Franz-Mett-Straße", "strabnr": "20,30,40,10", "strabtypname": "Strasse", "bez": "11", "bezname": "Lichtenberg", "ort": "1101", "ortname": "Friedrichsfelde" }, "geometry": { "type": "MultiLineString", "coordinates": [ [ [ 13.52087920083701, 52.501309519164465 ], [ 13.520978703140885, 52.500958234564862 ] ], [ [ 13.517149806940116, 52.503429658522599 ], [ 13.517361973025602, 52.502791810053424 ], [ 13.517444594964442, 52.502728980757425 ], [ 13.518204004570682, 52.502318092829462 ], [ 13.518726043852624, 52.502016620929219 ], [ 13.519001834787, 52.501846127063835 ], [ 13.51936327614586, 52.501575959801698 ], [ 13.519819291888551, 52.501167483446423 ], [ 13.519981260317003, 52.501173020644394 ], [ 13.52087920083701, 52.501309519164465 ] ], [ [ 13.520978703140885, 52.500958234564862 ], [ 13.521258158547917, 52.499863024594546 ] ], [ [ 13.516540558009883, 52.505620908000942 ], [ 13.516552521156143, 52.505548128701136 ], [ 13.516584439193178, 52.505150953906018 ], [ 13.516654580721804, 52.504779875348142 ], [ 13.51687847090898, 52.504170796633062 ], [ 13.517149806940116, 52.503429658522599 ] ] ] } },
{ "type": "Feature", "properties": { "gisid": "4380610,4380620,4380630,4380640", "strnr": "43806", "strname": "Erich-Kurz-Straße", "strabnr": "10,20,30,40", "strabtypname": "Strasse", "bez": "11", "bezname": "Lichtenberg", "ort": "1101", "ortname": "Friedrichsfelde" }, "geometry": { "type": "MultiLineString", "coordinates": [ [ [ 13.519607124534014, 52.499393351316321 ], [ 13.520538678234637, 52.499619748641685 ], [ 13.520585675510521, 52.499671013906628 ], [ 13.520608916794608, 52.499804034563105 ], [ 13.521258158547917, 52.499863024594546 ] ], [ [ 13.519607124534014, 52.499393351316321 ], [ 13.520306247797473, 52.49830301156868 ], [ 13.520366965236907, 52.498159279778321 ], [ 13.520350041631195, 52.497850124936747 ], [ 13.520241342930424, 52.497741290082992 ], [ 13.519395185352996, 52.49753383742086 ] ], [ [ 13.517155453471336, 52.499370449449628 ], [ 13.518712194151561, 52.499247859026369 ], [ 13.518888887899349, 52.499250714903113 ], [ 13.519065524180562, 52.499276936424955 ], [ 13.519607124534014, 52.499393351316321 ] ], [ [ 13.521258158547917, 52.499863024594546 ], [ 13.522023724093922, 52.499924809298314 ] ] ] } },
{ "type": "Feature", "properties": { "gisid": "4380710", "strnr": "43807", "strname": "Otto-Schmirgal-Straße", "strabnr": "10", "strabtypname": "Strasse", "bez": "11", "bezname": "Lichtenberg", "ort": "1101", "ortname": "Friedrichsfelde" }, "geometry": { "type": "MultiLineString", "coordinates": [ [ [ 13.520017113626711, 52.496695945408526 ], [ 13.520283375911951, 52.496797732456955 ], [ 13.52067624102145, 52.496910415747443 ], [ 13.523520899697871, 52.497568940487064 ] ] ] } },
{ "type": "Feature", "properties": { "gisid": "4338310,4338320,4338330,4338340,4338350", "strnr": "43383", "strname": "Robert-Uhrig-Straße", "strabnr": "10,20,30,40,50", "strabtypname": "Strasse", "bez": "11", "bezname": "Lichtenberg", "ort": "1101", "ortname": "Friedrichsfelde" }, "geometry": { "type": "MultiLineString", "coordinates": [ [ [ 13.512036736771956, 52.510256388057655 ], [ 13.511981937886365, 52.50923906217286 ] ], [ [ 13.511919317486287, 52.508964912528789 ], [ 13.511848315936298, 52.507950266875717 ], [ 13.511832932877972, 52.507635723217568 ], [ 13.511862593545356, 52.507556670989239 ], [ 13.511829839616965, 52.507126185222042 ] ], [ [ 13.511479007998606, 52.505552306278261 ], [ 13.511701146546347, 52.506776484877712 ], [ 13.511829839616965, 52.507126185222042 ] ], [ [ 13.511479007998606, 52.505552306278261 ], [ 13.511300590275093, 52.504508797666681 ], [ 13.511267477986367, 52.504218501382546 ] ], [ [ 13.511981937886365, 52.50923906217286 ], [ 13.511919317486287, 52.508964912528789 ] ] ] } },
{ "type": "Feature", "properties": { "gisid": "4380210,4380220,4380230,4380240", "strnr": "43802", "strname": "Paul-Gesche-Straße", "strabnr": "10,20,30,40", "strabtypname": "Strasse", "bez": "11", "bezname": "Lichtenberg", "ort": "1101", "ortname": "Friedrichsfelde" }, "geometry": { "type": "MultiLineString", "coordinates": [ [ [ 13.511165113779803, 52.509009114368368 ], [ 13.511185482766438, 52.509105289858155 ], [ 13.511237310994888, 52.509561855718445 ], [ 13.511142866876208, 52.509630959602596 ], [ 13.509386922558937, 52.509746064329661 ], [ 13.508956133632951, 52.510014334952871 ], [ 13.508562761816947, 52.510057978783102 ], [ 13.508315333254496, 52.51005323866211 ] ], [ [ 13.511919317486287, 52.508964912528789 ], [ 13.511165113779803, 52.509009114368368 ] ], [ [ 13.508315333254496, 52.51005323866211 ], [ 13.508244088817124, 52.50970808631083 ], [ 13.508285430626604, 52.509670384232344 ], [ 13.50883933320261, 52.509628698007283 ], [ 13.508863052858811, 52.509571207506966 ], [ 13.508819797951375, 52.509222488164653 ], [ 13.508870004520146, 52.509174010443914 ], [ 13.509454871682008, 52.509117075403459 ], [ 13.511165113779803, 52.509009114368368 ] ], [ [ 13.508411379375024, 52.510487383275603 ], [ 13.508315333254496, 52.51005323866211 ] ] ] } },
{ "type": "Feature", "properties": { "gisid": "4380510", "strnr": "43805", "strname": "Elfriede-Tygör-Straße", "strabnr": "10", "strabtypname": "Strasse", "bez": "11", "bezname": "Lichtenberg", "ort": "1101", "ortname": "Friedrichsfelde" }, "geometry": { "type": "MultiLineString", "coordinates": [ [ [ 13.517149806940116, 52.503429658522599 ], [ 13.517460460022821, 52.50345959925145 ], [ 13.518240701727226, 52.503565456221828 ], [ 13.520025028780417, 52.503781848347643 ], [ 13.519872174754598, 52.504266084710196 ] ] ] } },
{ "type": "Feature", "properties": { "gisid": "4086410,4086420,4086430", "strnr": "40864", "strname": "Rudolf-Grosse-Straße", "strabnr": "10,20,30", "strabtypname": "Strasse", "bez": "11", "bezname": "Lichtenberg", "ort": "1102", "ortname": "Karlshorst" }, "geometry": { "type": "MultiLineString", "coordinates": [ [ [ 13.531681214192364, 52.490046747473173 ], [ 13.531426228833219, 52.488138683492458 ], [ 13.531391066111288, 52.488060471472089 ] ], [ [ 13.531889754873736, 52.491654621604368 ], [ 13.531681214192364, 52.490046747473173 ] ], [ [ 13.532028974722207, 52.492640565007306 ], [ 13.531889754873736, 52.491654621604368 ] ] ] } },
{ "type": "Feature", "properties": { "gisid": "4213310,4213320", "strnr": "42133", "strname": "Johannes-Zoschke-Straße", "strabnr": "10,20", "strabtypname": "Strasse", "bez": "11", "bezname": "Lichtenberg", "ort": "1102", "ortname": "Karlshorst" }, "geometry": { "type": "MultiLineString", "coordinates": [ [ [ 13.53005023245991, 52.488605776529873 ], [ 13.530266279928766, 52.490116603669648 ] ], [ [ 13.530266279928766, 52.490116603669648 ], [ 13.530377728780008, 52.490991991357738 ] ] ] } }
]
}
