{
"type": "FeatureCollection",
"name": "Wid_NS_Reinickdrf_AGG",
"crs": {
"type": "name",
"properties": {
"name": "urn:ogc:def:crs:EPSG::3857"
}
},
"features": [
{
"type": "Feature",
"properties": {
"gisid": "0010710,0010720,0010730,0010740,0010750,0010760,0010770,0010780,0010790",
"strnr": "00107",
"strname": "Alt-Tegel",
"strabnr": "10,20,30,40,50,60,70,80,90",
"strabtypname": "Strasse",
"bez": "12",
"bezname": "Reinickendorf",
"ort": "1202",
"ortname": "Tegel"
},
"geometry": {
"type": "MultiLineString",
"coordinates": [
[
[
1477697.87422032,
6907186.14384355
],
[
1477712.65177151,
6907187.20409234
],
[
1477777.36307974,
6907188.01455077
]
],
[
[
1477890.61407428,
6907171.2778752
],
[
1477868.84296842,
6907189.77829891
],
[
1477777.36307974,
6907188.01455077
]
],
[
[
1477890.61407428,
6907171.2778752
],
[
1477887.68631489,
6907165.33590616
],
[
1477907.5511077,
6907065.65006343
]
],
[
[
1477907.5511077,
6907065.65006343
],
[
1477934.61015353,
6907074.34392457
],
[
1478025.74874603,
6907112.49341708
],
[
1478053.08723465,
6907131.39714607
]
],
[
[
1478053.08723465,
6907131.39714607
],
[
1478096.76977784,
6907167.17520902
],
[
1478120.28415575,
6907195.77508089
],
[
1478137.87215869,
6907227.14550759
]
],
[
[
1478137.87215869,
6907227.14550759
],
[
1478005.00728582,
6907189.94676626
],
[
1477890.61407428,
6907171.2778752
]
],
[
[
1478254.22640016,
6907282.3752924
],
[
1478137.87215869,
6907227.14550759
]
],
[
[
1478254.22640016,
6907282.3752924
],
[
1478492.50138473,
6907397.63266563
]
],
[
[
1478492.50138473,
6907397.63266563
],
[
1478686.12240716,
6907509.21356605
]
]
]
}
},
{
"type": "Feature",
"properties": {
"gisid": "0060910,0060920",
"strnr": "00609",
"strname": "Blesener Zeile",
"strabnr": "10,20",
"strabtypname": "Strasse",
"bez": "12",
"bezname": "Reinickendorf",
"ort": "1202",
"ortname": "Tegel"
},
"geometry": {
"type": "MultiLineString",
"coordinates": [
[
[
1480668.33198737,
6907960.56763398
],
[
1480692.97744768,
6907959.3617279
],
[
1480926.07003834,
6907996.80554766
],
[
1480952.16162745,
6908002.85109608
]
],
[
[
1480952.16162745,
6908002.85109608
],
[
1480966.13228562,
6908001.10227601
],
[
1481052.14328754,
6908015.81469937
],
[
1481101.71635162,
6908023.940887
]
]
]
}
},
{
"type": "Feature",
"properties": {
"gisid": "0150710,0150720,0150730,0150740,0150750,0150760",
"strnr": "01507",
"strname": "General-Barby-Straße",
"strabnr": "10,20,30,40,50,60",
"strabtypname": "Strasse",
"bez": "12",
"bezname": "Reinickendorf",
"ort": "1201",
"ortname": "Reinickendorf"
},
"geometry": {
"type": "MultiLineString",
"coordinates": [
[
[
1482465.10664172,
6903659.28300078
],
[
1482380.53510134,
6903281.03573628
]
],
[
[
1482541.8373623,
6903991.59137395
],
[
1482465.10664172,
6903659.28300078
]
],
[
[
1482631.97780094,
6904376.64260874
],
[
1482548.31886335,
6904011.69979731
],
[
1482541.8373623,
6903991.59137395
]
],
[
[
1482631.97780094,
6904376.64260874
],
[
1482630.37455763,
6904598.85103426
]
],
[
[
1482630.37455763,
6904598.85103426
],
[
1482638.93854305,
6904708.51603975
],
[
1482653.27948637,
6904965.53524067
]
],
[
[
1482653.27948637,
6904965.53524067
],
[
1482668.18325875,
6905206.26763665
]
]
]
}
},
{
"type": "Feature",
"properties": {
"gisid": "0150910,0150920,0150930,0150940,0150950,0150960",
"strnr": "01509",
"strname": "General-Woyna-Straße",
"strabnr": "10,20,30,40,50,60",
"strabtypname": "Strasse",
"bez": "12",
"bezname": "Reinickendorf",
"ort": "1201",
"ortname": "Reinickendorf"
},
"geometry": {
"type": "MultiLineString",
"coordinates": [
[
[
1482184.67760953,
6903357.21275859
],
[
1482161.86129327,
6903242.23711156
]
],
[
[
1482184.67760953,
6903357.21275859
],
[
1482263.76860899,
6903709.93053265
]
],
[
[
1482263.76860899,
6903709.93053265
],
[
1482340.02643493,
6904035.82194565
]
],
[
[
1482340.02643493,
6904035.82194565
],
[
1482360.57760712,
6904105.86355789
],
[
1482423.91556249,
6904383.156649
],
[
1482433.36185829,
6904401.13890415
]
],
[
[
1482433.36185829,
6904401.13890415
],
[
1482445.47536156,
6904409.75030667
],
[
1482461.87845992,
6904413.60672771
],
[
1482631.97780094,
6904376.64260874
]
],
[
[
1482433.36185829,
6904401.13890415
],
[
1482425.59547946,
6904412.62759276
],
[
1482418.96437662,
6904427.41320817
],
[
1482411.79619202,
6904452.56670787
],
[
1482412.87498621,
6904469.03158966
],
[
1482427.33423614,
6904543.33046461
],
[
1482444.54781995,
6904626.36590798
],
[
1482438.23215921,
6904644.11618367
]
]
]
}
},
{
"type": "Feature",
"properties": {
"gisid": "0165710,0165720",
"strnr": "01657",
"strname": "Graf-Haeseler-Straße",
"strabnr": "10,20",
"strabtypname": "Strasse",
"bez": "12",
"bezname": "Reinickendorf",
"ort": "1201",
"ortname": "Reinickendorf"
},
"geometry": {
"type": "MultiLineString",
"coordinates": [
[
[
1482092.18847207,
6903750.49845532
],
[
1482016.10606597,
6903424.94604437
]
],
[
[
1482092.18847207,
6903750.49845532
],
[
1482165.8269142,
6904073.08961918
]
]
]
}
},
{
"type": "Feature",
"properties": {
"gisid": "0185910,0185920,0185930,0185940",
"strnr": "01859",
"strname": "Hatzfeldtallee",
"strabnr": "10,20,30,40",
"strabtypname": "Strasse",
"bez": "12",
"bezname": "Reinickendorf",
"ort": "1202",
"ortname": "Tegel"
},
"geometry": {
"type": "MultiLineString",
"coordinates": [
[
[
1479249.0481807254,
6907892.760723378
],
[
1479403.0030364925,
6907919.996650089
]
],
[
[
1479403.0030364925,
6907919.996650089
],
[
1479615.3939457568,
6907956.721226632
]
],
[
[
1479615.3939457568,
6907956.721226632
],
[
1479940.0616934348,
6908011.911942019
]
],
[
[
1480218.237968978,
6908104.914964649
],
[
1480200.5470755014,
6908093.800797551
],
[
1480049.531054291,
6908069.063813756
],
[
1479988.4678608116,
6908059.232446069
],
[
1479970.4285373285,
6908052.727074257
],
[
1479956.5191669539,
6908041.134697999
],
[
1479940.0616934348,
6908011.911942019
]
]
]
}
},
{
"type": "Feature",
"properties": {
"gisid": "0384510",
"strnr": "03845",
"strname": "Saalmannstraße",
"strabnr": "10",
"strabtypname": "Strasse",
"bez": "12",
"bezname": "Reinickendorf",
"ort": "1201",
"ortname": "Reinickendorf"
},
"geometry": {
"type": "MultiLineString",
"coordinates": [
[
[
1483809.99319047,
6904874.75858275
],
[
1483836.2819392,
6905270.43878791
]
]
]
}
},
{
"type": "Feature",
"properties": {
"gisid": "0449910,04499100,04499110,0449920,0449930,0449940,0449950,0449960,0449970,0449980,0449990",
"strnr": "04499",
"strname": "Tile-Brügge-Weg",
"strabnr": "10,100,110,20,30,40,50,60,70,80,90",
"strabtypname": "Verwaltungsweg",
"bez": "12",
"bezname": "Reinickendorf",
"ort": "1202",
"ortname": "Tegel"
},
"geometry": {
"type": "MultiLineString",
"coordinates": [
[
[
1479289.74935916,
6907724.98707211
],
[
1479324.71119672,
6907730.58530035
]
],
[
[
1480821.36973382,
6908193.61806506
],
[
1480783.36341027,
6908133.66822617
]
],
[
[
1479324.71119672,
6907730.58530035
],
[
1479431.56194955,
6907748.70579504
]
],
[
[
1479431.56194955,
6907748.70579504
],
[
1479645.59592466,
6907784.4499787
]
],
[
[
1479645.59592466,
6907784.4499787
],
[
1479968.94207645,
6907839.79549694
]
],
[
[
1480257.83416296,
6907886.90183638
],
[
1479968.94207645,
6907839.79549694
]
],
[
[
1480278.50287027,
6907893.25396414
],
[
1480257.83416296,
6907886.90183638
]
],
[
[
1480507.63426165,
6907933.9851043
],
[
1480278.50287027,
6907893.25396414
]
],
[
[
1480633.20247286,
6907955.30365774
],
[
1480507.63426165,
6907933.9851043
]
],
[
[
1480668.33198737,
6907960.56763398
],
[
1480633.20247286,
6907955.30365774
]
],
[
[
1480783.36341027,
6908133.66822617
],
[
1480690.08864253,
6907980.75643039
],
[
1480668.33198737,
6907960.56763398
]
]
]
}
},
{
"type": "Feature",
"properties": {
"gisid": "0501110,0501120,0501130,0501140,0501150,0501160,0501170,0501180,0501190",
"strnr": "05011",
"strname": "Ziekowstraße",
"strabnr": "10,20,30,40,50,60,70,80,90",
"strabtypname": "Strasse",
"bez": "12",
"bezname": "Reinickendorf",
"ort": "1202",
"ortname": "Tegel"
},
"geometry": {
"type": "MultiLineString",
"coordinates": [
[
[
1479619.51710816,
6908449.46282742
],
[
1479619.72412534,
6908582.03614672
],
[
1479616.30814437,
6908610.18173617
]
],
[
[
1479619.51710816,
6908449.46282742
],
[
1479614.46777236,
6908333.83139744
]
],
[
[
1479615.39428218,
6907956.72198985
],
[
1479608.60247225,
6908039.85142196
],
[
1479614.46777236,
6908333.83139744
]
],
[
[
1479645.59592466,
6907784.4499787
],
[
1479615.39428218,
6907956.72198985
]
],
[
[
1479675.26091715,
6907621.40038766
],
[
1479670.25238322,
6907638.83195302
],
[
1479645.59592466,
6907784.4499787
]
],
[
[
1479717.3121162,
6907443.5918915
],
[
1479698.08725821,
6907516.11976423
],
[
1479675.26091715,
6907621.40038766
]
],
[
[
1479717.3121162,
6907443.5918915
],
[
1479737.26829728,
6907390.49818881
],
[
1479762.17908698,
6907331.4998768
],
[
1479804.12868582,
6907246.23522749
],
[
1479845.17351569,
6907178.91476802
]
],
[
[
1479845.17351569,
6907178.91476802
],
[
1479892.47869089,
6907107.34269519
],
[
1479968.81954023,
6907007.74866388
]
],
[
[
1480017.71309062,
6906947.54578354
],
[
1479968.81954023,
6907007.74866388
]
]
]
}
}
]
}
