{
"type": "FeatureCollection",
"name": "Wid_NS_Lichtbrg_AGG_wgs84",
"crs": { "type": "name", "properties": { "name": "urn:ogc:def:crs:OGC:1.3:CRS84" } },
"features": [
{ "type": "Feature", "properties": { "gisid": "4375010", "strnr": "43750", "strname": "Harnackstraße", "strabnr": "10", "strabtypname": "Strasse", "bez": "11", "bezname": "Lichtenberg", "ort": "1103", "ortname": "Lichtenberg" }, "geometry": { "type": "MultiLineString", "coordinates": [ [ [ 13.488317441063593, 52.510781970071783 ], [ 13.48623469907791, 52.511269282896158 ], [ 13.486087440081457, 52.511259222449205 ], [ 13.48516056592182, 52.5109301109309 ], [ 13.485066494292267, 52.510869788988117 ], [ 13.48448288757859, 52.510062100264015 ], [ 13.484465462311045, 52.509984795516573 ], [ 13.484639353392582, 52.509497935291904 ], [ 13.484627822070699, 52.509419738615762 ], [ 13.48403105989647, 52.508589565900024 ] ] ] } },
{ "type": "Feature", "properties": { "gisid": "4375210", "strnr": "43752", "strname": "Albert-Hößler-Straße", "strabnr": "10", "strabtypname": "Strasse", "bez": "11", "bezname": "Lichtenberg", "ort": "1103", "ortname": "Lichtenberg" }, "geometry": { "type": "MultiLineString", "coordinates": [ [ [ 13.486578178304841, 52.5079294021252 ], [ 13.486720483011924, 52.508104807710751 ], [ 13.488206321491344, 52.510520332374199 ], [ 13.488317441063593, 52.510781970071783 ] ] ] } },
{ "type": "Feature", "properties": { "gisid": "4375310,4375320,4375330", "strnr": "43753", "strname": "Coppistraße", "strabnr": "10,20,30", "strabtypname": "Strasse", "bez": "11", "bezname": "Lichtenberg", "ort": "1103", "ortname": "Lichtenberg" }, "geometry": { "type": "MultiLineString", "coordinates": [ [ [ 13.48403105989647, 52.508589565900024 ], [ 13.483263074911441, 52.508789037580932 ], [ 13.48315558254488, 52.508781718351159 ], [ 13.48309239508364, 52.508737607659896 ], [ 13.481279112488096, 52.506575934459534 ] ], [ [ 13.48403105989647, 52.508589565900024 ], [ 13.486299636782693, 52.507987484814443 ], [ 13.486578178304841, 52.5079294021252 ] ], [ [ 13.486578178304841, 52.5079294021252 ], [ 13.486968657510326, 52.507869653760949 ], [ 13.487684767501234, 52.507763557066745 ], [ 13.488075300736163, 52.507685831866752 ] ] ] } },
{ "type": "Feature", "properties": { "gisid": "4375410,4375420,4375430", "strnr": "43754", "strname": "John-Sieg-Straße", "strabnr": "10,20,30", "strabtypname": "Strasse", "bez": "11", "bezname": "Lichtenberg", "ort": "1103", "ortname": "Lichtenberg" }, "geometry": { "type": "MultiLineString", "coordinates": [ [ [ 13.478524740317104, 52.511939268359562 ], [ 13.47911020191458, 52.51260769690245 ] ], [ [ 13.478524740317104, 52.511939268359562 ], [ 13.478109349537103, 52.511509191719078 ] ], [ [ 13.478109349537103, 52.511509191719078 ], [ 13.479075200930636, 52.511182392169715 ], [ 13.47949371869395, 52.510676972003893 ], [ 13.479574912887665, 52.510621356814795 ], [ 13.480527412079356, 52.510314298888638 ], [ 13.481297036260885, 52.510076205479258 ] ] ] } },
{ "type": "Feature", "properties": { "gisid": "4375510,4375520,4375530,4375540", "strnr": "43755", "strname": "Wilhelm-Guddorf-Straße", "strabnr": "10,20,30,40", "strabtypname": "Strasse", "bez": "11", "bezname": "Lichtenberg", "ort": "1103", "ortname": "Lichtenberg" }, "geometry": { "type": "MultiLineString", "coordinates": [ [ [ 13.476099516268862, 52.512601210416371 ], [ 13.476614147868608, 52.5124329174268 ] ], [ [ 13.477912959317887, 52.509908446763056 ], [ 13.477177650219483, 52.510881659225255 ], [ 13.477167187712405, 52.510926578455681 ], [ 13.477308405427452, 52.511414725142416 ], [ 13.477280103181929, 52.511508148693771 ], [ 13.476861348868487, 52.512073769889085 ] ], [ [ 13.480033528053225, 52.508683534326636 ], [ 13.478542907360319, 52.509160660316745 ], [ 13.478414465975902, 52.509251263480422 ], [ 13.477912959317887, 52.509908446763056 ] ], [ [ 13.476614147868608, 52.5124329174268 ], [ 13.476861348868487, 52.512073769889085 ] ] ] } },
{ "type": "Feature", "properties": { "gisid": "4875110,4875120,4875130,4875140,4875150", "strnr": "48751", "strname": "Schulze-Boysen-Straße", "strabnr": "10,20,30,40,50", "strabtypname": "Strasse", "bez": "11", "bezname": "Lichtenberg", "ort": "1103", "ortname": "Lichtenberg" }, "geometry": { "type": "MultiLineString", "coordinates": [ [ [ 13.4843475714262, 52.512743513454012 ], [ 13.484026538865548, 52.511354711413397 ], [ 13.482616400793038, 52.511528241337167 ] ], [ [ 13.481297036260885, 52.510076205479258 ], [ 13.480033528053225, 52.508683534326636 ] ], [ [ 13.478812726112867, 52.50731606482745 ], [ 13.480033528053225, 52.508683534326636 ] ], [ [ 13.478520710940156, 52.506998475645943 ], [ 13.478812726112867, 52.50731606482745 ] ], [ [ 13.482616400793038, 52.511528241337167 ], [ 13.481297036260885, 52.510076205479258 ] ] ] } },
{ "type": "Feature", "properties": { "gisid": "4209610", "strnr": "42096", "strname": "Nöldnerplatz", "strabnr": "10", "strabtypname": "fiktive Strasse Kreuzung1=Kreuzung2", "bez": "11", "bezname": "Lichtenberg", "ort": "1112", "ortname": "Rummelsburg" }, "geometry": { "type": "MultiLineString", "coordinates": [ [ [ 13.486778111665847, 52.502469427572002 ], [ 13.486748716789384, 52.502451420262055 ], [ 13.486778055728026, 52.502487400761311 ], [ 13.486807621332275, 52.502451489432282 ], [ 13.486778111665847, 52.502469427572002 ] ] ] } },
{ "type": "Feature", "properties": { "gisid": "4209710,4209720", "strnr": "42097", "strname": "Nöldnerstraße", "strabnr": "10,20", "strabtypname": "Strasse", "bez": "11", "bezname": "Lichtenberg", "ort": "1112", "ortname": "Rummelsburg" }, "geometry": { "type": "MultiLineString", "coordinates": [ [ [ 13.475415681778175, 52.501973777809411 ], [ 13.47605074374348, 52.501864053244077 ], [ 13.477051206241436, 52.501694577328671 ], [ 13.477247032262239, 52.501702912379393 ], [ 13.48142814016844, 52.502016354385297 ] ], [ [ 13.48142814016844, 52.502016354385297 ], [ 13.486535406019359, 52.502382870482911 ], [ 13.486778111665847, 52.502469427572002 ] ] ] } },
{ "type": "Feature", "properties": { "gisid": "4335710", "strnr": "43357", "strname": "Tuchollaplatz", "strabnr": "10", "strabtypname": "Strasse", "bez": "11", "bezname": "Lichtenberg", "ort": "1112", "ortname": "Rummelsburg" }, "geometry": { "type": "MultiLineString", "coordinates": [ [ [ 13.479615246687777, 52.50338096728602 ], [ 13.480508427802615, 52.503151119496941 ], [ 13.48061021951087, 52.503096427180971 ] ] ] } },
{ "type": "Feature", "properties": { "gisid": "4020840,4020810,4020820,4020830", "strnr": "40208", "strname": "Archenholdstraße", "strabnr": "40,10,20,30", "strabtypname": "Strasse", "bez": "11", "bezname": "Lichtenberg", "ort": "1101", "ortname": "Friedrichsfelde" }, "geometry": { "type": "MultiLineString", "coordinates": [ [ [ 13.500306311892409, 52.502702106810638 ], [ 13.499458527772866, 52.501525764540006 ], [ 13.499435239955687, 52.50143048300918 ], [ 13.499506244058056, 52.501319125676062 ] ], [ [ 13.503197633178702, 52.506712236240837 ], [ 13.504996294193797, 52.509228519100603 ] ], [ [ 13.501811280209063, 52.504802949587123 ], [ 13.503197633178702, 52.506712236240837 ] ], [ [ 13.500306311892409, 52.502702106810638 ], [ 13.501811280209063, 52.504802949587123 ] ] ] } },
{ "type": "Feature", "properties": { "gisid": "4274510,4274520", "strnr": "42745", "strname": "Splanemannstraße", "strabnr": "10,20", "strabtypname": "Strasse", "bez": "11", "bezname": "Lichtenberg", "ort": "1101", "ortname": "Friedrichsfelde" }, "geometry": { "type": "MultiLineString", "coordinates": [ [ [ 13.519724693350462, 52.494023960245201 ], [ 13.519873474198919, 52.493992641452337 ], [ 13.520972302032646, 52.493795917750056 ], [ 13.521063545415791, 52.493813073146278 ], [ 13.521095808117446, 52.493867021307729 ], [ 13.521217357607689, 52.494140322564569 ], [ 13.521290582011266, 52.49430394387737 ], [ 13.521346990097985, 52.494728162405991 ], [ 13.521286538876982, 52.494764055842268 ] ], [ [ 13.521286538876982, 52.494764055842268 ], [ 13.521243705352807, 52.494820632913978 ], [ 13.521168328094518, 52.494940088835833 ], [ 13.521048770546464, 52.495063997693549 ] ] ] } },
{ "type": "Feature", "properties": { "gisid": "4380420,4380430,4380440,4380410", "strnr": "43804", "strname": "Franz-Mett-Straße", "strabnr": "20,30,40,10", "strabtypname": "Strasse", "bez": "11", "bezname": "Lichtenberg", "ort": "1101", "ortname": "Friedrichsfelde" }, "geometry": { "type": "MultiLineString", "coordinates": [ [ [ 13.52087920083701, 52.501309519164465 ], [ 13.520978703140885, 52.500958234564862 ] ], [ [ 13.517149806940116, 52.503429658522599 ], [ 13.517361973025602, 52.502791810053424 ], [ 13.517444594964442, 52.502728980757425 ], [ 13.518204004570682, 52.502318092829462 ], [ 13.518726043852624, 52.502016620929219 ], [ 13.519001834787, 52.501846127063835 ], [ 13.51936327614586, 52.501575959801698 ], [ 13.519819291888551, 52.501167483446423 ], [ 13.519981260317003, 52.501173020644394 ], [ 13.52087920083701, 52.501309519164465 ] ], [ [ 13.520978703140885, 52.500958234564862 ], [ 13.521258158547917, 52.499863024594546 ] ], [ [ 13.516540558009883, 52.505620908000942 ], [ 13.516552521156143, 52.505548128701136 ], [ 13.516584439193178, 52.505150953906018 ], [ 13.516654580721804, 52.504779875348142 ], [ 13.51687847090898, 52.504170796633062 ], [ 13.517149806940116, 52.503429658522599 ] ] ] } },
{ "type": "Feature", "properties": { "gisid": "4380610,4380620,4380630,4380640", "strnr": "43806", "strname": "Erich-Kurz-Straße", "strabnr": "10,20,30,40", "strabtypname": "Strasse", "bez": "11", "bezname": "Lichtenberg", "ort": "1101", "ortname": "Friedrichsfelde" }, "geometry": { "type": "MultiLineString", "coordinates": [ [ [ 13.519607124534014, 52.499393351316321 ], [ 13.520538678234637, 52.499619748641685 ], [ 13.520585675510521, 52.499671013906628 ], [ 13.520608916794608, 52.499804034563105 ], [ 13.521258158547917, 52.499863024594546 ] ], [ [ 13.519607124534014, 52.499393351316321 ], [ 13.520306247797473, 52.49830301156868 ], [ 13.520366965236907, 52.498159279778321 ], [ 13.520350041631195, 52.497850124936747 ], [ 13.520241342930424, 52.497741290082992 ], [ 13.519395185352996, 52.49753383742086 ] ], [ [ 13.517155453471336, 52.499370449449628 ], [ 13.518712194151561, 52.499247859026369 ], [ 13.518888887899349, 52.499250714903113 ], [ 13.519065524180562, 52.499276936424955 ], [ 13.519607124534014, 52.499393351316321 ] ], [ [ 13.521258158547917, 52.499863024594546 ], [ 13.522023724093922, 52.499924809298314 ] ] ] } },
{ "type": "Feature", "properties": { "gisid": "4380710", "strnr": "43807", "strname": "Otto-Schmirgal-Straße", "strabnr": "10", "strabtypname": "Strasse", "bez": "11", "bezname": "Lichtenberg", "ort": "1101", "ortname": "Friedrichsfelde" }, "geometry": { "type": "MultiLineString", "coordinates": [ [ [ 13.520017113626711, 52.496695945408526 ], [ 13.520283375911951, 52.496797732456955 ], [ 13.52067624102145, 52.496910415747443 ], [ 13.523520899697871, 52.497568940487064 ] ] ] } },
{ "type": "Feature", "properties": { "gisid": "4022410", "strnr": "40224", "strname": "Arthur-Weisbrodt-Straße", "strabnr": "10", "strabtypname": "Strasse", "bez": "11", "bezname": "Lichtenberg", "ort": "1111", "ortname": "Fennpfuhl" }, "geometry": { "type": "MultiLineString", "coordinates": [ [ [ 13.459935841866132, 52.526498754056298 ], [ 13.46007664622185, 52.526668797082294 ], [ 13.460756835276349, 52.527984476023967 ] ] ] } },
{ "type": "Feature", "properties": { "gisid": "4033110,4033120,4033130,4033140", "strnr": "40331", "strname": "Bietzkestraße", "strabnr": "10,20,30,40", "strabtypname": "Strasse", "bez": "11", "bezname": "Lichtenberg", "ort": "1112", "ortname": "Rummelsburg" }, "geometry": { "type": "MultiLineString", "coordinates": [ [ [ 13.499779322995387, 52.505191710001512 ], [ 13.500412937557288, 52.505068371519869 ] ], [ [ 13.500412937557288, 52.505068371519869 ], [ 13.501811280209063, 52.504802949587123 ] ], [ [ 13.501811280209063, 52.504802949587123 ], [ 13.503342261052449, 52.504496311123397 ] ], [ [ 13.503342261052449, 52.504496311123397 ], [ 13.504640399409263, 52.504240637326248 ] ] ] } },
{ "type": "Feature", "properties": { "gisid": "4074810,4074820,4074830,4074840,4074850,4074860,4074870", "strnr": "40748", "strname": "Erich-Kuttner-Straße", "strabnr": "10,20,30,40,50,60,70", "strabtypname": "Strasse", "bez": "11", "bezname": "Lichtenberg", "ort": "1111", "ortname": "Fennpfuhl" }, "geometry": { "type": "MultiLineString", "coordinates": [ [ [ 13.460267277318517, 52.528081742071272 ], [ 13.459345681604512, 52.528260174147846 ], [ 13.459103123340837, 52.527724235986796 ], [ 13.458732138527253, 52.527638338484081 ], [ 13.458455312928429, 52.527590317281351 ] ], [ [ 13.460756835276349, 52.527984476023967 ], [ 13.460267277318517, 52.528081742071272 ] ], [ [ 13.462381688447982, 52.527691085265253 ], [ 13.460756835276349, 52.527984476023967 ] ], [ [ 13.46300685779752, 52.527576923679689 ], [ 13.462381688447982, 52.527691085265253 ] ], [ [ 13.463991820553984, 52.52738776735773 ], [ 13.46300685779752, 52.527576923679689 ] ], [ [ 13.465584220790877, 52.527092490114782 ], [ 13.463991820553984, 52.52738776735773 ] ], [ [ 13.466188748512936, 52.526977385110683 ], [ 13.465584220790877, 52.527092490114782 ] ] ] } },
{ "type": "Feature", "properties": { "gisid": "4076010", "strnr": "40760", "strname": "Ernst-Reinke-Straße", "strabnr": "10", "strabtypname": "Strasse", "bez": "11", "bezname": "Lichtenberg", "ort": "1111", "ortname": "Fennpfuhl" }, "geometry": { "type": "MultiLineString", "coordinates": [ [ [ 13.462381688447982, 52.527691085265253 ], [ 13.462026220946129, 52.526999530204598 ], [ 13.460951303684405, 52.527208315366586 ], [ 13.460862579959388, 52.527292663984689 ] ] ] } },
{ "type": "Feature", "properties": { "gisid": "4098310", "strnr": "40983", "strname": "Georg-Lehnig-Straße", "strabnr": "10", "strabtypname": "Strasse", "bez": "11", "bezname": "Lichtenberg", "ort": "1111", "ortname": "Fennpfuhl" }, "geometry": { "type": "MultiLineString", "coordinates": [ [ [ 13.465584220790877, 52.527092490114782 ], [ 13.465233166138709, 52.526391066144789 ], [ 13.464245306140281, 52.526573938256092 ], [ 13.464121270267842, 52.526646559015234 ] ] ] } },
{ "type": "Feature", "properties": { "gisid": "4149410", "strnr": "41494", "strname": "Karl-Vesper-Straße", "strabnr": "10", "strabtypname": "Strasse", "bez": "11", "bezname": "Lichtenberg", "ort": "1111", "ortname": "Fennpfuhl" }, "geometry": { "type": "MultiLineString", "coordinates": [ [ [ 13.460267277318517, 52.528081742071272 ], [ 13.460311159711303, 52.528167175377945 ], [ 13.46062099798791, 52.52884069861004 ], [ 13.461260922205602, 52.528726567259348 ], [ 13.461306772252112, 52.528680799583299 ] ] ] } },
{ "type": "Feature", "properties": { "gisid": "4192710,4192720,4192730", "strnr": "41927", "strname": "Max-Brunnow-Straße", "strabnr": "10,20,30", "strabtypname": "Strasse", "bez": "11", "bezname": "Lichtenberg", "ort": "1111", "ortname": "Fennpfuhl" }, "geometry": { "type": "MultiLineString", "coordinates": [ [ [ 13.458831690861093, 52.526646370283586 ], [ 13.45907333051573, 52.526646712682783 ], [ 13.459935841866132, 52.526498754056298 ] ], [ [ 13.462495409180441, 52.52603772794474 ], [ 13.460240891220815, 52.526484804510325 ], [ 13.459935841866132, 52.526498754056298 ] ], [ [ 13.462495409180441, 52.52603772794474 ], [ 13.46265464851718, 52.526007394100837 ], [ 13.463907996987567, 52.525747616681173 ], [ 13.464689566550184, 52.525564464649243 ], [ 13.465176166965295, 52.525459987077575 ] ] ] } },
{ "type": "Feature", "properties": { "gisid": "4338310,4338320,4338330,4338340,4338350", "strnr": "43383", "strname": "Robert-Uhrig-Straße", "strabnr": "10,20,30,40,50", "strabtypname": "Strasse", "bez": "11", "bezname": "Lichtenberg", "ort": "1101", "ortname": "Friedrichsfelde" }, "geometry": { "type": "MultiLineString", "coordinates": [ [ [ 13.512036736771956, 52.510256388057655 ], [ 13.511981937886365, 52.50923906217286 ] ], [ [ 13.511919317486287, 52.508964912528789 ], [ 13.511848315936298, 52.507950266875717 ], [ 13.511832932877972, 52.507635723217568 ], [ 13.511862593545356, 52.507556670989239 ], [ 13.511829839616965, 52.507126185222042 ] ], [ [ 13.511479007998606, 52.505552306278261 ], [ 13.511701146546347, 52.506776484877712 ], [ 13.511829839616965, 52.507126185222042 ] ], [ [ 13.511479007998606, 52.505552306278261 ], [ 13.511300590275093, 52.504508797666681 ], [ 13.511267477986367, 52.504218501382546 ] ], [ [ 13.511981937886365, 52.50923906217286 ], [ 13.511919317486287, 52.508964912528789 ] ] ] } },
{ "type": "Feature", "properties": { "gisid": "4357710,43577100,4357720,4357730,4357740,4357750,4357760,4357770,4357780,4357790", "strnr": "43577", "strname": "Alfred-Kowalke-Straße", "strabnr": "10,100,20,30,40,50,60,70,80,90", "strabtypname": "Strasse", "bez": "11", "bezname": "Lichtenberg", "ort": "1101", "ortname": "Friedrichsfelde" }, "geometry": { "type": "MultiLineString", "coordinates": [ [ [ 13.516088271754608, 52.505686089703346 ], [ 13.515203331424141, 52.50562056003438 ], [ 13.513910614773314, 52.505491732062829 ], [ 13.513611807872897, 52.50543213753943 ] ], [ [ 13.518669425105765, 52.505899646387988 ], [ 13.518268662189925, 52.505973870041842 ], [ 13.516419369621634, 52.505791540245639 ], [ 13.516088271754608, 52.505686089703346 ] ], [ [ 13.516540558009883, 52.505620908000942 ], [ 13.516088271754608, 52.505686089703346 ] ], [ [ 13.518973290772763, 52.505701320095902 ], [ 13.518574310362832, 52.505649735006074 ], [ 13.5170575147931, 52.505607906801117 ], [ 13.516540558009883, 52.505620908000942 ] ], [ [ 13.518973290772763, 52.505701320095902 ], [ 13.518669425105765, 52.505899646387988 ] ], [ [ 13.519822741954457, 52.505828796385188 ], [ 13.519601971082844, 52.505771982464871 ], [ 13.518973290772763, 52.505701320095902 ] ], [ [ 13.519822741954457, 52.505828796385188 ], [ 13.519991948220726, 52.505893651061221 ], [ 13.521825500596465, 52.506510859050763 ] ], [ [ 13.521825500596465, 52.506510859050763 ], [ 13.52171038200161, 52.506613204305793 ], [ 13.521640941649835, 52.506706602366215 ], [ 13.521621411281574, 52.506868342986706 ], [ 13.521473244090343, 52.507242050963519 ] ], [ [ 13.522706799211296, 52.50688277630524 ], [ 13.52220222912335, 52.50663520489671 ], [ 13.521825500596465, 52.506510859050763 ] ], [ [ 13.522706799211296, 52.50688277630524 ], [ 13.522930413481921, 52.506987215279153 ], [ 13.523660357729968, 52.507221499343409 ], [ 13.524706841186097, 52.507505477439196 ] ] ] } },
{ "type": "Feature", "properties": { "gisid": "4363610,4363620,4363630,4363640,4363650,4363660,4363670,4363680", "strnr": "43636", "strname": "Zachertstraße", "strabnr": "10,20,30,40,50,60,70,80", "strabtypname": "Strasse", "bez": "11", "bezname": "Lichtenberg", "ort": "1112", "ortname": "Rummelsburg" }, "geometry": { "type": "MultiLineString", "coordinates": [ [ [ 13.501959852712332, 52.506948187180264 ], [ 13.501454386216313, 52.50705729165329 ] ], [ [ 13.503197633178702, 52.506712236240837 ], [ 13.501959852712332, 52.506948187180264 ] ], [ [ 13.504578359564123, 52.506438676236897 ], [ 13.503197633178702, 52.506712236240837 ] ], [ [ 13.505696751119572, 52.506227737907039 ], [ 13.504578359564123, 52.506438676236897 ] ], [ [ 13.508267842565735, 52.505793583471579 ], [ 13.507622566015167, 52.505876513033378 ], [ 13.507090699576974, 52.505955060155536 ], [ 13.505696751119572, 52.506227737907039 ] ], [ [ 13.509511115387266, 52.505682483718275 ], [ 13.508267842565735, 52.505793583471579 ] ], [ [ 13.509511115387266, 52.505682483718275 ], [ 13.511479007998606, 52.505552306278261 ] ], [ [ 13.511479007998606, 52.505552306278261 ], [ 13.513161151767102, 52.505434403468634 ], [ 13.513332103517728, 52.505388735852485 ], [ 13.513611807872897, 52.50543213753943 ] ] ] } },
{ "type": "Feature", "properties": { "gisid": "4376610,4376620,4376630,4376640,4376650,4376660", "strnr": "43766", "strname": "Elli-Voigt-Straße", "strabnr": "10,20,30,40,50,60", "strabtypname": "Strasse", "bez": "11", "bezname": "Lichtenberg", "ort": "1111", "ortname": "Fennpfuhl" }, "geometry": { "type": "MultiLineString", "coordinates": [ [ [ 13.485353174608198, 52.527131205087656 ], [ 13.484489677255084, 52.527150840705765 ], [ 13.484570260191694, 52.528664261670194 ] ], [ [ 13.485445557090069, 52.52865003154151 ], [ 13.484570260191694, 52.528664261670194 ] ], [ [ 13.483938066972174, 52.528685069532152 ], [ 13.484570260191694, 52.528664261670194 ] ], [ [ 13.481923668961439, 52.528727557969148 ], [ 13.483938066972174, 52.528685069532152 ] ], [ [ 13.483938066972174, 52.528685069532152 ], [ 13.483992435412389, 52.529642195932063 ], [ 13.484025548020377, 52.530338688707545 ], [ 13.484018955940906, 52.530554355871871 ] ], [ [ 13.483561580557966, 52.531639371184028 ], [ 13.483529277756684, 52.531149569384581 ], [ 13.483559119388968, 52.531035477054253 ], [ 13.483618339280227, 52.530950177081088 ], [ 13.483916873261592, 52.530680043695384 ], [ 13.484018955940906, 52.530554355871871 ] ] ] } },
{ "type": "Feature", "properties": { "gisid": "4376710,4376720,4376730,4376740", "strnr": "43767", "strname": "Paul-Zobel-Straße", "strabnr": "10,20,30,40", "strabtypname": "Strasse", "bez": "11", "bezname": "Lichtenberg", "ort": "1111", "ortname": "Fennpfuhl" }, "geometry": { "type": "MultiLineString", "coordinates": [ [ [ 13.48271834186705, 52.524523747068912 ], [ 13.482843754653443, 52.526728286406595 ] ], [ [ 13.485306879100888, 52.526405041638903 ], [ 13.484823576540963, 52.52641255147477 ], [ 13.484721972281999, 52.526393558111877 ], [ 13.484646844172715, 52.525015838921902 ], [ 13.484576351785675, 52.524487348866629 ] ], [ [ 13.481983109417849, 52.524533635045884 ], [ 13.48271834186705, 52.524523747068912 ] ], [ [ 13.484576351785675, 52.524487348866629 ], [ 13.48271834186705, 52.524523747068912 ] ] ] } },
{ "type": "Feature", "properties": { "gisid": "4376810", "strnr": "43768", "strname": "Herbert-Tschäpe-Straße", "strabnr": "10", "strabtypname": "Strasse", "bez": "11", "bezname": "Lichtenberg", "ort": "1111", "ortname": "Fennpfuhl" }, "geometry": { "type": "MultiLineString", "coordinates": [ [ [ 13.462971483031414, 52.532340613668879 ], [ 13.463220719676334, 52.53228793726754 ], [ 13.46461027066815, 52.531904326200596 ], [ 13.464767983789319, 52.531893757882514 ], [ 13.466717496280559, 52.532315176911396 ], [ 13.468226676460533, 52.532668576571069 ] ] ] } },
{ "type": "Feature", "properties": { "gisid": "4376910,4376920", "strnr": "43769", "strname": "Judith-Auer-Straße", "strabnr": "10,20", "strabtypname": "Strasse", "bez": "11", "bezname": "Lichtenberg", "ort": "1111", "ortname": "Fennpfuhl" }, "geometry": { "type": "MultiLineString", "coordinates": [ [ [ 13.468967831730309, 52.531454592429604 ], [ 13.468226676460533, 52.532668576571069 ] ], [ [ 13.468226676460533, 52.532668576571069 ], [ 13.467706264667262, 52.533547656656339 ], [ 13.467598121044304, 52.533704774507648 ], [ 13.467391062282216, 52.533911185581651 ] ] ] } },
{ "type": "Feature", "properties": { "gisid": "4377010,4377020,4377030", "strnr": "43770", "strname": "Otto-Marquardt-Straße", "strabnr": "10,20,30", "strabtypname": "Strasse", "bez": "11", "bezname": "Lichtenberg", "ort": "1111", "ortname": "Fennpfuhl" }, "geometry": { "type": "MultiLineString", "coordinates": [ [ [ 13.470768803235851, 52.533465456496671 ], [ 13.470849996417254, 52.533425123761653 ], [ 13.47164772760572, 52.532029671120121 ] ], [ [ 13.470768803235851, 52.533465456496671 ], [ 13.470940875766216, 52.533562736851891 ], [ 13.473522188471588, 52.534138540189517 ] ], [ [ 13.468835848202669, 52.534568234106018 ], [ 13.469091378642013, 52.534405019816312 ], [ 13.469208188085419, 52.534296439000883 ], [ 13.469329567903401, 52.534145627246211 ], [ 13.469783330020528, 52.533353620989907 ], [ 13.469852728860614, 52.533315071292492 ], [ 13.469948517649117, 52.533314299351304 ], [ 13.470689198448522, 52.533473439506949 ], [ 13.470768803235851, 52.533465456496671 ] ] ] } },
{ "type": "Feature", "properties": { "gisid": "4378610,4378620,4378630,4378640,4378650,4378660,4378670,4378680,4378690", "strnr": "43786", "strname": "Paul-Junius-Straße", "strabnr": "10,20,30,40,50,60,70,80,90", "strabtypname": "Strasse", "bez": "11", "bezname": "Lichtenberg", "ort": "1103", "ortname": "Lichtenberg" }, "geometry": { "type": "MultiLineString", "coordinates": [ [ [ 13.473395922814962, 52.522984346172549 ], [ 13.473445561901618, 52.520570636368156 ] ], [ [ 13.473389604707551, 52.524378143890885 ], [ 13.473395922814962, 52.522984346172549 ] ], [ [ 13.473389604707551, 52.524378143890885 ], [ 13.473392598749632, 52.525212094206552 ], [ 13.473418900259629, 52.525275034101774 ], [ 13.473539625296766, 52.525301250967424 ], [ 13.475416721801887, 52.525296473670998 ] ], [ [ 13.475421673177125, 52.524282802799391 ], [ 13.475416721801887, 52.525296473670998 ] ], [ [ 13.475488958596475, 52.526573546721615 ], [ 13.475422223921649, 52.526269718061343 ], [ 13.475413860643453, 52.526130416508643 ], [ 13.475416721801887, 52.525296473670998 ] ], [ [ 13.475488958596475, 52.526573546721615 ], [ 13.475264908095056, 52.526600219823671 ], [ 13.4742609023388, 52.526775966061166 ], [ 13.474140132013547, 52.526761432253437 ], [ 13.474084287963814, 52.526719123531137 ], [ 13.473895643562638, 52.526307299344658 ], [ 13.473871318467179, 52.526098780658742 ] ], [ [ 13.47570408189114, 52.52700247660151 ], [ 13.475488958596475, 52.526573546721615 ] ], [ [ 13.47570408189114, 52.52700247660151 ], [ 13.477602969967917, 52.526675077262183 ] ], [ [ 13.477602969967917, 52.526675077262183 ], [ 13.477756543152076, 52.52701136507693 ], [ 13.4778211669369, 52.52707255452966 ], [ 13.478409136710241, 52.528366447918266 ], [ 13.478837190807329, 52.52858355693968 ] ] ] } },
{ "type": "Feature", "properties": { "gisid": "4379510,4379520,4379530", "strnr": "43795", "strname": "Anton-Saefkow-Platz", "strabnr": "10,20,30", "strabtypname": "Strasse", "bez": "11", "bezname": "Lichtenberg", "ort": "1111", "ortname": "Fennpfuhl" }, "geometry": { "type": "MultiLineString", "coordinates": [ [ [ 13.469861337515784, 52.527995980622833 ], [ 13.472066923067608, 52.527630433944772 ] ], [ [ 13.472066923067608, 52.527630433944772 ], [ 13.47570408189114, 52.52700247660151 ] ], [ [ 13.471987144484212, 52.529790681896387 ], [ 13.472195147367486, 52.529302986980994 ], [ 13.470949455866908, 52.529048835492063 ] ] ] } },
{ "type": "Feature", "properties": { "gisid": "4379610,4379620,4379630,4379640", "strnr": "43796", "strname": "Franz-Jacob-Straße", "strabnr": "10,20,30,40", "strabtypname": "Strasse", "bez": "11", "bezname": "Lichtenberg", "ort": "1111", "ortname": "Fennpfuhl" }, "geometry": { "type": "MultiLineString", "coordinates": [ [ [ 13.464733540226629, 52.524423239641465 ], [ 13.465176166965295, 52.525459987077575 ] ], [ [ 13.465176166965295, 52.525459987077575 ], [ 13.465398985011474, 52.525770324519058 ], [ 13.465721709596394, 52.526159879038772 ], [ 13.465925364296199, 52.526474682732697 ], [ 13.466188748512936, 52.526977385110683 ] ], [ [ 13.466936207169969, 52.52848543062521 ], [ 13.466188748512936, 52.526977385110683 ] ], [ [ 13.466936207169969, 52.52848543062521 ], [ 13.467012287530737, 52.52863470895678 ], [ 13.467203203630053, 52.528811101663493 ], [ 13.467401574678037, 52.528963240319328 ], [ 13.467619279186453, 52.529066877178472 ], [ 13.467856220288519, 52.529148073041767 ], [ 13.46855262905609, 52.529303572700378 ], [ 13.468704140235038, 52.529376565607862 ], [ 13.468963792213538, 52.529700424713525 ], [ 13.469506894786313, 52.530289762077288 ], [ 13.469527217083819, 52.530376059557213 ], [ 13.469509316873481, 52.530437143831186 ], [ 13.469417226330332, 52.53064191364156 ], [ 13.468967831730309, 52.531454592429604 ] ] ] } },
{ "type": "Feature", "properties": { "gisid": "4379710,43797100,4379720,4379730,4379740,4379750,4379760,4379770,4379780,4379790", "strnr": "43797", "strname": "Rudolf-Seiffert-Straße", "strabnr": "10,100,20,30,40,50,60,70,80,90", "strabtypname": "Strasse", "bez": "11", "bezname": "Lichtenberg", "ort": "1111", "ortname": "Fennpfuhl" }, "geometry": { "type": "MultiLineString", "coordinates": [ [ [ 13.467055096058031, 52.524544114301435 ], [ 13.466825530642774, 52.524061230074643 ] ], [ [ 13.470501949758903, 52.523934032448992 ], [ 13.470182019119209, 52.52316526480022 ] ], [ [ 13.467055096058031, 52.524544114301435 ], [ 13.46825827116686, 52.527158104083718 ], [ 13.468383476154601, 52.527168156352879 ], [ 13.468780061180684, 52.527103983276483 ] ], [ [ 13.468780061180684, 52.527103983276483 ], [ 13.470540436246486, 52.526795383442057 ], [ 13.470681726059688, 52.526840502795672 ] ], [ [ 13.471800221065394, 52.527213112047363 ], [ 13.47075342601028, 52.527397759766245 ], [ 13.470130980081665, 52.527581161394991 ], [ 13.469069499146133, 52.527747801390618 ], [ 13.468780061180684, 52.527103983276483 ] ], [ [ 13.472066923067608, 52.527630433944772 ], [ 13.471992130814241, 52.527529687278523 ], [ 13.471800221065394, 52.527213112047363 ] ], [ [ 13.471182923274501, 52.525521045433941 ], [ 13.471158842761637, 52.52566479774439 ], [ 13.471162882361323, 52.525772641019039 ], [ 13.471800221065394, 52.527213112047363 ] ], [ [ 13.469260448776502, 52.525852803702712 ], [ 13.470094931269982, 52.525700240475082 ], [ 13.471182923274501, 52.525521045433941 ] ], [ [ 13.470501949758903, 52.523934032448992 ], [ 13.47062800964177, 52.524116625052812 ], [ 13.471179138123965, 52.525341310848901 ], [ 13.471194888909453, 52.525470736330163 ], [ 13.471182923274501, 52.525521045433941 ] ], [ [ 13.467055096058031, 52.524544114301435 ], [ 13.470501949758903, 52.523934032448992 ] ] ] } },
{ "type": "Feature", "properties": { "gisid": "4379810,4379820,4379830", "strnr": "43798", "strname": "Alfred-Jung-Straße", "strabnr": "10,20,30", "strabtypname": "Strasse", "bez": "11", "bezname": "Lichtenberg", "ort": "1103", "ortname": "Lichtenberg" }, "geometry": { "type": "MultiLineString", "coordinates": [ [ [ 13.477219160552641, 52.522974853912032 ], [ 13.477260824373388, 52.522853588347175 ], [ 13.477244303040001, 52.522077134084078 ], [ 13.477167013828302, 52.521408441347802 ], [ 13.477188731831886, 52.521085852872417 ], [ 13.477254923901825, 52.520246597129166 ] ], [ [ 13.475421673177125, 52.524282802799391 ], [ 13.477192684046695, 52.524266179662 ], [ 13.477219160552641, 52.522974853912032 ] ], [ [ 13.475421673177125, 52.524282802799391 ], [ 13.473389604707551, 52.524378143890885 ] ] ] } },
{ "type": "Feature", "properties": { "gisid": "4379910,4379920,4379930,4379940,4379950", "strnr": "43799", "strname": "Karl-Lade-Straße", "strabnr": "10,20,30,40,50", "strabtypname": "Strasse", "bez": "11", "bezname": "Lichtenberg", "ort": "1111", "ortname": "Fennpfuhl" }, "geometry": { "type": "MultiLineString", "coordinates": [ [ [ 13.460761219499782, 52.529559814581816 ], [ 13.462063185306373, 52.529332475324068 ] ], [ [ 13.462063185306373, 52.529332475324068 ], [ 13.463879739561868, 52.529010573820521 ] ], [ [ 13.463879739561868, 52.529010573820521 ], [ 13.466936207169969, 52.52848543062521 ] ], [ [ 13.466936207169969, 52.52848543062521 ], [ 13.469861337515784, 52.527995980622833 ] ], [ [ 13.472448276219581, 52.527708214566218 ], [ 13.472881698837814, 52.527643177077074 ] ] ] } },
{ "type": "Feature", "properties": { "gisid": "4380210,4380220,4380230,4380240", "strnr": "43802", "strname": "Paul-Gesche-Straße", "strabnr": "10,20,30,40", "strabtypname": "Strasse", "bez": "11", "bezname": "Lichtenberg", "ort": "1101", "ortname": "Friedrichsfelde" }, "geometry": { "type": "MultiLineString", "coordinates": [ [ [ 13.511165113779803, 52.509009114368368 ], [ 13.511185482766438, 52.509105289858155 ], [ 13.511237310994888, 52.509561855718445 ], [ 13.511142866876208, 52.509630959602596 ], [ 13.509386922558937, 52.509746064329661 ], [ 13.508956133632951, 52.510014334952871 ], [ 13.508562761816947, 52.510057978783102 ], [ 13.508315333254496, 52.51005323866211 ] ], [ [ 13.511919317486287, 52.508964912528789 ], [ 13.511165113779803, 52.509009114368368 ] ], [ [ 13.508315333254496, 52.51005323866211 ], [ 13.508244088817124, 52.50970808631083 ], [ 13.508285430626604, 52.509670384232344 ], [ 13.50883933320261, 52.509628698007283 ], [ 13.508863052858811, 52.509571207506966 ], [ 13.508819797951375, 52.509222488164653 ], [ 13.508870004520146, 52.509174010443914 ], [ 13.509454871682008, 52.509117075403459 ], [ 13.511165113779803, 52.509009114368368 ] ], [ [ 13.508411379375024, 52.510487383275603 ], [ 13.508315333254496, 52.51005323866211 ] ] ] } },
{ "type": "Feature", "properties": { "gisid": "4380510", "strnr": "43805", "strname": "Elfriede-Tygör-Straße", "strabnr": "10", "strabtypname": "Strasse", "bez": "11", "bezname": "Lichtenberg", "ort": "1101", "ortname": "Friedrichsfelde" }, "geometry": { "type": "MultiLineString", "coordinates": [ [ [ 13.517149806940116, 52.503429658522599 ], [ 13.517460460022821, 52.50345959925145 ], [ 13.518240701727226, 52.503565456221828 ], [ 13.520025028780417, 52.503781848347643 ], [ 13.519872174754598, 52.504266084710196 ] ] ] } },
{ "type": "Feature", "properties": { "gisid": "4086410,4086420,4086430", "strnr": "40864", "strname": "Rudolf-Grosse-Straße", "strabnr": "10,20,30", "strabtypname": "Strasse", "bez": "11", "bezname": "Lichtenberg", "ort": "1102", "ortname": "Karlshorst" }, "geometry": { "type": "MultiLineString", "coordinates": [ [ [ 13.531681214192364, 52.490046747473173 ], [ 13.531426228833219, 52.488138683492458 ], [ 13.531391066111288, 52.488060471472089 ] ], [ [ 13.531889754873736, 52.491654621604368 ], [ 13.531681214192364, 52.490046747473173 ] ], [ [ 13.532028974722207, 52.492640565007306 ], [ 13.531889754873736, 52.491654621604368 ] ] ] } },
{ "type": "Feature", "properties": { "gisid": "4213310,4213320", "strnr": "42133", "strname": "Johannes-Zoschke-Straße", "strabnr": "10,20", "strabtypname": "Strasse", "bez": "11", "bezname": "Lichtenberg", "ort": "1102", "ortname": "Karlshorst" }, "geometry": { "type": "MultiLineString", "coordinates": [ [ [ 13.53005023245991, 52.488605776529873 ], [ 13.530266279928766, 52.490116603669648 ] ], [ [ 13.530266279928766, 52.490116603669648 ], [ 13.530377728780008, 52.490991991357738 ] ] ] } },
{ "type": "Feature", "properties": { "gisid": "4347610,43476100,43476110,4347620,4347630,4347640,4347650,4347660,4347670,4347680,4347690", "strnr": "43476", "strname": "Robert-Siewert-Straße", "strabnr": "10,100,110,20,30,40,50,60,70,80,90", "strabtypname": "Strasse", "bez": "11", "bezname": "Lichtenberg", "ort": "1102", "ortname": "Karlshorst" }, "geometry": { "type": "MultiLineString", "coordinates": [ [ [ 13.527640136391037, 52.493934659329227 ], [ 13.528204364288436, 52.493129027851516 ] ], [ [ 13.539778097413777, 52.493135348534125 ], [ 13.54226602860872, 52.493268343100802 ] ], [ [ 13.54226602860872, 52.493268343100802 ], [ 13.544801101182076, 52.493395027501656 ] ], [ [ 13.528204364288436, 52.493129027851516 ], [ 13.528313567353088, 52.493015887290497 ], [ 13.528606888632922, 52.49286515368258 ], [ 13.528941302248226, 52.492773765420189 ], [ 13.52946999423658, 52.492709495754852 ], [ 13.529936811644742, 52.492663145309095 ] ], [ [ 13.529936811644742, 52.492663145309095 ], [ 13.530612671958906, 52.492625050325103 ], [ 13.530911554250073, 52.492620797995905 ], [ 13.531345865417107, 52.492626539280884 ] ], [ [ 13.531345865417107, 52.492626539280884 ], [ 13.532028974722207, 52.492640565007306 ] ], [ [ 13.532028974722207, 52.492640565007306 ], [ 13.533465924448711, 52.492639902072334 ] ], [ [ 13.533465924448711, 52.492639902072334 ], [ 13.533942925912889, 52.492648362201301 ], [ 13.535732914828039, 52.492798023386975 ] ], [ [ 13.535732914828039, 52.492798023386975 ], [ 13.536589643209659, 52.492867871830228 ] ], [ [ 13.536589643209659, 52.492867871830228 ], [ 13.537793774774265, 52.492968528979667 ] ], [ [ 13.537793774774265, 52.492968528979667 ], [ 13.539778097413777, 52.493135348534125 ] ] ] } },
{ "type": "Feature", "properties": { "gisid": "4348810", "strnr": "43488", "strname": "Ursula-Goetze-Straße", "strabnr": "10", "strabtypname": "Strasse", "bez": "11", "bezname": "Lichtenberg", "ort": "1102", "ortname": "Karlshorst" }, "geometry": { "type": "MultiLineString", "coordinates": [ [ [ 13.531817312885073, 52.495901639843197 ], [ 13.531345865417107, 52.492626539280884 ] ] ] } }
]
}
