{
"type": "FeatureCollection",
"name": "Wid_NS_Reinickdrf_AGG_wgs84",
"crs": {
"type": "name",
"properties": {
"name": "urn:ogc:def:crs:OGC:1.3:CRS84"
}
},
"features": [
{
"type": "Feature",
"properties": {
"gisid": "0010710,0010720,0010730,0010740,0010750,0010760,0010770,0010780,0010790",
"strnr": "00107",
"strname": "Alt-Tegel",
"strabnr": "10,20,30,40,50,60,70,80,90",
"strabtypname": "Strasse",
"bez": "12",
"bezname": "Reinickendorf",
"ort": "1202",
"ortname": "Tegel"
},
"geometry": {
"type": "MultiLineString",
"coordinates": [
[
[
13.274385857230397,
52.58819870342398
],
[
13.274518606231354,
52.58820448985835
],
[
13.275099917803738,
52.588208913031494
]
],
[
[
13.276117268797108,
52.58811757054612
],
[
13.275921695625645,
52.58821853889491
],
[
13.275099917803738,
52.588208913031494
]
],
[
[
13.276117268797108,
52.58811757054612
],
[
13.276090968287026,
52.588085141466394
],
[
13.276269416756996,
52.587541089253705
]
],
[
[
13.276269416756996,
52.587541089253705
],
[
13.276512492301425,
52.58758853772842
],
[
13.277331204207583,
52.587796745557135
],
[
13.277576790029304,
52.58789991574701
]
],
[
[
13.277576790029304,
52.58789991574701
],
[
13.277969196991272,
52.58809517970691
],
[
13.278180430242003,
52.58825126702376
],
[
13.278338425960582,
52.58842247434489
]
],
[
[
13.278338425960582,
52.58842247434489
],
[
13.277144880500368,
52.58821945832523
],
[
13.276117268797108,
52.58811757054612
]
],
[
[
13.27938365389543,
52.58872389493463
],
[
13.278338425960582,
52.58842247434489
]
],
[
[
13.27938365389543,
52.58872389493463
],
[
13.281524114500055,
52.589352913800646
]
],
[
[
13.281524114500055,
52.589352913800646
],
[
13.283263441737814,
52.589961859659205
]
]
]
}
},
{
"type": "Feature",
"properties": {
"gisid": "0060910,0060920",
"strnr": "00609",
"strname": "Blesener Zeile",
"strabnr": "10,20",
"strabtypname": "Strasse",
"bez": "12",
"bezname": "Reinickendorf",
"ort": "1202",
"ortname": "Tegel"
},
"geometry": {
"type": "MultiLineString",
"coordinates": [
[
[
13.301069933360122,
52.59242501020932
],
[
13.301291327296926,
52.59241842946666
],
[
13.303385233664978,
52.592622763444055
],
[
13.303619618397821,
52.59265575440535
]
],
[
[
13.303619618397821,
52.59265575440535
],
[
13.303745118955455,
52.59264621098004
],
[
13.304517768931726,
52.592726497570176
],
[
13.304963091343161,
52.59277084260781
]
]
]
}
},
{
"type": "Feature",
"properties": {
"gisid": "0150710,0150720,0150730,0150740,0150750,0150760",
"strnr": "01507",
"strname": "General-Barby-Straße",
"strabnr": "10,20,30,40,50,60",
"strabtypname": "Strasse",
"bez": "12",
"bezname": "Reinickendorf",
"ort": "1201",
"ortname": "Reinickendorf"
},
"geometry": {
"type": "MultiLineString",
"coordinates": [
[
[
13.317210634701334,
52.568946210684494
],
[
13.316450915628083,
52.5668809255486
]
],
[
[
13.317899918491916,
52.57076058252923
],
[
13.317210634701334,
52.568946210684494
]
],
[
[
13.318709663829393,
52.572862831457115
],
[
13.31795814280649,
52.5708703701835
],
[
13.317899918491916,
52.57076058252923
]
],
[
[
13.318709663829393,
52.572862831457115
],
[
13.318695261649697,
52.57407596810676
]
],
[
[
13.318695261649697,
52.57407596810676
],
[
13.318772193239656,
52.57467466677622
],
[
13.318901020125386,
52.57607779022704
]
],
[
[
13.318901020125386,
52.57607779022704
],
[
13.319034902990586,
52.57739195975987
]
]
]
}
},
{
"type": "Feature",
"properties": {
"gisid": "0150910,0150920,0150930,0150940,0150950,0150960",
"strnr": "01509",
"strname": "General-Woyna-Straße",
"strabnr": "10,20,30,40,50,60",
"strabtypname": "Strasse",
"bez": "12",
"bezname": "Reinickendorf",
"ort": "1201",
"ortname": "Reinickendorf"
},
"geometry": {
"type": "MultiLineString",
"coordinates": [
[
[
13.314691497844063,
52.56729687100279
],
[
13.314486535387825,
52.56666907390891
]
],
[
[
13.314691497844063,
52.56729687100279
],
[
13.315401984380573,
52.569222746199365
]
],
[
[
13.315401984380573,
52.569222746199365
],
[
13.31608702008633,
52.57100207154779
]
],
[
[
13.31608702008633,
52.57100207154779
],
[
13.316271634407178,
52.57138448034843
],
[
13.316840608940916,
52.572898395036994
],
[
13.316925466459871,
52.57299656949808
]
],
[
[
13.316925466459871,
52.57299656949808
],
[
13.317034283911187,
52.573043583534705
],
[
13.317181635450822,
52.5730646376869
],
[
13.318709663829393,
52.572862831457115
]
],
[
[
13.316925466459871,
52.57299656949808
],
[
13.316855699891818,
52.57305929209513
],
[
13.316796131681501,
52.57314001416115
],
[
13.316731738783645,
52.5732773393491
],
[
13.316741429756737,
52.573367228913376
],
[
13.316871319408827,
52.57377285926307
],
[
13.317025951663139,
52.57422618195539
],
[
13.316969217117416,
52.57432308698716
]
]
]
}
},
{
"type": "Feature",
"properties": {
"gisid": "0165710,0165720",
"strnr": "01657",
"strname": "Graf-Haeseler-Straße",
"strabnr": "10,20",
"strabtypname": "Strasse",
"bez": "12",
"bezname": "Reinickendorf",
"ort": "1201",
"ortname": "Reinickendorf"
},
"geometry": {
"type": "MultiLineString",
"coordinates": [
[
[
13.313860653786108,
52.569444245792084
],
[
13.313177193903586,
52.56766670824608
]
],
[
[
13.313860653786108,
52.569444245792084
],
[
13.314522159166751,
52.571205543668974
]
]
]
}
},
{
"type": "Feature",
"properties": {
"gisid": "0185910,0185920,0185930,0185940",
"strnr": "01859",
"strname": "Hatzfeldtallee",
"strabnr": "10,20,30,40",
"strabtypname": "Strasse",
"bez": "12",
"bezname": "Reinickendorf",
"ort": "1202",
"ortname": "Tegel"
},
"geometry": {
"type": "MultiLineString",
"coordinates": [
[
[
13.28832029,
52.59205498
],
[
13.28970329,
52.59220361
]
],
[
[
13.28970329,
52.59220361
],
[
13.29161123,
52.59240402
]
],
[
[
13.29161123,
52.59240402
],
[
13.29452777,
52.5927052
]
],
[
[
13.29702667,
52.59321272
],
[
13.29686775,
52.59315207
],
[
13.29551115,
52.59301708
],
[
13.29496261,
52.59296343
],
[
13.29480056,
52.59292793
],
[
13.29467561,
52.59286467
],
[
13.29452777,
52.5927052
]
]
]
}
},
{
"type": "Feature",
"properties": {
"gisid": "0384510",
"strnr": "03845",
"strname": "Saalmannstraße",
"strabnr": "10",
"strabtypname": "Strasse",
"bez": "12",
"bezname": "Reinickendorf",
"ort": "1201",
"ortname": "Reinickendorf"
},
"geometry": {
"type": "MultiLineString",
"coordinates": [
[
[
13.329291956122821,
52.575582225931356
],
[
13.329528111970665,
52.57774226645921
]
]
]
}
},
{
"type": "Feature",
"properties": {
"gisid": "0449910,04499100,04499110,0449920,0449930,0449940,0449950,0449960,0449970,0449980,0449990",
"strnr": "04499",
"strname": "Tile-Brügge-Weg",
"strabnr": "10,100,110,20,30,40,50,60,70,80,90",
"strabtypname": "Verwaltungsweg",
"bez": "12",
"bezname": "Reinickendorf",
"ort": "1202",
"ortname": "Tegel"
},
"geometry": {
"type": "MultiLineString",
"coordinates": [
[
[
13.288685914906694,
52.59113940621177
],
[
13.288999982437105,
52.591169957152026
]
],
[
[
13.302444694826953,
52.59369676973156
],
[
13.302103278213574,
52.59336962613308
]
],
[
[
13.288999982437105,
52.591169957152026
],
[
13.289959839080973,
52.591268845105425
]
],
[
[
13.289959839080973,
52.591268845105425
],
[
13.291882538992597,
52.591463909168105
]
],
[
[
13.291882538992597,
52.591463909168105
],
[
13.294787206894737,
52.59176594041621
]
],
[
[
13.297382368662468,
52.59202300722454
],
[
13.294787206894737,
52.59176594041621
]
],
[
[
13.297568038819264,
52.59205767168357
],
[
13.297382368662468,
52.59202300722454
]
],
[
[
13.299626361128746,
52.592279946620906
],
[
13.297568038819264,
52.59205767168357
]
],
[
[
13.300754359562042,
52.592396284189704
],
[
13.299626361128746,
52.592279946620906
]
],
[
[
13.301069933360122,
52.59242501020932
],
[
13.300754359562042,
52.592396284189704
]
],
[
[
13.302103278213574,
52.59336962613308
],
[
13.301265376718735,
52.592535182219244
],
[
13.301069933360122,
52.59242501020932
]
]
]
}
},
{
"type": "Feature",
"properties": {
"gisid": "0501110,0501120,0501130,0501140,0501150,0501160,0501170,0501180,0501190",
"strnr": "05011",
"strname": "Ziekowstraße",
"strabnr": "10,20,30,40,50,60,70,80,90",
"strabtypname": "Strasse",
"bez": "12",
"bezname": "Reinickendorf",
"ort": "1202",
"ortname": "Tegel"
},
"geometry": {
"type": "MultiLineString",
"coordinates": [
[
[
13.29164826899806,
52.5950928757405
],
[
13.291650128665028,
52.595816290709955
],
[
13.291619442385873,
52.595969871664714
]
],
[
[
13.29164826899806,
52.5950928757405
],
[
13.291602910042819,
52.59446189809922
]
],
[
[
13.291611233022142,
52.59240402416494
],
[
13.291550221155472,
52.59285766711245
],
[
13.291602910042819,
52.59446189809922
]
],
[
[
13.291882538992597,
52.591463909168105
],
[
13.291611233022142,
52.59240402416494
]
],
[
[
13.292149024154165,
52.590574103764354
],
[
13.292104031728362,
52.59066923336019
],
[
13.291882538992597,
52.591463909168105
]
],
[
[
13.292526776502388,
52.5896037344564
],
[
13.292354076664711,
52.58999954953029
],
[
13.292149024154165,
52.590574103764354
]
],
[
[
13.292526776502388,
52.5896037344564
],
[
13.292706045927154,
52.58931397754712
],
[
13.292929823358424,
52.58899199420456
],
[
13.293306663016432,
52.588526658121786
],
[
13.293675374996496,
52.588159249860695
]
],
[
[
13.293675374996496,
52.588159249860695
],
[
13.294100324615494,
52.58776863460869
],
[
13.294786106133145,
52.58722507954978
]
],
[
[
13.295225324369246,
52.58689650658877
],
[
13.294786106133145,
52.58722507954978
]
]
]
}
}
]
}
